NLLOC "./loc/icequake_20140629184210_event/loc.Tom__RunNLLoc000.20140629.184210.grid0" "LOCATED" "Location completed."
SIGNATURE "Tom Hudson, BAS and University of Cambridge   NLLoc:v6.00.0 24Jan2018 14h26m37"
COMMENT "Control"
GRID  200 200 126  -5 -5 -1.35  0.05 0.05 0.05 PROB_DENSITY
SEARCH OCTREE nInitial 400 nEvaluated 200008 smallestNodeSide 0.001943/0.001943/0.003076 oct_tree_integral 7.258969e-04 scatter_volume 7.236132e-04
HYPOCENTER  x 0.0595361 y 0.201401 z -0.742456  OT 10.3656  ix -1 iy -1 iz -1
GEOGRAPHIC  OT 2014 06 29  18 42   10.3656  Lat 64.3298 Long -17.2228 Depth -0.742456
QUALITY  Pmax 2.32722e+60 MFmin 67.4246 MFmax 84.1506 RMS 0.00971586 Nphs 17 Gap 87.5078 Dist 0.212066 Mamp  -9.9 0 Mdur  -9.9 0
VPVSRATIO  VpVsRatio 2.06338  Npair 8  Diff 0.074
STATISTICS  ExpectX 0.0504654 Y 0.198962 Z -0.755744  CovXX 0.00181933 XY 4.74324e-05 XZ 0.00111581 YY 0.000898308 YZ 6.68183e-07 ZZ 0.00331203 EllAz1  173.471 Dip1  -2.98648 Len1  0.0561426 Az2  261.886 Dip2  27.9333 Len2  0.0658527 Len3  1.174572e-01
STAT_GEOG  ExpectLat 64.3298 Long -17.223 Depth -0.755744
TRANSFORM  LAMBERT RefEllipsoid WGS-84  LatOrig 64.328000  LongOrig -17.224000  FirstStdParal 64.300000  SecondStdParal 64.350000  RotCW 0.000000
QML_OriginQuality  assocPhCt 17  usedPhCt 17  assocStaCt -1  usedStaCt 9  depthPhCt -1  stdErr 0.00971586  azGap 87.5078  secAzGap 87.5078  gtLevel -  minDist 0.212066 maxDist 0.979912 medDist 0.518731
QML_OriginUncertainty  horUnc -1  minHorUnc 0.0453928  maxHorUnc 0.0647307  azMaxHorUnc 87.0597
FOCALMECH  Hyp  64.3298 -17.2228 -0.742456 Mech  0 0 0 mf  0 nObs 0
PHASE ID Ins Cmp On Pha  FM Date     HrMn   Sec     Err  ErrMag    Coda      Amp       Per  >   TTpred    Res       Weight    StaLoc(X  Y         Z)        SDist    SAzim  RAz  RDip RQual    Tcorr 
SKR01  ?    ?    ? P      U 20140629 1842     10.53 GAU     0.004        -1        -1        -1 >    0.1624    0.0000    1.5465   -0.0034   -0.0011   -1.2920    0.2121 197.26 197.3 159.0  9     0.0000
SKR01  ?    ?    ? S      ? 20140629 1842      10.7 GAU     0.004        -1        -1        -1 >    0.3193    0.0151    1.0745   -0.0034   -0.0011   -1.2920    0.2121 197.26 197.3 159.0  9     0.0000
SKR02  ?    ?    ? P      U 20140629 1842     10.54 GAU     0.002        -1        -1        -1 >    0.1746   -0.0042    1.4551    0.2940    0.0067   -1.2980    0.3048 129.70 129.7 151.3  9     0.0000
SKR02  ?    ?    ? S      ? 20140629 1842     10.71 GAU     0.004        -1        -1        -1 >    0.3434   -0.0010    1.1878    0.2940    0.0067   -1.2980    0.3048 129.70 129.7 151.3  9     0.0000
SKR07  ?    ?    ? P      U 20140629 1842     10.55 GAU     0.002        -1        -1        -1 >    0.1892   -0.0008    1.5111    0.2795    0.5262   -1.3060    0.3923  34.10  34.1 145.2  9     0.0000
SKR07  ?    ?    ? S      ? 20140629 1842     10.75 GAU      0.01        -1        -1        -1 >    0.3721    0.0103    1.0637    0.2795    0.5262   -1.3060    0.3923  34.10  34.1 145.2  9     0.0000
SKR06  ?    ?    ? P      U 20140629 1842     10.56 GAU     0.004        -1        -1        -1 >    0.1925    0.0019    1.4924   -0.2833    0.4560   -1.2950    0.4270 306.59 306.6 142.3  9     0.0000
SKR06  ?    ?    ? S      ? 20140629 1842     10.77 GAU       0.1        -1        -1        -1 >    0.3785    0.0279    0.3423   -0.2833    0.4560   -1.2950    0.4270 306.59 306.6 142.3  9     0.0000
SKR03  ?    ?    ? P      U 20140629 1842     10.57 GAU     0.002        -1        -1        -1 >    0.2075   -0.0011    1.4690    0.1843   -0.3021   -1.2880    0.5187 166.09 166.1 136.5  9     0.0000
SKR03  ?    ?    ? S      ? 20140629 1842     10.78 GAU      0.01        -1        -1        -1 >    0.4080    0.0104    1.0261    0.1843   -0.3021   -1.2880    0.5187 166.09 166.1 136.5  9     0.0000
SKR05  ?    ?    ? P      U 20140629 1842     10.59 GAU     0.004        -1        -1        -1 >    0.2184    0.0019    1.4404   -0.4787   -0.0189   -1.2810    0.5816 247.74 247.7 132.8  9     0.0000
SKR05  ?    ?    ? S      ? 20140629 1842     10.82 GAU       0.1        -1        -1        -1 >    0.4295    0.0248    0.3423   -0.4787   -0.0189   -1.2810    0.5816 247.74 247.7 132.8  9     0.0000
SKR04  ?    ?    ? P      U 20140629 1842     10.59 GAU     0.002        -1        -1        -1 >    0.2271    0.0013    1.4447   -0.1954   -0.3679   -1.2810    0.6238 204.12 204.1 130.8  9     0.0000
SKR04  ?    ?    ? S      ? 20140629 1842     10.84 GAU       0.1        -1        -1        -1 >    0.4466    0.0278    0.3404   -0.1954   -0.3679   -1.2810    0.6238 204.12 204.1 130.8  9     0.0000
SKG13  ?    ?    ? P      D 20140629 1842     10.66 GAU      0.01        -1        -1        -1 >    0.2366    0.0537    0.2445    0.7093    0.4460   -1.2480    0.6943  69.37  69.4 126.0  9     0.0000
SKG13  ?    ?    ? S      ? 20140629 1842     10.88 GAU       0.1        -1        -1        -1 >    0.4653    0.0510    0.3211    0.7093    0.4460   -1.2480    0.6943  69.37  69.4 126.0  9     0.0000
SKG08  ?    ?    ? P      U 20140629 1842     10.71 GAU      0.01        -1        -1        -1 >    0.3105    0.0299    0.6980    0.8425   -0.3878   -1.2990    0.9799 126.96 127.0 119.6  9     0.0000
END_PHASE
END_NLLOC

