NLLOC "./loc/Uturuncu_XP_run002/loc.Tom_RunNLLoc000.20110613.203435.grid0" "LOCATED" "Location completed."
SIGNATURE "Tom Hudson, University of Oxford   obs:obs/Uturuncu_XP_run002/20110613203426640000.nonlinloc   NLLoc:v7.00.00(27Oct2017)  run:27Feb2020 12h19m59"
COMMENT "Control"
GRID  240 240 121  -60 -60 -6.5  0.5 0.5 0.5 PROB_DENSITY
SEARCH OCTREE nInitial 400 nEvaluated 200000 smallestNodeSide 0.373437/0.373437/0.472656 oct_tree_integral 4.100822e+03 scatter_volume 4.100822e+03
HYPOCENTER  x -35.9133 y 18.6086 z 34.8574  OT 27.9229  ix -1 iy -1 iz -1 MAXIMUM_LIKELIHOOD
GEOGRAPHIC  OT 2011 06 13  20 34 27.922890  Lat -22.101577 Long -67.508035 Depth 34.857422
QUALITY  Pmax 1.56434e+14 MFmin 6.593 MFmax 10.046 RMS 0.307747 Nphs 9 Gap 260.388 Dist 17.5009 Mamp -9.90 0 Mdur -9.90 0
VPVSRATIO  VpVsRatio -1  Npair 0  Diff -2e+30
STATISTICS  ExpectX -38.6766 Y 22.2218 Z 39.6322  CovXX 65.1107 XY -17.8707 XZ -30.3244 YY 55.189 YZ 32.8634 ZZ 78.4631 EllAz1  346.756 Dip1  -39.6257 Len1  10.5348 Az2  241.414 Dip2  -17.72 Len2  12.5106 Len3  2.083592e+01
STAT_GEOG  ExpectLat -22.068888 Long -67.534727 Depth 39.632164
TRANSFORM  LAMBERT RefEllipsoid WGS-84  LatOrig -22.270000  LongOrig -67.160000  FirstStdParal -22.280000  SecondStdParal -22.260000  RotCW 0.000000
QML_OriginQuality  assocPhCt 12  usedPhCt 9  assocStaCt -1  usedStaCt 9  depthPhCt -1  stdErr 0.307747  azGap 260.388  secAzGap 296.214  gtLevel -  minDist 17.5009 maxDist 66.9357 medDist 47.4629
QML_OriginUncertainty  horUnc -1  minHorUnc 9.78201  maxHorUnc 13.4537  azMaxHorUnc 127.243
QML_ConfidenceEllipsoid  semiMajorAxisLength 20.8359  semiMinorAxisLength 10.5348  semiIntermediateAxisLength 12.5106  majorAxisPlunge -45.0351  majorAxisAzimuth 132.756  majorAxisRotation 90.0335
FOCALMECH  Hyp  -22.101577 -67.508035 34.857422 Mech  0 0 0 mf  0 nObs 0
PHASE ID Ins Cmp On Pha  FM Date     HrMn   Sec     Err  ErrMag    Coda      Amp       Per  >   TTpred    Res       Weight    StaLoc(X  Y         Z)        SDist    SAzim  RAz  RDip RQual    Tcorr 
PLJR   ?    ?    ? P      ? 20110613 2034   35.4028 GAU  4.19e-02 -1.00e+00 -1.00e+00 -1.00e+00 >    7.7118   -0.2320    1.1276  -19.4793   24.6258   -4.2437   17.5009  69.89  69.9 153.0 10     0.0000
PLSM   ?    ?    ? P      ? 20110613 2034   36.3692 GAU  4.64e-02 -1.00e+00 -1.00e+00 -1.00e+00 >    8.1626    0.2837    1.0754  -12.8358   17.3797   -4.2160   23.1102  93.05  93.0 145.9 10     0.0000
PLMN   ?    ?    ? P      ? 20110613 2034   38.2366 GAU  4.54e-02 -1.00e+00 -1.00e+00 -1.00e+00 >   10.1063    0.2074    1.0699    4.0539   12.1026   -4.5125   40.4933  99.25  99.2 127.5 10     0.0000
PLCO   ?    ?    ? P      ? 20110613 2034   37.9081 GAU  1.15e-02 -1.00e+00 -1.00e+00 -1.00e+00 >   10.1347   -0.1495    1.0998  -28.5311  -21.2320   -4.6885   40.5188 169.50 169.5 127.7 10     0.0000
PLMK   ?    ?    ? P      ? 20110613 2034   39.3742 GAU  1.37e-02 -1.00e+00 -1.00e+00 -1.00e+00 >   11.0186    0.4327    0.9164    8.5662    2.0463   -4.4835   47.4629 110.42 110.4 121.5 10     0.0000
PLLL   ?    ?    ? P      ? 20110613 2034   39.6060 GAU  6.05e-02 -1.00e+00 -1.00e+00 -1.00e+00 >   11.5498    0.1334    1.0463    1.0293  -16.6657   -4.7503   51.0787 133.68 133.7 119.1 10     0.0000
PLDK   ?    ?    ? P      ? 20110613 2034   39.6191 GAU  3.39e-02 -1.00e+00 -1.00e+00 -1.00e+00 >   12.0744   -0.3783    0.9497   18.7319   12.7120   -4.5524   54.9624  96.16  96.2 116.4 10     0.0000
PL07   ?    ?    ? P      ? 20110613 2034   40.6372 GAU  6.90e-02 -1.00e+00 -1.00e+00 -1.00e+00 >   12.7805   -0.0661    1.0180   14.3650  -13.7157   -4.6414   59.7726 122.74 122.7 113.7 10     0.0000
PLRR   ?    ?    ? P      ? 20110613 2034   40.9938 GAU  3.87e-02 -1.00e+00 -1.00e+00 -1.00e+00 >   13.8230   -0.7521    0.6968   28.6536    0.9591   -4.4805   66.9357 105.29 105.3 109.9 10     0.0000
PLTP   ?    ?    ? P      ? 20110613 2034   41.3122 GAU  3.45e-02 -1.00e+00 -1.00e+00 -1.00e+00 >    0.0000    0.0000    0.0000   38.5576   25.2769   -4.3881    0.0000   0.00 359.0  -1.0  0     0.0000
PLCL   ?    ?    ? P      ? 20110613 2034   38.0083 GAU  7.36e-02 -1.00e+00 -1.00e+00 -1.00e+00 >    0.0000    0.0000    0.0000   13.4947   40.2453   -4.3543    0.0000   0.00 359.0  -1.0  0     0.0000
PL03   ?    ?    ? P      ? 20110613 2034   39.5355 GAU  4.72e-02 -1.00e+00 -1.00e+00 -1.00e+00 >    0.0000    0.0000    0.0000   22.1889   28.1546   -4.6285    0.0000   0.00 359.0  -1.0  0     0.0000
END_PHASE
END_NLLOC

