NLLOC "./loc/Uturuncu_XP_run002/loc.Tom_RunNLLoc000.20110618.064646.grid0" "LOCATED" "Location completed."
SIGNATURE "Tom Hudson, University of Oxford   obs:obs/Uturuncu_XP_run002/20110618064636750000.nonlinloc   NLLoc:v7.00.00(27Oct2017)  run:27Feb2020 12h20m48"
COMMENT "Control"
GRID  240 240 121  -60 -60 -6.5  0.5 0.5 0.5 PROB_DENSITY
SEARCH OCTREE nInitial 400 nEvaluated 200008 smallestNodeSide 0.186719/0.186719/0.236328 oct_tree_integral 2.470366e+03 scatter_volume 2.463375e+03
HYPOCENTER  x -4.45117 y 26.3574 z 37.3389  OT 38.966  ix -1 iy -1 iz -1 MAXIMUM_LIKELIHOOD
GEOGRAPHIC  OT 2011 06 18  06 46 38.965995  Lat -22.031967 Long -67.203115 Depth 37.338867
QUALITY  Pmax 3.00799e+13 MFmin 7.04233 MFmax 11.2977 RMS 0.2898 Nphs 9 Gap 217.054 Dist 12.2842 Mamp -9.90 0 Mdur -9.90 0
VPVSRATIO  VpVsRatio -1  Npair 0  Diff -2e+30
STATISTICS  ExpectX -4.36297 Y 29.9323 Z 41.9845  CovXX 31.7732 XY 10.9381 XZ -0.498517 YY 50.4905 YZ 27.131 ZZ 61.8779 EllAz1  134.021 Dip1  25.1076 Len1  8.58475 Az2  239.538 Dip2  29.7211 Len2  11.6634 Len3  1.729414e+01
STAT_GEOG  ExpectLat -21.999683 Long -67.202251 Depth 41.984496
TRANSFORM  LAMBERT RefEllipsoid WGS-84  LatOrig -22.270000  LongOrig -67.160000  FirstStdParal -22.280000  SecondStdParal -22.260000  RotCW 0.000000
QML_OriginQuality  assocPhCt 13  usedPhCt 9  assocStaCt -1  usedStaCt 9  depthPhCt -1  stdErr 0.2898  azGap 217.054  secAzGap 257.437  gtLevel -  minDist 12.2842 maxDist 52.0827 medDist 30.4739
QML_OriginUncertainty  horUnc -1  minHorUnc 7.84181  maxHorUnc 11.301  azMaxHorUnc 24.7248
QML_ConfidenceEllipsoid  semiMajorAxisLength 17.2941  semiMinorAxisLength 8.58475  semiIntermediateAxisLength 11.6634  majorAxisPlunge 49.2646  majorAxisAzimuth 11.0574  majorAxisRotation 279.831
FOCALMECH  Hyp  -22.031967 -67.203115 37.338867 Mech  0 0 0 mf  0 nObs 0
PHASE ID Ins Cmp On Pha  FM Date     HrMn   Sec     Err  ErrMag    Coda      Amp       Per  >   TTpred    Res       Weight    StaLoc(X  Y         Z)        SDist    SAzim  RAz  RDip RQual    Tcorr 
PLSM   ?    ?    ? P      ? 20110618 0646   46.9578 GAU  2.30e-02 -1.00e+00 -1.00e+00 -1.00e+00 >    7.7497    0.2421    1.2556  -12.8358   17.3797   -4.2160   12.2842 223.04 223.0 161.3 10     0.0000
PLJR   ?    ?    ? P      ? 20110618 0646   46.7523 GAU  4.14e-02 -1.00e+00 -1.00e+00 -1.00e+00 >    7.9134   -0.1271    1.2835  -19.4793   24.6258   -4.2437   15.1276 263.43 263.4 157.6 10     0.0000
PLDK   ?    ?    ? P      ? 20110618 0646   47.6696 GAU  3.45e-02 -1.00e+00 -1.00e+00 -1.00e+00 >    8.8864   -0.1828    1.2188   18.7319   12.7120   -4.5524   26.9008 120.48 120.5 143.8 10     0.0000
PLMK   ?    ?    ? P      ? 20110618 0646   48.1675 GAU  2.31e-02 -1.00e+00 -1.00e+00 -1.00e+00 >    8.9406    0.2609    1.2123    8.5662    2.0463   -4.4835   27.5768 151.83 151.8 143.1 10     0.0000
PLBR   ?    ?    ? P      ? 20110618 0646   49.1792 GAU  2.53e-02 -1.00e+00 -1.00e+00 -1.00e+00 >    9.2749    0.9383    0.5166   -7.7901   -3.9330   -4.7950   30.4739 186.29 186.3 140.3 10     0.0000
PLLA   ?    ?    ? P      ? 20110618 0646   48.6737 GAU  7.92e-02 -1.00e+00 -1.00e+00 -1.00e+00 >    9.7903   -0.0826    1.2256  -22.6264   -4.7336   -4.2420   36.0138 210.31 210.3 134.3 10     0.0000
PLLL   ?    ?    ? P      ? 20110618 0646   49.5632 GAU  3.48e-02 -1.00e+00 -1.00e+00 -1.00e+00 >   10.7439   -0.1466    1.1667    1.0293  -16.6657   -4.7503   43.3708 172.74 172.7 128.0 10     0.0000
PLSE   ?    ?    ? P      ? 20110618 0646   49.9288 GAU  2.62e-02 -1.00e+00 -1.00e+00 -1.00e+00 >   11.1719   -0.2091    1.1209  -13.4022  -19.5616   -4.6799   46.7833 191.03 191.0 125.2 10     0.0000
PLWB   ?    ?    ? P      ? 20110618 0646   47.4203 GAU  2.32e-02 -1.00e+00 -1.00e+00 -1.00e+00 >   11.8542   -3.3999    0.0002   33.5070   -9.3046   -4.4915   52.0827 133.21 133.2 121.1 10     0.0000
PLAN   ?    ?    ? P      ? 20110618 0646   51.4058 GAU  5.06e-02 -1.00e+00 -1.00e+00 -1.00e+00 >    0.0000    0.0000    0.0000  -23.2922  -41.4887   -4.6967    0.0000   0.00 359.0  -1.0  0     0.0000
PL03   ?    ?    ? P      ? 20110618 0646   47.2469 GAU  3.90e-02 -1.00e+00 -1.00e+00 -1.00e+00 >    0.0000    0.0000    0.0000   22.1889   28.1546   -4.6285    0.0000   0.00 359.0  -1.0  0     0.0000
PLSQ   ?    ?    ? P      ? 20110618 0646   50.5105 GAU  9.14e-02 -1.00e+00 -1.00e+00 -1.00e+00 >    0.0000    0.0000    0.0000  -49.2231  -16.6550   -4.8115    0.0000   0.00 359.0  -1.0  0     0.0000
PLCL   ?    ?    ? P      ? 20110618 0646   46.4266 GAU  2.62e-02 -1.00e+00 -1.00e+00 -1.00e+00 >    0.0000    0.0000    0.0000   13.4947   40.2453   -4.3543    0.0000   0.00 359.0  -1.0  0     0.0000
END_PHASE
END_NLLOC

