NLLOC "./loc/Uturuncu_XP_run002/loc.Tom_RunNLLoc000.20110616.142316.grid0" "LOCATED" "Location completed."
SIGNATURE "Tom Hudson, University of Oxford   obs:obs/Uturuncu_XP_run002/20110616142305300000.nonlinloc   NLLoc:v7.00.00(27Oct2017)  run:27Feb2020 12h20m35"
COMMENT "Control"
GRID  240 240 121  -60 -60 -6.5  0.5 0.5 0.5 PROB_DENSITY
SEARCH OCTREE nInitial 400 nEvaluated 200008 smallestNodeSide 0.093359/0.093359/0.118164 oct_tree_integral 3.989450e+02 scatter_volume 3.981982e+02
HYPOCENTER  x 16.7881 y -7.11191 z 23.2183  OT 7.27974  ix -1 iy -1 iz -1 MAXIMUM_LIKELIHOOD
GEOGRAPHIC  OT 2011 06 16  14 23 7.279743  Lat -22.334143 Long -66.997038 Depth 23.218262
QUALITY  Pmax 4.77554e+12 MFmin 7.02626 MFmax 9.51264 RMS 0.381591 Nphs 9 Gap 117.627 Dist 7.03431 Mamp -9.90 0 Mdur -9.90 0
VPVSRATIO  VpVsRatio -1  Npair 0  Diff -2e+30
STATISTICS  ExpectX 20.8 Y -8.81076 Z 26.1777  CovXX 64.304 XY -18.4048 XZ 28.1699 YY 19.8418 YZ -13.418 ZZ 24.5852 EllAz1  158.235 Dip1  -53.5224 Len1  5.1962 Az2  213.296 Dip2  22.9497 Len2  7.1671 Len3  1.747721e+01
STAT_GEOG  ExpectLat -22.349441 Long -66.958073 Depth 26.177681
TRANSFORM  LAMBERT RefEllipsoid WGS-84  LatOrig -22.270000  LongOrig -67.160000  FirstStdParal -22.280000  SecondStdParal -22.260000  RotCW 0.000000
QML_OriginQuality  assocPhCt 13  usedPhCt 9  assocStaCt -1  usedStaCt 9  depthPhCt -1  stdErr 0.381591  azGap 117.627  secAzGap 222.214  gtLevel -  minDist 7.03431 maxDist 48.1934 medDist 23.7779
QML_OriginUncertainty  horUnc -1  minHorUnc 5.51246  maxHorUnc 12.7729  azMaxHorUnc 109.81
QML_ConfidenceEllipsoid  semiMajorAxisLength 17.4772  semiMinorAxisLength 5.1962  semiIntermediateAxisLength 7.1671  majorAxisPlunge 26.6653  majorAxisAzimuth 111.018  majorAxisRotation 286.151
FOCALMECH  Hyp  -22.334143 -66.997038 23.218262 Mech  0 0 0 mf  0 nObs 0
PHASE ID Ins Cmp On Pha  FM Date     HrMn   Sec     Err  ErrMag    Coda      Amp       Per  >   TTpred    Res       Weight    StaLoc(X  Y         Z)        SDist    SAzim  RAz  RDip RQual    Tcorr 
PL07   ?    ?    ? S      ? 20110616 1423   17.1414 GAU  4.52e-02 -1.00e+00 -1.00e+00 -1.00e+00 >    9.3172    0.5444    0.9363   14.3650  -13.7157   -4.6414    7.0343 200.15 200.1 164.0  9     0.0000
PLRR   ?    ?    ? S      ? 20110616 1423   17.1732 GAU  4.27e-02 -1.00e+00 -1.00e+00 -1.00e+00 >   10.1111   -0.2176    1.2870   28.6536    0.9591   -4.4805   14.3503  55.78  55.8 150.5 10     0.0000
PLAR   ?    ?    ? S      ? 20110616 1423   17.7433 GAU  1.57e-02 -1.00e+00 -1.00e+00 -1.00e+00 >   10.5807   -0.1171    1.2969   18.7497  -24.0743   -4.6320   17.0754 173.40 173.4 146.1 10     0.0000
PLLL   ?    ?    ? S      ? 20110616 1423   17.6392 GAU  1.25e-02 -1.00e+00 -1.00e+00 -1.00e+00 >   10.8384   -0.4790    1.1255    1.0293  -16.6657   -4.7503   18.4286 238.77 238.8 144.1 10     0.0000
PLCM   ?    ?    ? P      ? 20110616 1423   17.1405 GAU  4.59e-02 -1.00e+00 -1.00e+00 -1.00e+00 >    6.9227    2.9380    0.0001   -4.6800    3.1110   -5.1500   23.7779 295.46 295.5 135.2 10     0.0000
PLSM   ?    ?    ? P      ? 20110616 1423   16.2437 GAU  4.41e-02 -1.00e+00 -1.00e+00 -1.00e+00 >    8.8226    0.1414    1.3121  -12.8358   17.3797   -4.2160   38.4371 309.58 309.6 115.1 10     0.0000
PLQU   ?    ?    ? P      ? 20110616 1423   16.2705 GAU  2.10e-02 -1.00e+00 -1.00e+00 -1.00e+00 >    8.8492    0.1415    1.3123  -18.4486    8.7814   -4.1525   38.6552 294.28 294.3 114.9 10     0.0000
PLCO   ?    ?    ? P      ? 20110616 1423   17.4171 GAU  1.71e-01 -1.00e+00 -1.00e+00 -1.00e+00 >   10.2727   -0.1353    1.2858  -28.5311  -21.2320   -4.6885   47.4679 252.69 252.7 108.1 10     0.0000
PLJR   ?    ?    ? P      ? 20110616 1423   16.3951 GAU  1.32e-01 -1.00e+00 -1.00e+00 -1.00e+00 >   10.3472   -1.2319    0.4441  -19.4793   24.6258   -4.2437   48.1934 311.19 311.2 107.0 10     0.0000
PLCL   ?    ?    ? P      ? 20110616 1423   16.8487 GAU  8.71e-02 -1.00e+00 -1.00e+00 -1.00e+00 >    0.0000    0.0000    0.0000   13.4947   40.2453   -4.3543    0.0000   0.00 359.0  -1.0  0     0.0000
PLLC   ?    ?    ? P      ? 20110616 1423   17.0241 GAU  5.46e-02 -1.00e+00 -1.00e+00 -1.00e+00 >    0.0000    0.0000    0.0000  -44.1417   14.1667   -4.7494    0.0000   0.00 359.0  -1.0  0     0.0000
PL03   ?    ?    ? P      ? 20110616 1423   17.0939 GAU  5.78e-02 -1.00e+00 -1.00e+00 -1.00e+00 >    0.0000    0.0000    0.0000   22.1889   28.1546   -4.6285    0.0000   0.00 359.0  -1.0  0     0.0000
PLAN   ?    ?    ? P      ? 20110616 1423   17.6901 GAU  5.33e-02 -1.00e+00 -1.00e+00 -1.00e+00 >    0.0000    0.0000    0.0000  -23.2922  -41.4887   -4.6967    0.0000   0.00 359.0  -1.0  0     0.0000
END_PHASE
END_NLLOC

