NLLOC "./loc/Uturuncu_XP_run002/loc.Tom_RunNLLoc000.20110618.122821.grid0" "LOCATED" "Location completed."
SIGNATURE "Tom Hudson, University of Oxford   obs:obs/Uturuncu_XP_run002/20110618122810490000.nonlinloc   NLLoc:v7.00.00(27Oct2017)  run:27Feb2020 12h20m50"
COMMENT "Control"
GRID  240 240 121  -60 -60 -6.5  0.5 0.5 0.5 PROB_DENSITY
SEARCH OCTREE nInitial 400 nEvaluated 200008 smallestNodeSide 0.373437/0.373437/0.472656 oct_tree_integral 4.157902e+03 scatter_volume 4.131643e+03
HYPOCENTER  x -41.1414 y 12.2602 z 40.5293  OT 14.4107  ix -1 iy -1 iz -1 MAXIMUM_LIKELIHOOD
GEOGRAPHIC  OT 2011 06 18  12 28 14.410734  Lat -22.158792 Long -67.558862 Depth 40.529297
QUALITY  Pmax 1.16743e+21 MFmin 8.81552 MFmax 14.0395 RMS 0.386884 Nphs 12 Gap 260.913 Dist 22.9579 Mamp -9.90 0 Mdur -9.90 0
VPVSRATIO  VpVsRatio -1  Npair 0  Diff -2e+30
STATISTICS  ExpectX -42.959 Y 13.2584 Z 42.3516  CovXX 58.607 XY -8.27623 XZ -20.4919 YY 28.9402 YZ 10.0834 ZZ 48.4319 EllAz1  358.546 Dip1  -24.027 Len1  9.32886 Az2  244.042 Dip2  -42.935 Len2  10.8539 Len3  1.658831e+01
STAT_GEOG  ExpectLat -22.149732 Long -67.576457 Depth 42.351570
TRANSFORM  LAMBERT RefEllipsoid WGS-84  LatOrig -22.270000  LongOrig -67.160000  FirstStdParal -22.280000  SecondStdParal -22.260000  RotCW 0.000000
QML_OriginQuality  assocPhCt 19  usedPhCt 12  assocStaCt -1  usedStaCt 12  depthPhCt -1  stdErr 0.386884  azGap 260.913  secAzGap 281.359  gtLevel -  minDist 22.9579 maxDist 77.7009 medDist 39.6447
QML_OriginUncertainty  horUnc -1  minHorUnc 7.8493  maxHorUnc 11.8215  azMaxHorUnc 104.58
QML_ConfidenceEllipsoid  semiMajorAxisLength 16.5883  semiMinorAxisLength 9.32886  semiIntermediateAxisLength 10.8539  majorAxisPlunge -37.4783  majorAxisAzimuth 108.533  majorAxisRotation 246.529
FOCALMECH  Hyp  -22.158792 -67.558862 40.529297 Mech  0 0 0 mf  0 nObs 0
PHASE ID Ins Cmp On Pha  FM Date     HrMn   Sec     Err  ErrMag    Coda      Amp       Per  >   TTpred    Res       Weight    StaLoc(X  Y         Z)        SDist    SAzim  RAz  RDip RQual    Tcorr 
PLQU   ?    ?    ? P      ? 20110618 1228   23.4569 GAU  1.00e-01 -1.00e+00 -1.00e+00 -1.00e+00 >    8.9075    0.1386    1.2124  -18.4486    8.7814   -4.1525   22.9579  98.72  98.7 150.1 10     0.0000
PLJR   ?    ?    ? P      ? 20110618 1228   23.0930 GAU  4.54e-02 -1.00e+00 -1.00e+00 -1.00e+00 >    9.0838   -0.4015    1.1107  -19.4793   24.6258   -4.2437   24.9430  60.28  60.3 148.1 10     0.0000
PLLA   ?    ?    ? P      ? 20110618 1228   23.6387 GAU  4.56e-02 -1.00e+00 -1.00e+00 -1.00e+00 >    9.0995    0.1285    1.2156  -22.6264   -4.7336   -4.2420   25.1315 132.55 132.5 147.9 10     0.0000
PLSM   ?    ?    ? P      ? 20110618 1228   23.9089 GAU  5.50e-02 -1.00e+00 -1.00e+00 -1.00e+00 >    9.4198    0.0783    1.2197  -12.8358   17.3797   -4.2160   28.7649  79.75  79.7 144.1 10     0.0000
PLCO   ?    ?    ? P      ? 20110618 1228   23.9799 GAU  9.96e-02 -1.00e+00 -1.00e+00 -1.00e+00 >   10.1987   -0.6296    0.9246  -28.5311  -21.2320   -4.6885   35.7875 159.37 159.4 137.8 10     0.0000
PLBR   ?    ?    ? P      ? 20110618 1228   25.3645 GAU  5.58e-02 -1.00e+00 -1.00e+00 -1.00e+00 >   10.3525    0.6013    0.8626   -7.7901   -3.9330   -4.7950   37.0746 115.90 115.9 136.7 10     0.0000
PLSE   ?    ?    ? P      ? 20110618 1228   25.3265 GAU  7.74e-02 -1.00e+00 -1.00e+00 -1.00e+00 >   10.9216   -0.0059    1.1784  -13.4022  -19.5616   -4.6799   42.2148 138.92 138.9 132.2 10     0.0000
PLMK   ?    ?    ? P      ? 20110618 1228   26.6261 GAU  1.15e-01 -1.00e+00 -1.00e+00 -1.00e+00 >   11.9538    0.2616    1.0676    8.5662    2.0463   -4.4835   50.7461 101.61 101.6 125.4 10     0.0000
PLDK   ?    ?    ? P      ? 20110618 1228   27.2566 GAU  2.62e-02 -1.00e+00 -1.00e+00 -1.00e+00 >   13.1906   -0.3448    1.0455   18.7319   12.7120   -4.5524   59.8750  89.57  89.6 119.6 10     0.0000
PL07   ?    ?    ? P      ? 20110618 1228   27.3397 GAU  9.52e-02 -1.00e+00 -1.00e+00 -1.00e+00 >   13.3985   -0.4695    0.9844   14.3650  -13.7157   -4.6414   61.2838 115.08 115.1 119.0 10     0.0000
PLAR   ?    ?    ? P      ? 20110618 1228   29.2256 GAU  3.16e-02 -1.00e+00 -1.00e+00 -1.00e+00 >   14.6445    0.1704    1.0204   18.7497  -24.0743   -4.6320   70.0510 121.24 121.2 114.7 10     0.0000
PLWB   ?    ?    ? P      ? 20110618 1228   28.0918 GAU  3.06e-02 -1.00e+00 -1.00e+00 -1.00e+00 >   15.7490   -2.0680    0.1581   33.5070   -9.3046   -4.4915   77.7009 106.11 106.1 111.5 10     0.0000
PLTP   ?    ?    ? P      ? 20110618 1228   29.5273 GAU  7.48e-02 -1.00e+00 -1.00e+00 -1.00e+00 >    0.0000    0.0000    0.0000   38.5576   25.2769   -4.3881    0.0000   0.00 359.0  -1.0  0     0.0000
PLSQ   ?    ?    ? P      ? 20110618 1228   22.3547 GAU  1.14e-01 -1.00e+00 -1.00e+00 -1.00e+00 >    0.0000    0.0000    0.0000  -49.2231  -16.6550   -4.8115    0.0000   0.00 359.0  -1.0  0     0.0000
PLAN   ?    ?    ? P      ? 20110618 1228   25.2927 GAU  4.16e-02 -1.00e+00 -1.00e+00 -1.00e+00 >    0.0000    0.0000    0.0000  -23.2922  -41.4887   -4.6967    0.0000   0.00 359.0  -1.0  0     0.0000
PLCL   ?    ?    ? P      ? 20110618 1228   26.5653 GAU  1.57e-01 -1.00e+00 -1.00e+00 -1.00e+00 >    0.0000    0.0000    0.0000   13.4947   40.2453   -4.3543    0.0000   0.00 359.0  -1.0  0     0.0000
PL03   ?    ?    ? P      ? 20110618 1228   27.7140 GAU  1.55e-01 -1.00e+00 -1.00e+00 -1.00e+00 >    0.0000    0.0000    0.0000   22.1889   28.1546   -4.6285    0.0000   0.00 359.0  -1.0  0     0.0000
PLSP   ?    ?    ? P      ? 20110618 1228   28.2617 GAU  4.99e-02 -1.00e+00 -1.00e+00 -1.00e+00 >    0.0000    0.0000    0.0000    4.0291  -44.2734   -4.7267    0.0000   0.00 359.0  -1.0  0     0.0000
PLLC   ?    ?    ? P      ? 20110618 1228   21.3429 GAU  3.90e-02 -1.00e+00 -1.00e+00 -1.00e+00 >    0.0000    0.0000    0.0000  -44.1417   14.1667   -4.7494    0.0000   0.00 359.0  -1.0  0     0.0000
END_PHASE
END_NLLOC

