NLLOC "./loc/Uturuncu_XP_run002/loc.Tom_RunNLLoc000.20110617.111300.grid0" "LOCATED" "Location completed."
SIGNATURE "Tom Hudson, University of Oxford   obs:obs/Uturuncu_XP_run002/20110617111251890000.nonlinloc   NLLoc:v7.00.00(27Oct2017)  run:27Feb2020 12h20m46"
COMMENT "Control"
GRID  240 240 121  -60 -60 -6.5  0.5 0.5 0.5 PROB_DENSITY
SEARCH OCTREE nInitial 400 nEvaluated 200008 smallestNodeSide 0.186719/0.186719/0.236328 oct_tree_integral 1.479066e+03 scatter_volume 1.453159e+03
HYPOCENTER  x 27.1977 y -53.8383 z -2.00977  OT 52.426  ix -1 iy -1 iz -1 MAXIMUM_LIKELIHOOD
GEOGRAPHIC  OT 2011 06 17  11 12 52.425983  Lat -22.755959 Long -66.895198 Depth -2.009766
QUALITY  Pmax 2.41586e+18 MFmin 6.75836 MFmax 8.67406 RMS 0.210808 Nphs 11 Gap 292.268 Dist 42.1248 Mamp -9.90 0 Mdur -9.90 0
VPVSRATIO  VpVsRatio 1.54426  Npair 3  Diff 2.39587
STATISTICS  ExpectX 27.3529 Y -51.9754 Z 9.15769  CovXX 8.84956 XY -2.20945 XZ -0.848365 YY 19.5258 YZ 26.0079 ZZ 101.43 EllAz1  245.572 Dip1  6.09556 Len1  5.296 Az2  333.932 Dip2  -14.9999 Len2  6.73468 Len3  1.961651e+01
STAT_GEOG  ExpectLat -22.739136 Long -66.893719 Depth 9.157686
TRANSFORM  LAMBERT RefEllipsoid WGS-84  LatOrig -22.270000  LongOrig -67.160000  FirstStdParal -22.280000  SecondStdParal -22.260000  RotCW 0.000000
QML_OriginQuality  assocPhCt 17  usedPhCt 11  assocStaCt -1  usedStaCt 8  depthPhCt -1  stdErr 0.210808  azGap 292.268  secAzGap 306.52  gtLevel -  minDist 42.1248 maxDist 69.9551 medDist 59.9284
QML_OriginUncertainty  horUnc -1  minHorUnc 4.39817  maxHorUnc 6.77638  azMaxHorUnc 168.758
QML_ConfidenceEllipsoid  semiMajorAxisLength 19.6165  semiMinorAxisLength 5.296  semiIntermediateAxisLength 6.73468  majorAxisPlunge -73.7545  majorAxisAzimuth 177.071  majorAxisRotation 334.061
FOCALMECH  Hyp  -22.755959 -66.895198 -2.009766 Mech  0 0 0 mf  0 nObs 0
PHASE ID Ins Cmp On Pha  FM Date     HrMn   Sec     Err  ErrMag    Coda      Amp       Per  >   TTpred    Res       Weight    StaLoc(X  Y         Z)        SDist    SAzim  RAz  RDip RQual    Tcorr 
PL07   ?    ?    ? P      ? 20110617 1113    0.3281 GAU  2.44e-02 -1.00e+00 -1.00e+00 -1.00e+00 >    7.7966    0.1056    1.2489   14.3650  -13.7157   -4.6414   42.1248 342.26 342.3  95.4  9     0.0000
PL07   ?    ?    ? S      ? 20110617 1113    6.1781 GAU  2.83e-02 -1.00e+00 -1.00e+00 -1.00e+00 >   13.5181    0.2341    1.0668   14.3650  -13.7157   -4.6414   42.1248 342.26 342.3  91.8  9     0.0000
PLWB   ?    ?    ? P      ? 20110617 1113    0.4384 GAU  2.14e-02 -1.00e+00 -1.00e+00 -1.00e+00 >    8.3151   -0.3027    1.1498   33.5070   -9.3046   -4.4915   44.9784   8.06   8.1  95.1  9     0.0000
PLWB   ?    ?    ? S      ? 20110617 1113    6.8903 GAU  3.82e-02 -1.00e+00 -1.00e+00 -1.00e+00 >   14.4139    0.0504    1.0668   33.5070   -9.3046   -4.4915   44.9784   8.06   8.1  89.5  9     0.0000
PLRR   ?    ?    ? S      ? 20110617 1113   10.0102 GAU  2.29e-02 -1.00e+00 -1.00e+00 -1.00e+00 >   17.5118    0.0724    0.9727   28.6536    0.9591   -4.4805   54.8167   1.52   1.5  80.6  9     0.0000
PLMK   ?    ?    ? S      ? 20110617 1113   11.5541 GAU  2.58e-02 -1.00e+00 -1.00e+00 -1.00e+00 >   18.7931    0.3350    0.9029    8.5662    2.0463   -4.4835   58.9086 341.56 341.6  78.6  9     0.0000
PLBR   ?    ?    ? P      ? 20110617 1113    3.7345 GAU  1.78e-02 -1.00e+00 -1.00e+00 -1.00e+00 >   11.2559    0.0526    1.1670   -7.7901   -3.9330   -4.7950   60.9482 324.97 325.0  93.9  9     0.0000
PLBR   ?    ?    ? S      ? 20110617 1113   11.9804 GAU  3.16e-02 -1.00e+00 -1.00e+00 -1.00e+00 >   19.4503    0.1040    0.9170   -7.7901   -3.9330   -4.7950   60.9482 324.97 325.0  78.7  9     0.0000
PLCO   ?    ?    ? S      ? 20110617 1113   12.8764 GAU  3.32e-02 -1.00e+00 -1.00e+00 -1.00e+00 >   20.5773   -0.1269    0.8841  -28.5311  -21.2320   -4.6885   64.5667 300.33 300.3  78.0  9     0.0000
PLMN   ?    ?    ? S      ? 20110617 1113   14.7353 GAU  4.39e-02 -1.00e+00 -1.00e+00 -1.00e+00 >   22.2232    0.0860    0.8473    4.0539   12.1026   -4.5125   69.8844 340.66 340.7  77.6  9     0.0000
PLLA   ?    ?    ? S      ? 20110617 1113   14.1175 GAU  1.65e-02 -1.00e+00 -1.00e+00 -1.00e+00 >   22.2289   -0.5374    0.7767  -22.6264   -4.7336   -4.2420   69.9551 314.58 314.6  77.5  9     0.0000
PL03   ?    ?    ? S      ? 20110617 1113   18.1913 GAU  7.68e-02 -1.00e+00 -1.00e+00 -1.00e+00 >    0.0000    0.0000    0.0000   22.1889   28.1546   -4.6285    0.0000   0.00 359.0  -1.0  0     0.0000
PLAN   ?    ?    ? P      ? 20110617 1113    1.6169 GAU  3.97e-02 -1.00e+00 -1.00e+00 -1.00e+00 >    0.0000    0.0000    0.0000  -23.2922  -41.4887   -4.6967    0.0000   0.00 359.0  -1.0  0     0.0000
PLTP   ?    ?    ? P      ? 20110617 1113    6.6744 GAU  2.63e-02 -1.00e+00 -1.00e+00 -1.00e+00 >    0.0000    0.0000    0.0000   38.5576   25.2769   -4.3881    0.0000   0.00 359.0  -1.0  0     0.0000
PL03   ?    ?    ? P      ? 20110617 1113    7.2795 GAU  2.61e-02 -1.00e+00 -1.00e+00 -1.00e+00 >    0.0000    0.0000    0.0000   22.1889   28.1546   -4.6285    0.0000   0.00 359.0  -1.0  0     0.0000
PLAN   ?    ?    ? S      ? 20110617 1113    8.2672 GAU  1.58e-02 -1.00e+00 -1.00e+00 -1.00e+00 >    0.0000    0.0000    0.0000  -23.2922  -41.4887   -4.6967    0.0000   0.00 359.0  -1.0  0     0.0000
PLTP   ?    ?    ? S      ? 20110617 1113   17.0321 GAU  2.91e-02 -1.00e+00 -1.00e+00 -1.00e+00 >    0.0000    0.0000    0.0000   38.5576   25.2769   -4.3881    0.0000   0.00 359.0  -1.0  0     0.0000
END_PHASE
END_NLLOC

