NLLOC "./loc/Uturuncu_XP_run002/loc.Tom_RunNLLoc000.20110610.173450.grid0" "LOCATED" "Location completed."
SIGNATURE "Tom Hudson, University of Oxford   obs:obs/Uturuncu_XP_run002/20110610173442260000.nonlinloc   NLLoc:v7.00.00(27Oct2017)  run:27Feb2020 12h19m32"
COMMENT "Control"
GRID  240 240 121  -60 -60 -6.5  0.5 0.5 0.5 PROB_DENSITY
SEARCH OCTREE nInitial 400 nEvaluated 200008 smallestNodeSide 0.186719/0.186719/0.236328 oct_tree_integral 8.468155e+02 scatter_volume 8.367351e+02
HYPOCENTER  x -0.343359 y 0.590234 z 10.8701  OT 52.1812  ix -1 iy -1 iz -1 MAXIMUM_LIKELIHOOD
GEOGRAPHIC  OT 2011 06 10  17 34 52.181154  Lat -22.264670 Long -67.163331 Depth 10.870117
QUALITY  Pmax 6.89718e+18 MFmin 11.8984 MFmax 13.5996 RMS 0.260572 Nphs 11 Gap 59.4301 Dist 5.01606 Mamp -9.90 0 Mdur -9.90 0
VPVSRATIO  VpVsRatio -1  Npair 0  Diff -2e+30
STATISTICS  ExpectX -39.9639 Y -0.213024 Z 38.3861  CovXX 282.745 XY -5.71484 XZ -154.898 YY 119.891 YZ 3.81466 ZZ 133.99 EllAz1  90.24 Dip1  57.8268 Len1  11.3568 Az2  181.347 Dip2  0.696077 Len2  20.5567 Len3  3.664336e+01
STAT_GEOG  ExpectLat -22.271461 Long -67.547756 Depth 38.386080
TRANSFORM  LAMBERT RefEllipsoid WGS-84  LatOrig -22.270000  LongOrig -67.160000  FirstStdParal -22.280000  SecondStdParal -22.260000  RotCW 0.000000
QML_OriginQuality  assocPhCt 16  usedPhCt 11  assocStaCt -1  usedStaCt 11  depthPhCt -1  stdErr 0.260572  azGap 59.4301  secAzGap 96.0904  gtLevel -  minDist 5.01606 maxDist 35.6477 medDist 22.9102
QML_OriginUncertainty  horUnc -1  minHorUnc 16.5918  maxHorUnc 25.5103  azMaxHorUnc 92.0073
QML_ConfidenceEllipsoid  semiMajorAxisLength 36.6434  semiMinorAxisLength 11.3568  semiIntermediateAxisLength 20.5567  majorAxisPlunge -32.1638  majorAxisAzimuth 91.7843  majorAxisRotation 90.3563
FOCALMECH  Hyp  -22.264670 -67.163331 10.870117 Mech  0 0 0 mf  0 nObs 0
PHASE ID Ins Cmp On Pha  FM Date     HrMn   Sec     Err  ErrMag    Coda      Amp       Per  >   TTpred    Res       Weight    StaLoc(X  Y         Z)        SDist    SAzim  RAz  RDip RQual    Tcorr 
PLCM   ?    ?    ? P      ? 20110610 1734   55.1887 GAU  1.34e-02 -1.00e+00 -1.00e+00 -1.00e+00 >    3.1524   -0.1449    1.6112   -4.6800    3.1110   -5.1500    5.0161 300.17 300.2 164.0  9     0.0000
PLSS   ?    ?    ? P      ? 20110610 1734   55.4252 GAU  6.30e-02 -1.00e+00 -1.00e+00 -1.00e+00 >    3.1239    0.1201    1.5540   -1.1850   -5.1823   -4.6864    5.8336 188.29 188.3 161.3  9     0.0000
PLMN   ?    ?    ? P      ? 20110610 1734   55.9478 GAU  4.90e-02 -1.00e+00 -1.00e+00 -1.00e+00 >    3.6872    0.0794    1.6277    4.0539   12.1026   -4.5125   12.3236  20.90  20.9 146.5 10     0.0000
PL07   ?    ?    ? P      ? 20110610 1734   56.6010 GAU  1.73e-02 -1.00e+00 -1.00e+00 -1.00e+00 >    4.8103   -0.3905    1.0252   14.3650  -13.7157   -4.6414   20.5182 134.21 134.2 133.0 10     0.0000
PLDK   ?    ?    ? P      ? 20110610 1734   57.2525 GAU  3.76e-02 -1.00e+00 -1.00e+00 -1.00e+00 >    5.1190   -0.0476    1.6066   18.7319   12.7120   -4.5524   22.6009  57.57  57.6 130.9 10     0.0000
PLLA   ?    ?    ? P      ? 20110610 1734   52.9618 GAU  8.77e-02 -1.00e+00 -1.00e+00 -1.00e+00 >    5.1364   -4.3558    0.0001  -22.6264   -4.7336   -4.2420   22.9102 256.56 256.6 130.3 10     0.0000
PLRR   ?    ?    ? P      ? 20110610 1734   58.4139 GAU  7.15e-02 -1.00e+00 -1.00e+00 -1.00e+00 >    6.1378    0.0949    1.4183   28.6536    0.9591   -4.4805   28.9993  89.27  89.3 126.6 10     0.0000
PLJR   ?    ?    ? P      ? 20110610 1734   52.5140 GAU  2.21e-02 -1.00e+00 -1.00e+00 -1.00e+00 >    6.4043   -6.0715    0.0057  -19.4793   24.6258   -4.2437   30.7228 321.47 321.5 125.6 10     0.0000
PLAR   ?    ?    ? P      ? 20110610 1734   58.2700 GAU  1.77e-02 -1.00e+00 -1.00e+00 -1.00e+00 >    6.5131   -0.4243    0.9910   18.7497  -24.0743   -4.6320   31.1911 142.26 142.3 125.7 10     0.0000
PLWB   ?    ?    ? P      ? 20110610 1734   59.6065 GAU  3.61e-02 -1.00e+00 -1.00e+00 -1.00e+00 >    7.1884    0.2370    1.1546   33.5070   -9.3046   -4.4915   35.2670 106.29 106.3 124.0 10     0.0000
PLCO   ?    ?    ? P      ? 20110610 1734   52.0772 GAU  3.62e-02 -1.00e+00 -1.00e+00 -1.00e+00 >    7.2674   -7.3713    0.0057  -28.5311  -21.2320   -4.6885   35.6477 232.25 232.3 124.0 10     0.0000
PLTP   ?    ?    ? P      ? 20110610 1734   59.9752 GAU  1.61e-02 -1.00e+00 -1.00e+00 -1.00e+00 >    0.0000    0.0000    0.0000   38.5576   25.2769   -4.3881    0.0000   0.00 359.0  -1.0  0     0.0000
PLSQ   ?    ?    ? P      ? 20110610 1734   51.0410 GAU  2.64e-02 -1.00e+00 -1.00e+00 -1.00e+00 >    0.0000    0.0000    0.0000  -49.2231  -16.6550   -4.8115    0.0000   0.00 359.0  -1.0  0     0.0000
PLCL   ?    ?    ? P      ? 20110610 1734   57.0236 GAU  3.90e-02 -1.00e+00 -1.00e+00 -1.00e+00 >    0.0000    0.0000    0.0000   13.4947   40.2453   -4.3543    0.0000   0.00 359.0  -1.0  0     0.0000
PL03   ?    ?    ? P      ? 20110610 1734   57.8264 GAU  5.00e-02 -1.00e+00 -1.00e+00 -1.00e+00 >    0.0000    0.0000    0.0000   22.1889   28.1546   -4.6285    0.0000   0.00 359.0  -1.0  0     0.0000
PLLC   ?    ?    ? P      ? 20110610 1734   50.4102 GAU  3.95e-02 -1.00e+00 -1.00e+00 -1.00e+00 >    0.0000    0.0000    0.0000  -44.1417   14.1667   -4.7494    0.0000   0.00 359.0  -1.0  0     0.0000
END_PHASE
END_NLLOC

