NLLOC "./loc/Uturuncu_XP_run002/loc.Tom_RunNLLoc000.20110613.193614.grid0" "LOCATED" "Location completed."
SIGNATURE "Tom Hudson, University of Oxford   obs:obs/Uturuncu_XP_run002/20110613193606250000.nonlinloc   NLLoc:v7.00.00(27Oct2017)  run:27Feb2020 12h19m57"
COMMENT "Control"
GRID  240 240 121  -60 -60 -6.5  0.5 0.5 0.5 PROB_DENSITY
SEARCH OCTREE nInitial 400 nEvaluated 200016 smallestNodeSide 0.186719/0.186719/0.236328 oct_tree_integral 1.691781e+03 scatter_volume 1.675441e+03
HYPOCENTER  x 55.4855 y -33.766 z 14.415  OT 7.34623  ix -1 iy -1 iz -1 MAXIMUM_LIKELIHOOD
GEOGRAPHIC  OT 2011 06 13  19 36 7.346227  Lat -22.574028 Long -66.620481 Depth 14.415039
QUALITY  Pmax 3.0672e+28 MFmin 10.1641 MFmax 16.4377 RMS 0.243629 Nphs 15 Gap 322.472 Dist 32.8849 Mamp -9.90 0 Mdur -9.90 0
VPVSRATIO  VpVsRatio 1.62733  Npair 3  Diff 4.1578
STATISTICS  ExpectX 54.5983 Y -34.785 Z 10.2348  CovXX 16.2549 XY -6.63254 XZ -7.08032 YY 25.0997 YZ -1.37464 ZZ 79.8011 EllAz1  62.5948 Dip1  5.8265 Len1  6.50908 Az2  332.824 Dip2  -2.24753 Len2  10.0417 Len3  1.686640e+01
STAT_GEOG  ExpectLat -22.583258 Long -66.629074 Depth 10.234774
TRANSFORM  LAMBERT RefEllipsoid WGS-84  LatOrig -22.270000  LongOrig -67.160000  FirstStdParal -22.280000  SecondStdParal -22.260000  RotCW 0.000000
QML_OriginQuality  assocPhCt 18  usedPhCt 15  assocStaCt -1  usedStaCt 12  depthPhCt -1  stdErr 0.243629  azGap 322.472  secAzGap 323.115  gtLevel -  minDist 32.8849 maxDist 95.0228 medDist 59.1395
QML_OriginUncertainty  horUnc -1  minHorUnc 5.40581  maxHorUnc 8.11743  azMaxHorUnc 151.847
QML_ConfidenceEllipsoid  semiMajorAxisLength 16.8664  semiMinorAxisLength 6.50908  semiIntermediateAxisLength 10.0417  majorAxisPlunge -83.7522  majorAxisAzimuth 83.8318  majorAxisRotation 249.336
FOCALMECH  Hyp  -22.574028 -66.620481 14.415039 Mech  0 0 0 mf  0 nObs 0
PHASE ID Ins Cmp On Pha  FM Date     HrMn   Sec     Err  ErrMag    Coda      Amp       Per  >   TTpred    Res       Weight    StaLoc(X  Y         Z)        SDist    SAzim  RAz  RDip RQual    Tcorr 
PLWB   ?    ?    ? P      ? 20110613 1936   14.4459 GAU  3.11e-02 -1.00e+00 -1.00e+00 -1.00e+00 >    7.2078   -0.1081    1.4188   33.5070   -9.3046   -4.4915   32.8849 318.06 318.1 126.5 10     0.0000
PLAR   ?    ?    ? P      ? 20110613 1936   15.4853 GAU  1.91e-02 -1.00e+00 -1.00e+00 -1.00e+00 >    8.0666    0.0725    1.4087   18.7497  -24.0743   -4.6320   37.9928 284.78 284.8 124.4 10     0.0000
PLAR   ?    ?    ? S      ? 20110613 1936   21.5335 GAU  1.23e-02 -1.00e+00 -1.00e+00 -1.00e+00 >   13.8392    0.3480    1.0883   18.7497  -24.0743   -4.6320   37.9928 284.78 284.8 124.9 10     0.0000
PLRR   ?    ?    ? P      ? 20110613 1936   16.4813 GAU  4.71e-02 -1.00e+00 -1.00e+00 -1.00e+00 >    9.0571    0.0780    1.3638   28.6536    0.9591   -4.4805   43.8838 322.31 322.3 122.4 10     0.0000
PL07   ?    ?    ? P      ? 20110613 1936   16.3086 GAU  3.04e-02 -1.00e+00 -1.00e+00 -1.00e+00 >    9.3890   -0.4265    1.1112   14.3650  -13.7157   -4.6414   45.7484 295.99 296.0 122.1 10     0.0000
PL07   ?    ?    ? S      ? 20110613 1936   23.6196 GAU  1.13e-02 -1.00e+00 -1.00e+00 -1.00e+00 >   16.1059    0.1675    1.0555   14.3650  -13.7157   -4.6414   45.7484 295.99 296.0 122.7 10     0.0000
PLLL   ?    ?    ? P      ? 20110613 1936   18.7171 GAU  2.03e-02 -1.00e+00 -1.00e+00 -1.00e+00 >   11.3709    0.0000    1.2625    1.0293  -16.6657   -4.7503   57.0780 287.43 287.4 120.2 10     0.0000
PLMK   ?    ?    ? P      ? 20110613 1936   19.1321 GAU  3.42e-02 -1.00e+00 -1.00e+00 -1.00e+00 >   11.7003    0.0856    1.2451    8.5662    2.0463   -4.4835   59.0250 307.35 307.4 119.8 10     0.0000
PLDK   ?    ?    ? P      ? 20110613 1936   19.2799 GAU  4.45e-02 -1.00e+00 -1.00e+00 -1.00e+00 >   11.7437    0.1900    1.2222   18.7319   12.7120   -4.5524   59.2540 321.66 321.7 119.8 10     0.0000
PLSS   ?    ?    ? P      ? 20110613 1936   19.7969 GAU  3.99e-02 -1.00e+00 -1.00e+00 -1.00e+00 >   12.4981   -0.0475    1.2062   -1.1850   -5.1823   -4.6864   63.4711 296.77 296.8 119.4 10     0.0000
PLMN   ?    ?    ? P      ? 20110613 1936   20.9234 GAU  5.47e-02 -1.00e+00 -1.00e+00 -1.00e+00 >   13.4551    0.1221    1.1637    4.0539   12.1026   -4.5125   68.9140 311.73 311.7 119.0 10     0.0000
PLMN   ?    ?    ? S      ? 20110613 1936   31.1294 GAU  2.24e-02 -1.00e+00 -1.00e+00 -1.00e+00 >   23.0646    0.7186    0.7413    4.0539   12.1026   -4.5125   68.9140 311.73 311.7 119.9 10     0.0000
PLBR   ?    ?    ? P      ? 20110613 1936   18.1808 GAU  4.60e-02 -1.00e+00 -1.00e+00 -1.00e+00 >   13.6538   -2.8192    0.0244   -7.7901   -3.9330   -4.7950   69.9558 295.24 295.2 119.0 10     0.0000
PLQU   ?    ?    ? S      ? 20110613 1936   40.6798 GAU  2.88e-02 -1.00e+00 -1.00e+00 -1.00e+00 >   28.0288    5.3047    0.0059  -18.4486    8.7814   -4.1525   85.3027 299.92 299.9 119.6 10     0.0000
PLJR   ?    ?    ? S      ? 20110613 1936   38.3501 GAU  1.77e-02 -1.00e+00 -1.00e+00 -1.00e+00 >   31.0022    0.0016    0.6824  -19.4793   24.6258   -4.2437   95.0228 307.92 307.9 119.6 10     0.0000
PLTP   ?    ?    ? P      ? 20110613 1936   19.3697 GAU  3.17e-02 -1.00e+00 -1.00e+00 -1.00e+00 >    0.0000    0.0000    0.0000   38.5576   25.2769   -4.3881    0.0000   0.00 359.0  -1.0  0     0.0000
PL03   ?    ?    ? P      ? 20110613 1936   21.1373 GAU  3.19e-02 -1.00e+00 -1.00e+00 -1.00e+00 >    0.0000    0.0000    0.0000   22.1889   28.1546   -4.6285    0.0000   0.00 359.0  -1.0  0     0.0000
PLCL   ?    ?    ? P      ? 20110613 1936   23.5984 GAU  3.15e-02 -1.00e+00 -1.00e+00 -1.00e+00 >    0.0000    0.0000    0.0000   13.4947   40.2453   -4.3543    0.0000   0.00 359.0  -1.0  0     0.0000
END_PHASE
END_NLLOC

