NLLOC "./loc/Uturuncu_XP_run002/loc.Tom_RunNLLoc000.20110612.232535.grid0" "LOCATED" "Location completed."
SIGNATURE "Tom Hudson, University of Oxford   obs:obs/Uturuncu_XP_run002/20110612232523660000.nonlinloc   NLLoc:v7.00.00(27Oct2017)  run:27Feb2020 12h19m51"
COMMENT "Control"
GRID  240 240 121  -60 -60 -6.5  0.5 0.5 0.5 PROB_DENSITY
SEARCH OCTREE nInitial 400 nEvaluated 200000 smallestNodeSide 0.373437/0.373437/0.472656 oct_tree_integral 7.358946e+03 scatter_volume 7.358946e+03
HYPOCENTER  x -47.8633 y 20.4758 z 34.8574  OT 26.9573  ix -1 iy -1 iz -1 MAXIMUM_LIKELIHOOD
GEOGRAPHIC  OT 2011 06 12  23 25 26.957337  Lat -22.084426 Long -67.623786 Depth 34.857422
QUALITY  Pmax 2.27366e+26 MFmin 9.90978 MFmax 17.3603 RMS 0.428077 Nphs 14 Gap 286.55 Dist 28.6857 Mamp -9.90 0 Mdur -9.90 0
VPVSRATIO  VpVsRatio -1  Npair 0  Diff -2e+30
STATISTICS  ExpectX -46.6202 Y 19.6489 Z 36.3816  CovXX 69.4751 XY -16.4585 XZ -25.5808 YY 60.9222 YZ 9.17533 ZZ 71.0587 EllAz1  62.1205 Dip1  32.5173 Len1  12.2224 Az2  177.327 Dip2  33.7456 Len2  14.0038 Len3  1.912189e+01
STAT_GEOG  ExpectLat -22.091926 Long -67.611764 Depth 36.381578
TRANSFORM  LAMBERT RefEllipsoid WGS-84  LatOrig -22.270000  LongOrig -67.160000  FirstStdParal -22.280000  SecondStdParal -22.260000  RotCW 0.000000
QML_OriginQuality  assocPhCt 21  usedPhCt 14  assocStaCt -1  usedStaCt 14  depthPhCt -1  stdErr 0.428077  azGap 286.55  secAzGap 302.401  gtLevel -  minDist 28.6857 maxDist 86.6487 medDist 53.0456
QML_OriginUncertainty  horUnc -1  minHorUnc 10.5283  maxHorUnc 13.7502  azMaxHorUnc 127.717
QML_ConfidenceEllipsoid  semiMajorAxisLength 19.1219  semiMinorAxisLength 12.2224  semiIntermediateAxisLength 14.0038  majorAxisPlunge -39.3746  majorAxisAzimuth 120.575  majorAxisRotation 101.399
FOCALMECH  Hyp  -22.084426 -67.623786 34.857422 Mech  0 0 0 mf  0 nObs 0
PHASE ID Ins Cmp On Pha  FM Date     HrMn   Sec     Err  ErrMag    Coda      Amp       Per  >   TTpred    Res       Weight    StaLoc(X  Y         Z)        SDist    SAzim  RAz  RDip RQual    Tcorr 
PLJR   ?    ?    ? P      ? 20110612 2325   35.3208 GAU  2.85e-02 -1.00e+00 -1.00e+00 -1.00e+00 >    8.7050   -0.3415    1.1385  -19.4793   24.6258   -4.2437   28.6857  81.68  81.7 139.5 10     0.0000
PLLA   ?    ?    ? P      ? 20110612 2325   36.7450 GAU  1.03e-01 -1.00e+00 -1.00e+00 -1.00e+00 >    9.4798    0.3078    1.1254  -22.6264   -4.7336   -4.2420   35.6709 134.97 135.0 132.1 10     0.0000
PLCO   ?    ?    ? P      ? 20110612 2325   36.6964 GAU  7.18e-02 -1.00e+00 -1.00e+00 -1.00e+00 >   10.8441   -1.1050    0.5841  -28.5311  -21.2320   -4.6885   45.9703 155.13 155.1 122.9 10     0.0000
PLCM   ?    ?    ? P      ? 20110612 2325   38.8200 GAU  4.95e-02 -1.00e+00 -1.00e+00 -1.00e+00 >   10.9783    0.8843    0.7050   -4.6800    3.1110   -5.1500   46.5438 111.91 111.9 122.8 10     0.0000
PLBR   ?    ?    ? P      ? 20110612 2325   38.1701 GAU  1.04e-01 -1.00e+00 -1.00e+00 -1.00e+00 >   10.9853    0.2275    1.1246   -7.7901   -3.9330   -4.7950   46.9217 121.35 121.3 122.2 10     0.0000
PLMN   ?    ?    ? P      ? 20110612 2325   38.7413 GAU  2.82e-02 -1.00e+00 -1.00e+00 -1.00e+00 >   11.7324    0.0516    1.1460    4.0539   12.1026   -4.5125   52.5881  99.16  99.2 117.8 10     0.0000
PLSE   ?    ?    ? P      ? 20110612 2325   38.4021 GAU  2.52e-02 -1.00e+00 -1.00e+00 -1.00e+00 >   11.7864   -0.3417    1.0837  -13.4022  -19.5616   -4.6799   52.8258 139.28 139.3 117.8 10     0.0000
PLSS   ?    ?    ? P      ? 20110612 2325   39.2052 GAU  7.05e-02 -1.00e+00 -1.00e+00 -1.00e+00 >   11.8492    0.3987    1.0360   -1.1850   -5.1823   -4.6864   53.2654 118.80 118.8 117.6 10     0.0000
PLLL   ?    ?    ? P      ? 20110612 2325   40.2307 GAU  6.67e-02 -1.00e+00 -1.00e+00 -1.00e+00 >   13.0304    0.2429    1.0694    1.0293  -16.6657   -4.7503   61.4001 127.22 127.2 112.8 10     0.0000
PLDK   ?    ?    ? P      ? 20110612 2325   40.5048 GAU  2.74e-02 -1.00e+00 -1.00e+00 -1.00e+00 >   13.8476   -0.3001    1.0476   18.7319   12.7120   -4.5524   67.0462  96.65  96.6 109.9 10     0.0000
PL07   ?    ?    ? P      ? 20110612 2325   41.4430 GAU  6.32e-02 -1.00e+00 -1.00e+00 -1.00e+00 >   14.4536    0.0321    1.0652   14.3650  -13.7157   -4.6414   71.0029 118.79 118.8 108.2 10     0.0000
PLRR   ?    ?    ? P      ? 20110612 2325   41.9277 GAU  2.78e-02 -1.00e+00 -1.00e+00 -1.00e+00 >   15.6534   -0.6830    0.8597   28.6536    0.9591   -4.4805   78.9667 104.31 104.3 105.0 10     0.0000
PLAR   ?    ?    ? P      ? 20110612 2325   42.6857 GAU  5.63e-02 -1.00e+00 -1.00e+00 -1.00e+00 >   15.8495   -0.1212    1.0220   18.7497  -24.0743   -4.6320   80.1374 123.77 123.8 104.7  9     0.0000
PLWB   ?    ?    ? P      ? 20110612 2325   43.6737 GAU  5.44e-02 -1.00e+00 -1.00e+00 -1.00e+00 >   16.8436   -0.1273    0.9929   33.5070   -9.3046   -4.4915   86.6487 110.10 110.1 102.6  9     0.0000
PLLC   ?    ?    ? P      ? 20110612 2325   36.0199 GAU  1.72e-02 -1.00e+00 -1.00e+00 -1.00e+00 >    0.0000    0.0000    0.0000  -44.1417   14.1667   -4.7494    0.0000   0.00 359.0  -1.0  0     0.0000
PL03   ?    ?    ? P      ? 20110612 2325   40.5445 GAU  2.75e-02 -1.00e+00 -1.00e+00 -1.00e+00 >    0.0000    0.0000    0.0000   22.1889   28.1546   -4.6285    0.0000   0.00 359.0  -1.0  0     0.0000
PLSQ   ?    ?    ? P      ? 20110612 2325   35.0227 GAU  4.43e-02 -1.00e+00 -1.00e+00 -1.00e+00 >    0.0000    0.0000    0.0000  -49.2231  -16.6550   -4.8115    0.0000   0.00 359.0  -1.0  0     0.0000
PLCL   ?    ?    ? P      ? 20110612 2325   39.3532 GAU  5.07e-02 -1.00e+00 -1.00e+00 -1.00e+00 >    0.0000    0.0000    0.0000   13.4947   40.2453   -4.3543    0.0000   0.00 359.0  -1.0  0     0.0000
PLAN   ?    ?    ? P      ? 20110612 2325   38.2076 GAU  6.89e-02 -1.00e+00 -1.00e+00 -1.00e+00 >    0.0000    0.0000    0.0000  -23.2922  -41.4887   -4.6967    0.0000   0.00 359.0  -1.0  0     0.0000
PLSP   ?    ?    ? P      ? 20110612 2325   41.6567 GAU  3.66e-02 -1.00e+00 -1.00e+00 -1.00e+00 >    0.0000    0.0000    0.0000    4.0291  -44.2734   -4.7267    0.0000   0.00 359.0  -1.0  0     0.0000
PLTP   ?    ?    ? P      ? 20110612 2325   42.7280 GAU  2.92e-02 -1.00e+00 -1.00e+00 -1.00e+00 >    0.0000    0.0000    0.0000   38.5576   25.2769   -4.3881    0.0000   0.00 359.0  -1.0  0     0.0000
END_PHASE
END_NLLOC

