NLLOC "./loc/Uturuncu_XP_run002/loc.Tom_RunNLLoc000.20110617.085516.grid0" "LOCATED" "Location completed."
SIGNATURE "Tom Hudson, University of Oxford   obs:obs/Uturuncu_XP_run002/20110617085508300000.nonlinloc   NLLoc:v7.00.00(27Oct2017)  run:27Feb2020 12h20m44"
COMMENT "Control"
GRID  240 240 121  -60 -60 -6.5  0.5 0.5 0.5 PROB_DENSITY
SEARCH OCTREE nInitial 400 nEvaluated 200016 smallestNodeSide 0.186719/0.186719/0.236328 oct_tree_integral 1.166085e+03 scatter_volume 1.154197e+03
HYPOCENTER  x 26.9176 y -53.5582 z -2.36426  OT 8.88616  ix -1 iy -1 iz -1 MAXIMUM_LIKELIHOOD
GEOGRAPHIC  OT 2011 06 17  08 55 8.886155  Lat -22.753435 Long -66.897930 Depth -2.364258
QUALITY  Pmax 2.16093e+26 MFmin 8.76061 MFmax 11.0764 RMS 0.238983 Nphs 14 Gap 291.773 Dist 41.7731 Mamp -9.90 0 Mdur -9.90 0
VPVSRATIO  VpVsRatio 1.57424  Npair 4  Diff 3.30894
STATISTICS  ExpectX 27.3968 Y -52.5282 Z 7.07499  CovXX 9.40813 XY -1.23674 XZ 1.92156 YY 14.2237 YZ 18.9691 ZZ 76.6673 EllAz1  222.348 Dip1  12.4702 Len1  5.11801 Az2  310.269 Dip2  -9.31698 Len2  6.19415 Len3  1.701454e+01
STAT_GEOG  ExpectLat -22.744126 Long -66.893282 Depth 7.074990
TRANSFORM  LAMBERT RefEllipsoid WGS-84  LatOrig -22.270000  LongOrig -67.160000  FirstStdParal -22.280000  SecondStdParal -22.260000  RotCW 0.000000
QML_OriginQuality  assocPhCt 18  usedPhCt 14  assocStaCt -1  usedStaCt 10  depthPhCt -1  stdErr 0.238983  azGap 291.773  secAzGap 306.112  gtLevel -  minDist 41.7731 maxDist 90.9143 medDist 62.3709
QML_OriginUncertainty  horUnc -1  minHorUnc 4.57721  maxHorUnc 5.77948  azMaxHorUnc 166.407
QML_ConfidenceEllipsoid  semiMajorAxisLength 17.0145  semiMinorAxisLength 5.11801  semiIntermediateAxisLength 6.19415  majorAxisPlunge 74.3427  majorAxisAzimuth 4.4418  majorAxisRotation 237.359
FOCALMECH  Hyp  -22.753435 -66.897930 -2.364258 Mech  0 0 0 mf  0 nObs 0
PHASE ID Ins Cmp On Pha  FM Date     HrMn   Sec     Err  ErrMag    Coda      Amp       Per  >   TTpred    Res       Weight    StaLoc(X  Y         Z)        SDist    SAzim  RAz  RDip RQual    Tcorr 
PL07   ?    ?    ? P      ? 20110617 0855   16.7123 GAU  2.53e-02 -1.00e+00 -1.00e+00 -1.00e+00 >    7.7249    0.1012    1.2747   14.3650  -13.7157   -4.6414   41.7731 342.51 342.5  96.1  9     0.0000
PL07   ?    ?    ? S      ? 20110617 0855   22.5780 GAU  2.93e-02 -1.00e+00 -1.00e+00 -1.00e+00 >   13.3933    0.2986    1.0658   14.3650  -13.7157   -4.6414   41.7731 342.51 342.5  95.5  9     0.0000
PLWB   ?    ?    ? P      ? 20110617 0855   16.8337 GAU  2.54e-02 -1.00e+00 -1.00e+00 -1.00e+00 >    8.2647   -0.3171    1.1608   33.5070   -9.3046   -4.4915   44.7415   8.47   8.5  95.9  9     0.0000
PLWB   ?    ?    ? S      ? 20110617 0855   23.1709 GAU  8.74e-02 -1.00e+00 -1.00e+00 -1.00e+00 >   14.3282   -0.0434    1.0752   33.5070   -9.3046   -4.4915   44.7415   8.47   8.5  94.5  9     0.0000
PLRR   ?    ?    ? S      ? 20110617 0855   26.4277 GAU  1.82e-02 -1.00e+00 -1.00e+00 -1.00e+00 >   17.4425    0.0991    0.9821   28.6536    0.9591   -4.4805   54.5449   1.82   1.8  87.1  9     0.0000
PLMK   ?    ?    ? S      ? 20110617 0855   27.9278 GAU  2.78e-02 -1.00e+00 -1.00e+00 -1.00e+00 >   18.7054    0.3363    0.9154    8.5662    2.0463   -4.4835   58.5546 341.74 341.7  83.5  9     0.0000
PLBR   ?    ?    ? P      ? 20110617 0855   20.1149 GAU  2.18e-02 -1.00e+00 -1.00e+00 -1.00e+00 >   11.1773    0.0515    1.1832   -7.7901   -3.9330   -4.7950   60.5581 325.03 325.0  95.6  9     0.0000
PLBR   ?    ?    ? S      ? 20110617 0855   28.3974 GAU  3.31e-02 -1.00e+00 -1.00e+00 -1.00e+00 >   19.3511    0.1601    0.9239   -7.7901   -3.9330   -4.7950   60.5581 325.03 325.0  84.2  9     0.0000
PLCO   ?    ?    ? P      ? 20110617 0855   20.5289 GAU  2.56e-02 -1.00e+00 -1.00e+00 -1.00e+00 >   11.8446   -0.2020    1.1282  -28.5311  -21.2320   -4.6885   64.1836 300.24 300.2  95.1  9     0.0000
PLCM   ?    ?    ? S      ? 20110617 0855   29.9542 GAU  1.73e-02 -1.00e+00 -1.00e+00 -1.00e+00 >   20.7226    0.3454    0.8654   -4.6800    3.1110   -5.1500   64.8830 330.86 330.9  83.9  9     0.0000
PLMN   ?    ?    ? P      ? 20110617 0855   21.9459 GAU  9.40e-02 -1.00e+00 -1.00e+00 -1.00e+00 >   12.8232    0.2366    1.0965    4.0539   12.1026   -4.5125   69.5276 340.80 340.8  93.9  9     0.0000
PLMN   ?    ?    ? S      ? 20110617 0855   31.1207 GAU  5.45e-02 -1.00e+00 -1.00e+00 -1.00e+00 >   22.1377    0.0969    0.8560    4.0539   12.1026   -4.5125   69.5276 340.80 340.8  77.1  9     0.0000
PLLA   ?    ?    ? S      ? 20110617 0855   30.4989 GAU  4.06e-02 -1.00e+00 -1.00e+00 -1.00e+00 >   22.1312   -0.5185    0.7881  -22.6264   -4.7336   -4.2420   69.5590 314.58 314.6  76.9  9     0.0000
PLJR   ?    ?    ? S      ? 20110617 0855   37.2070 GAU  1.73e-02 -1.00e+00 -1.00e+00 -1.00e+00 >   28.7841   -0.4633    0.6848  -19.4793   24.6258   -4.2437   90.9143 329.31 329.3  75.7  9     0.0000
PLAN   ?    ?    ? P      ? 20110617 0855   17.8550 GAU  2.63e-02 -1.00e+00 -1.00e+00 -1.00e+00 >    0.0000    0.0000    0.0000  -23.2922  -41.4887   -4.6967    0.0000   0.00 359.0  -1.0  0     0.0000
PL03   ?    ?    ? P      ? 20110617 0855   23.6455 GAU  3.08e-02 -1.00e+00 -1.00e+00 -1.00e+00 >    0.0000    0.0000    0.0000   22.1889   28.1546   -4.6285    0.0000   0.00 359.0  -1.0  0     0.0000
PLTP   ?    ?    ? P      ? 20110617 0855   23.0724 GAU  2.49e-02 -1.00e+00 -1.00e+00 -1.00e+00 >    0.0000    0.0000    0.0000   38.5576   25.2769   -4.3881    0.0000   0.00 359.0  -1.0  0     0.0000
PL03   ?    ?    ? S      ? 20110617 0855   34.6568 GAU  4.05e-02 -1.00e+00 -1.00e+00 -1.00e+00 >    0.0000    0.0000    0.0000   22.1889   28.1546   -4.6285    0.0000   0.00 359.0  -1.0  0     0.0000
END_PHASE
END_NLLOC

