NLLOC "./loc/Uturuncu_XP_run002/loc.Tom_RunNLLoc000.20110614.061043.grid0" "LOCATED" "Location completed."
SIGNATURE "Tom Hudson, University of Oxford   obs:obs/Uturuncu_XP_run002/20110614061033040000.nonlinloc   NLLoc:v7.00.00(27Oct2017)  run:27Feb2020 12h20m06"
COMMENT "Control"
GRID  240 240 121  -60 -60 -6.5  0.5 0.5 0.5 PROB_DENSITY
SEARCH OCTREE nInitial 400 nEvaluated 200008 smallestNodeSide 0.186719/0.186719/0.236328 oct_tree_integral 1.214561e+03 scatter_volume 1.212770e+03
HYPOCENTER  x -29.4715 y 22.0629 z 30.0127  OT 38.3261  ix -1 iy -1 iz -1 MAXIMUM_LIKELIHOOD
GEOGRAPHIC  OT 2011 06 14  06 10 38.326121  Lat -22.070504 Long -67.445544 Depth 30.012695
QUALITY  Pmax 3.48624e+22 MFmin 9.21161 MFmax 14.0062 RMS 0.261271 Nphs 12 Gap 269.944 Dist 10.3156 Mamp -9.90 0 Mdur -9.90 0
VPVSRATIO  VpVsRatio -1  Npair 0  Diff -2e+30
STATISTICS  ExpectX -31.3557 Y 23.8475 Z 32.8922  CovXX 34.297 XY -12.5601 XZ -19.5761 YY 30.4562 YZ 18.2025 ZZ 43.9033 EllAz1  337.437 Dip1  -42.6605 Len1  7.86217 Az2  235.01 Dip2  -13.1451 Len2  8.38664 Len3  1.585585e+01
STAT_GEOG  ExpectLat -22.054355 Long -67.463765 Depth 32.892217
TRANSFORM  LAMBERT RefEllipsoid WGS-84  LatOrig -22.270000  LongOrig -67.160000  FirstStdParal -22.280000  SecondStdParal -22.260000  RotCW 0.000000
QML_OriginQuality  assocPhCt 16  usedPhCt 12  assocStaCt -1  usedStaCt 12  depthPhCt -1  stdErr 0.261271  azGap 269.944  secAzGap 295.308  gtLevel -  minDist 10.3156 maxDist 66.7377 medDist 43.8008
QML_OriginUncertainty  horUnc -1  minHorUnc 6.72624  maxHorUnc 10.1828  azMaxHorUnc 130.653
QML_ConfidenceEllipsoid  semiMajorAxisLength 15.8558  semiMinorAxisLength 7.86217  semiIntermediateAxisLength 8.38664  majorAxisPlunge -44.3735  majorAxisAzimuth 131.802  majorAxisRotation 269.58
FOCALMECH  Hyp  -22.070504 -67.445544 30.012695 Mech  0 0 0 mf  0 nObs 0
PHASE ID Ins Cmp On Pha  FM Date     HrMn   Sec     Err  ErrMag    Coda      Amp       Per  >   TTpred    Res       Weight    StaLoc(X  Y         Z)        SDist    SAzim  RAz  RDip RQual    Tcorr 
PLJR   ?    ?    ? P      ? 20110614 0610   44.6907 GAU  4.04e-02 -1.00e+00 -1.00e+00 -1.00e+00 >    6.5478   -0.1833    1.1628  -19.4793   24.6258   -4.2437   10.3156  75.61  75.6 160.5 10     0.0000
PLQU   ?    ?    ? P      ? 20110614 0610   45.6694 GAU  4.09e-02 -1.00e+00 -1.00e+00 -1.00e+00 >    7.0019    0.3414    1.0456  -18.4486    8.7814   -4.1525   17.2598 140.31 140.3 149.5 10     0.0000
PLLA   ?    ?    ? P      ? 20110614 0610   45.9585 GAU  3.60e-02 -1.00e+00 -1.00e+00 -1.00e+00 >    8.0243   -0.3919    0.9802  -22.6264   -4.7336   -4.2420   27.6569 165.67 165.7 135.6 10     0.0000
PLBR   ?    ?    ? P      ? 20110614 0610   47.4946 GAU  2.94e-02 -1.00e+00 -1.00e+00 -1.00e+00 >    8.8361    0.3324    1.0176   -7.7901   -3.9330   -4.7950   33.8507 140.17 140.2 128.4 10     0.0000
PLMN   ?    ?    ? P      ? 20110614 0610   47.4448 GAU  3.25e-02 -1.00e+00 -1.00e+00 -1.00e+00 >    8.9390    0.1797    1.1004    4.0539   12.1026   -4.5125   34.9737 106.55 106.5 126.8 10     0.0000
PLMK   ?    ?    ? S      ? 20110614 0610   55.8798 GAU  2.33e-02 -1.00e+00 -1.00e+00 -1.00e+00 >   17.4325    0.1211    0.8134    8.5662    2.0463   -4.4835   42.9829 117.75 117.8 121.7 10     0.0000
PLSE   ?    ?    ? P      ? 20110614 0610   48.5620 GAU  9.42e-03 -1.00e+00 -1.00e+00 -1.00e+00 >   10.2691   -0.0332    1.0829  -13.4022  -19.5616   -4.6799   44.6186 158.89 158.9 117.2 10     0.0000
PLDK   ?    ?    ? P      ? 20110614 0610   49.1639 GAU  1.32e-02 -1.00e+00 -1.00e+00 -1.00e+00 >   10.9016   -0.0638    1.0544   18.7319   12.7120   -4.5524   49.1020 100.98 101.0 113.3 10     0.0000
PLLL   ?    ?    ? P      ? 20110614 0610   49.2331 GAU  5.69e-02 -1.00e+00 -1.00e+00 -1.00e+00 >   10.9521   -0.0452    1.0521    1.0293  -16.6657   -4.7503   49.2971 141.78 141.8 113.4 10     0.0000
PL07   ?    ?    ? P      ? 20110614 0610   50.6153 GAU  2.32e-02 -1.00e+00 -1.00e+00 -1.00e+00 >   12.0281    0.2611    0.9603   14.3650  -13.7157   -4.6414   56.5840 129.22 129.2 108.3  9     0.0000
PLRR   ?    ?    ? P      ? 20110614 0610   50.5990 GAU  7.80e-02 -1.00e+00 -1.00e+00 -1.00e+00 >   12.8153   -0.5425    0.7919   28.6536    0.9591   -4.4805   61.8377 109.95 110.0 104.8  9     0.0000
PLAR   ?    ?    ? P      ? 20110614 0610   51.7929 GAU  8.81e-02 -1.00e+00 -1.00e+00 -1.00e+00 >   13.5915   -0.1247    0.9384   18.7497  -24.0743   -4.6320   66.7377 133.73 133.7 102.2  9     0.0000
PL03   ?    ?    ? P      ? 20110614 0610   48.6966 GAU  1.28e-01 -1.00e+00 -1.00e+00 -1.00e+00 >    0.0000    0.0000    0.0000   22.1889   28.1546   -4.6285    0.0000   0.00 359.0  -1.0  0     0.0000
PLCL   ?    ?    ? P      ? 20110614 0610   46.9592 GAU  3.03e-02 -1.00e+00 -1.00e+00 -1.00e+00 >    0.0000    0.0000    0.0000   13.4947   40.2453   -4.3543    0.0000   0.00 359.0  -1.0  0     0.0000
PLLC   ?    ?    ? P      ? 20110614 0610   43.0765 GAU  6.07e-02 -1.00e+00 -1.00e+00 -1.00e+00 >    0.0000    0.0000    0.0000  -44.1417   14.1667   -4.7494    0.0000   0.00 359.0  -1.0  0     0.0000
PLTP   ?    ?    ? P      ? 20110614 0610   50.7668 GAU  7.20e-02 -1.00e+00 -1.00e+00 -1.00e+00 >    0.0000    0.0000    0.0000   38.5576   25.2769   -4.3881    0.0000   0.00 359.0  -1.0  0     0.0000
END_PHASE
END_NLLOC

