NLLOC "./loc/Uturuncu_XP_run002/loc.Tom_RunNLLoc000.20110622.043650.grid0" "LOCATED" "Location completed."
SIGNATURE "Tom Hudson, University of Oxford   obs:obs/Uturuncu_XP_run002/20110622043640960000.nonlinloc   NLLoc:v7.00.00(27Oct2017)  run:27Feb2020 12h21m24"
COMMENT "Control"
GRID  240 240 121  -60 -60 -6.5  0.5 0.5 0.5 PROB_DENSITY
SEARCH OCTREE nInitial 400 nEvaluated 200008 smallestNodeSide 0.373437/0.373437/0.472656 oct_tree_integral 4.153357e+03 scatter_volume 4.153357e+03
HYPOCENTER  x -43.7555 y 17.8617 z 46.2012  OT 41.2623  ix -1 iy -1 iz -1 MAXIMUM_LIKELIHOOD
GEOGRAPHIC  OT 2011 06 22  04 36 41.262325  Lat -22.108141 Long -67.584053 Depth 46.201172
QUALITY  Pmax 1.37789e+24 MFmin 8.88953 MFmax 13.8158 RMS 0.317174 Nphs 13 Gap 275.708 Dist 25.2009 Mamp -9.90 0 Mdur -9.90 0
VPVSRATIO  VpVsRatio -1  Npair 1  Diff 0
STATISTICS  ExpectX -41.8428 Y 18.7327 Z 44.0597  CovXX 71.7858 XY 11.8438 XZ -8.9148 YY 40.9588 YZ 11.5322 ZZ 38.8841 EllAz1  156.303 Dip1  43.3172 Len1  9.18231 Az2  172.54 Dip2  -45.5177 Len2  13.4505 Len3  1.643227e+01
STAT_GEOG  ExpectLat -22.100323 Long -67.565494 Depth 44.059742
TRANSFORM  LAMBERT RefEllipsoid WGS-84  LatOrig -22.270000  LongOrig -67.160000  FirstStdParal -22.280000  SecondStdParal -22.260000  RotCW 0.000000
QML_OriginQuality  assocPhCt 17  usedPhCt 13  assocStaCt -1  usedStaCt 12  depthPhCt -1  stdErr 0.317174  azGap 275.708  secAzGap 293.475  gtLevel -  minDist 25.2009 maxDist 81.8994 medDist 45.1196
QML_OriginUncertainty  horUnc -1  minHorUnc 9.21671  maxHorUnc 13.2047  azMaxHorUnc 71.2305
QML_ConfidenceEllipsoid  semiMajorAxisLength 16.4323  semiMinorAxisLength 9.18231  semiIntermediateAxisLength 13.4505  majorAxisPlunge -8.19503  majorAxisAzimuth 74.1076  majorAxisRotation 45.0654
FOCALMECH  Hyp  -22.108141 -67.584053 46.201172 Mech  0 0 0 mf  0 nObs 0
PHASE ID Ins Cmp On Pha  FM Date     HrMn   Sec     Err  ErrMag    Coda      Amp       Per  >   TTpred    Res       Weight    StaLoc(X  Y         Z)        SDist    SAzim  RAz  RDip RQual    Tcorr 
PLJR   ?    ?    ? P      ? 20110622 0436   50.8468 GAU  7.25e-02 -1.00e+00 -1.00e+00 -1.00e+00 >    9.8845   -0.3000    1.1102  -19.4793   24.6258   -4.2437   25.2009  74.43  74.4 151.1 10     0.0000
PLQU   ?    ?    ? P      ? 20110622 0436   51.3072 GAU  9.84e-03 -1.00e+00 -1.00e+00 -1.00e+00 >   10.0037    0.0412    1.1673  -18.4486    8.7814   -4.1525   26.8866 109.74 109.7 149.5 10     0.0000
PLSM   ?    ?    ? P      ? 20110622 0436   51.6643 GAU  4.20e-02 -1.00e+00 -1.00e+00 -1.00e+00 >   10.3573    0.0446    1.1551  -12.8358   17.3797   -4.2160   30.9235  90.89  90.9 145.8 10     0.0000
PLCM   ?    ?    ? P      ? 20110622 0436   53.0667 GAU  4.52e-02 -1.00e+00 -1.00e+00 -1.00e+00 >   11.5754    0.2290    1.0722   -4.6800    3.1110   -5.1500   41.7669 110.68 110.7 137.4 10     0.0000
PLCM   ?    ?    ? S      ? 20110622 0437    2.0161 GAU  1.64e-02 -1.00e+00 -1.00e+00 -1.00e+00 >   20.3910    0.3627    0.8045   -4.6800    3.1110   -5.1500   41.7669 110.68 110.7 138.7 10     0.0000
PLCO   ?    ?    ? P      ? 20110622 0436   52.0703 GAU  3.47e-02 -1.00e+00 -1.00e+00 -1.00e+00 >   11.5283   -0.7204    0.8267  -28.5311  -21.2320   -4.6885   41.9536 158.72 158.7 137.1 10     0.0000
PLBR   ?    ?    ? P      ? 20110622 0436   53.1618 GAU  5.24e-02 -1.00e+00 -1.00e+00 -1.00e+00 >   11.5539    0.3456    1.0215   -7.7901   -3.9330   -4.7950   42.0538 121.22 121.2 137.0 10     0.0000
PLSE   ?    ?    ? P      ? 20110622 0436   53.6759 GAU  1.82e-02 -1.00e+00 -1.00e+00 -1.00e+00 >   12.2329    0.1807    1.0694  -13.4022  -19.5616   -4.6799   48.1854 140.96 141.0 132.3 10     0.0000
PLLL   ?    ?    ? P      ? 20110622 0436   54.6277 GAU  1.23e-01 -1.00e+00 -1.00e+00 -1.00e+00 >   13.2693    0.0961    1.0482    1.0293  -16.6657   -4.7503   56.5493 127.63 127.6 126.8 10     0.0000
PL07   ?    ?    ? P      ? 20110622 0436   55.9219 GAU  2.29e-02 -1.00e+00 -1.00e+00 -1.00e+00 >   14.5232    0.1364    1.0088   14.3650  -13.7157   -4.6414   66.1447 118.52 118.5 121.5 10     0.0000
PLRR   ?    ?    ? P      ? 20110622 0436   56.3612 GAU  6.36e-02 -1.00e+00 -1.00e+00 -1.00e+00 >   15.6404   -0.5415    0.8762   28.6536    0.9591   -4.4805   74.3557 103.14 103.1 117.6 10     0.0000
PLAR   ?    ?    ? P      ? 20110622 0436   57.0241 GAU  1.31e-02 -1.00e+00 -1.00e+00 -1.00e+00 >   15.7892   -0.0274    0.9842   18.7497  -24.0743   -4.6320   75.2697 123.86 123.9 117.4 10     0.0000
PLWB   ?    ?    ? P      ? 20110622 0436   57.4467 GAU  9.13e-02 -1.00e+00 -1.00e+00 -1.00e+00 >   16.7203   -0.5359    0.8558   33.5070   -9.3046   -4.4915   81.8994 109.37 109.4 114.8 10     0.0000
PLCL   ?    ?    ? S      ? 20110622 0437    5.7199 GAU  1.63e-02 -1.00e+00 -1.00e+00 -1.00e+00 >    0.0000    0.0000    0.0000   13.4947   40.2453   -4.3543    0.0000   0.00 359.0  -1.0  0     0.0000
PLAN   ?    ?    ? P      ? 20110622 0436   53.4130 GAU  1.96e-02 -1.00e+00 -1.00e+00 -1.00e+00 >    0.0000    0.0000    0.0000  -23.2922  -41.4887   -4.6967    0.0000   0.00 359.0  -1.0  0     0.0000
PLCL   ?    ?    ? P      ? 20110622 0436   53.8829 GAU  7.29e-02 -1.00e+00 -1.00e+00 -1.00e+00 >    0.0000    0.0000    0.0000   13.4947   40.2453   -4.3543    0.0000   0.00 359.0  -1.0  0     0.0000
PL03   ?    ?    ? P      ? 20110622 0436   55.1830 GAU  6.71e-02 -1.00e+00 -1.00e+00 -1.00e+00 >    0.0000    0.0000    0.0000   22.1889   28.1546   -4.6285    0.0000   0.00 359.0  -1.0  0     0.0000
END_PHASE
END_NLLOC

