NLLOC "./loc/Uturuncu_XP_run002/loc.Tom_RunNLLoc000.20110624.094017.grid0" "LOCATED" "Location completed."
SIGNATURE "Tom Hudson, University of Oxford   obs:obs/Uturuncu_XP_run002/20110624094009380000.nonlinloc   NLLoc:v7.00.00(27Oct2017)  run:27Feb2020 12h21m55"
COMMENT "Control"
GRID  240 240 121  -60 -60 -6.5  0.5 0.5 0.5 PROB_DENSITY
SEARCH OCTREE nInitial 400 nEvaluated 200008 smallestNodeSide 0.186719/0.186719/0.236328 oct_tree_integral 1.147731e+03 scatter_volume 1.147731e+03
HYPOCENTER  x 3.29766 y 0.310156 z -2.95508  OT 19.4574  ix -1 iy -1 iz -1 MAXIMUM_LIKELIHOOD
GEOGRAPHIC  OT 2011 06 24  09 40 19.457417  Lat -22.267196 Long -67.128005 Depth -2.955078
QUALITY  Pmax 1.063e+15 MFmin 10.7216 MFmax 10.884 RMS 0.0869456 Nphs 9 Gap 56.4377 Dist 8.45506 Mamp -9.90 0 Mdur -9.90 0
VPVSRATIO  VpVsRatio -1  Npair 0  Diff -2e+30
STATISTICS  ExpectX -34.0279 Y 16.0568 Z 38.4457  CovXX 98.8258 XY -37.1611 XZ -69.9002 YY 42.1305 YZ 35.1815 ZZ 99.1284 EllAz1  23.7913 Dip1  -3.03112 Len1  9.14881 Az2  290.404 Dip2  -48.1351 Len2  10.1919 Len3  2.568898e+01
STAT_GEOG  ExpectLat -22.124660 Long -67.489818 Depth 38.445713
TRANSFORM  LAMBERT RefEllipsoid WGS-84  LatOrig -22.270000  LongOrig -67.160000  FirstStdParal -22.280000  SecondStdParal -22.260000  RotCW 0.000000
QML_OriginQuality  assocPhCt 15  usedPhCt 9  assocStaCt -1  usedStaCt 9  depthPhCt -1  stdErr 0.0869456  azGap 56.4377  secAzGap 103.985  gtLevel -  minDist 8.45506 maxDist 33.3172 medDist 25.9571
QML_OriginUncertainty  horUnc -1  minHorUnc 7.38918  maxHorUnc 16.4195  azMaxHorUnc 116.331
QML_ConfidenceEllipsoid  semiMajorAxisLength 25.689  semiMinorAxisLength 9.14881  semiIntermediateAxisLength 10.1919  majorAxisPlunge -41.7037  majorAxisAzimuth 116.496  majorAxisRotation 211.735
FOCALMECH  Hyp  -22.267196 -67.128005 -2.955078 Mech  0 0 0 mf  0 nObs 0
PHASE ID Ins Cmp On Pha  FM Date     HrMn   Sec     Err  ErrMag    Coda      Amp       Per  >   TTpred    Res       Weight    StaLoc(X  Y         Z)        SDist    SAzim  RAz  RDip RQual    Tcorr 
PLCM   ?    ?    ? P      ? 20110624 0940   21.1004 GAU  4.11e-02 -1.00e+00 -1.00e+00 -1.00e+00 >    1.6222    0.0208    1.8554   -4.6800    3.1110   -5.1500    8.4551 289.35 289.3 106.0  9     0.0000
PLMN   ?    ?    ? P      ? 20110624 0940   21.5950 GAU  9.67e-02 -1.00e+00 -1.00e+00 -1.00e+00 >    2.2081   -0.0705    1.7121    4.0539   12.1026   -4.5125   11.8167   3.67   3.7 100.3  9     0.0000
PLLL   ?    ?    ? P      ? 20110624 0940   22.5357 GAU  6.26e-02 -1.00e+00 -1.00e+00 -1.00e+00 >    3.1850   -0.1068    1.5534    1.0293  -16.6657   -4.7503   17.1267 187.61 187.6  98.7  9     0.0000
PLDK   ?    ?    ? P      ? 20110624 0940   23.1424 GAU  3.51e-02 -1.00e+00 -1.00e+00 -1.00e+00 >    3.6699    0.0151    1.6446   18.7319   12.7120   -4.5524   19.7995  51.22  51.2  97.6  9     0.0000
PLSE   ?    ?    ? P      ? 20110624 0940   21.7354 GAU  1.65e-02 -1.00e+00 -1.00e+00 -1.00e+00 >    4.8051   -2.5270    0.0000  -13.4022  -19.5616   -4.6799   25.9571 220.04 220.0  96.9  9     0.0000
PLLA   ?    ?    ? P      ? 20110624 0940   19.8168 GAU  1.54e-02 -1.00e+00 -1.00e+00 -1.00e+00 >    4.8841   -4.5246    0.0000  -22.6264   -4.7336   -4.2420   26.4102 258.99 259.0  95.9  9     0.0000
PLAR   ?    ?    ? P      ? 20110624 0940   25.0738 GAU  1.09e-02 -1.00e+00 -1.00e+00 -1.00e+00 >    5.3399    0.2765    0.9236   18.7497  -24.0743   -4.6320   28.8681 147.64 147.6  96.6  9     0.0000
PLWB   ?    ?    ? P      ? 20110624 0940   25.3010 GAU  3.23e-02 -1.00e+00 -1.00e+00 -1.00e+00 >    5.8550   -0.0114    1.3109   33.5070   -9.3046   -4.4915   31.7025 107.65 107.7  96.3  9     0.0000
PLJR   ?    ?    ? P      ? 20110624 0940   19.1369 GAU  7.89e-02 -1.00e+00 -1.00e+00 -1.00e+00 >    6.1551   -6.4757    0.0000  -19.4793   24.6258   -4.2437   33.3172 316.87 316.9  95.6  9     0.0000
PLSQ   ?    ?    ? P      ? 20110624 0940   18.7092 GAU  6.60e-02 -1.00e+00 -1.00e+00 -1.00e+00 >    0.0000    0.0000    0.0000  -49.2231  -16.6550   -4.8115    0.0000   0.00 359.0  -1.0  0     0.0000
PL03   ?    ?    ? P      ? 20110624 0940   23.1514 GAU  6.31e-02 -1.00e+00 -1.00e+00 -1.00e+00 >    0.0000    0.0000    0.0000   22.1889   28.1546   -4.6285    0.0000   0.00 359.0  -1.0  0     0.0000
PLCL   ?    ?    ? P      ? 20110624 0940   21.9219 GAU  9.19e-02 -1.00e+00 -1.00e+00 -1.00e+00 >    0.0000    0.0000    0.0000   13.4947   40.2453   -4.3543    0.0000   0.00 359.0  -1.0  0     0.0000
PLLC   ?    ?    ? P      ? 20110624 0940   17.2806 GAU  4.41e-02 -1.00e+00 -1.00e+00 -1.00e+00 >    0.0000    0.0000    0.0000  -44.1417   14.1667   -4.7494    0.0000   0.00 359.0  -1.0  0     0.0000
PLTP   ?    ?    ? P      ? 20110624 0940   25.0978 GAU  1.14e-01 -1.00e+00 -1.00e+00 -1.00e+00 >    0.0000    0.0000    0.0000   38.5576   25.2769   -4.3881    0.0000   0.00 359.0  -1.0  0     0.0000
PLAN   ?    ?    ? P      ? 20110624 0940   21.6281 GAU  2.93e-02 -1.00e+00 -1.00e+00 -1.00e+00 >    0.0000    0.0000    0.0000  -23.2922  -41.4887   -4.6967    0.0000   0.00 359.0  -1.0  0     0.0000
END_PHASE
END_NLLOC

