NLLOC "./loc/Uturuncu_XP_run002/loc.Tom_RunNLLoc000.20110622.023326.grid0" "LOCATED" "Location completed."
SIGNATURE "Tom Hudson, University of Oxford   obs:obs/Uturuncu_XP_run002/20110622023325380000.nonlinloc   NLLoc:v7.00.00(27Oct2017)  run:27Feb2020 12h21m20"
COMMENT "Control"
GRID  240 240 121  -60 -60 -6.5  0.5 0.5 0.5 PROB_DENSITY
SEARCH OCTREE nInitial 400 nEvaluated 200000 smallestNodeSide 0.023340/0.023340/0.029541 oct_tree_integral 4.456975e+00 scatter_volume 4.417807e+00
HYPOCENTER  x -7.22861 y -7.04189 z -0.798584  OT 25.6191  ix -1 iy -1 iz -1 MAXIMUM_LIKELIHOOD
GEOGRAPHIC  OT 2011 06 22  02 33 25.619097  Lat -22.333578 Long -67.230168 Depth -0.798584
QUALITY  Pmax 2.62899e+56 MFmin 24.1433 MFmax 25.0879 RMS 0.119491 Nphs 21 Gap 102.519 Dist 3.15918 Mamp -9.90 0 Mdur -9.90 0
VPVSRATIO  VpVsRatio 1.67727  Npair 9  Diff 3.68312
STATISTICS  ExpectX -7.0969 Y -7.06731 Z -0.977229  CovXX 0.227705 XY 0.0132793 XZ 0.237361 YY 0.121301 YZ 0.194448 ZZ 5.26713 EllAz1  177.596 Dip1  2.04845 Len1  0.63376 Az2  267.696 Dip2  2.77714 Len2  0.874647 Len3  4.319526e+00
STAT_GEOG  ExpectLat -22.333808 Long -67.228889 Depth -0.977229
TRANSFORM  LAMBERT RefEllipsoid WGS-84  LatOrig -22.270000  LongOrig -67.160000  FirstStdParal -22.280000  SecondStdParal -22.260000  RotCW 0.000000
QML_OriginQuality  assocPhCt 26  usedPhCt 21  assocStaCt -1  usedStaCt 12  depthPhCt -1  stdErr 0.119491  azGap 102.519  secAzGap 102.519  gtLevel -  minDist 3.15918 maxDist 40.7985 medDist 20.4121
QML_OriginUncertainty  horUnc -1  minHorUnc 0.524631  maxHorUnc 0.726275  azMaxHorUnc 82.9927
QML_ConfidenceEllipsoid  semiMajorAxisLength 4.31953  semiMinorAxisLength 0.63376  semiIntermediateAxisLength 0.874647  majorAxisPlunge 86.5482  majorAxisAzimuth 51.2283  majorAxisRotation 323.383
FOCALMECH  Hyp  -22.333578 -67.230168 -0.798584 Mech  0 0 0 mf  0 nObs 0
PHASE ID Ins Cmp On Pha  FM Date     HrMn   Sec     Err  ErrMag    Coda      Amp       Per  >   TTpred    Res       Weight    StaLoc(X  Y         Z)        SDist    SAzim  RAz  RDip RQual    Tcorr 
PLBR   ?    ?    ? P      ? 20110622 0233   26.4834 GAU  4.08e-02 -1.00e+00 -1.00e+00 -1.00e+00 >    0.9450   -0.0807    1.3393   -7.7901   -3.9330   -4.7950    3.1592 349.76 349.8 143.6  9     0.0000
PLSS   ?    ?    ? P      ? 20110622 0233   27.0510 GAU  3.55e-02 -1.00e+00 -1.00e+00 -1.00e+00 >    1.3809    0.0510    1.4556   -1.1850   -5.1823   -4.6864    6.3233  72.90  72.9 119.4  9     0.0000
PLCM   ?    ?    ? P      ? 20110622 0233   27.7604 GAU  2.82e-02 -1.00e+00 -1.00e+00 -1.00e+00 >    2.1051    0.0362    1.4320   -4.6800    3.1110   -5.1500   10.4679  14.09  14.1 111.5  9     0.0000
PLCM   ?    ?    ? S      ? 20110622 0233   29.3776 GAU  2.81e-02 -1.00e+00 -1.00e+00 -1.00e+00 >    3.6466    0.1119    1.1631   -4.6800    3.1110   -5.1500   10.4679  14.09  14.1 110.7  9     0.0000
PLLL   ?    ?    ? P      ? 20110622 0233   28.0756 GAU  2.55e-02 -1.00e+00 -1.00e+00 -1.00e+00 >    2.4681   -0.0116    1.3991    1.0293  -16.6657   -4.7503   12.6811 139.37 139.4 106.7  9     0.0000
PLLL   ?    ?    ? S      ? 20110622 0233   30.0437 GAU  2.60e-02 -1.00e+00 -1.00e+00 -1.00e+00 >    4.2752    0.1495    1.0502    1.0293  -16.6657   -4.7503   12.6811 139.37 139.4 105.6  9     0.0000
PLSE   ?    ?    ? P      ? 20110622 0233   28.2991 GAU  2.61e-02 -1.00e+00 -1.00e+00 -1.00e+00 >    2.6914   -0.0114    1.3703  -13.4022  -19.5616   -4.6799   13.9591 206.25 206.2 104.8  9     0.0000
PLSE   ?    ?    ? S      ? 20110622 0233   30.4706 GAU  2.69e-02 -1.00e+00 -1.00e+00 -1.00e+00 >    4.6620    0.1895    0.9579  -13.4022  -19.5616   -4.6799   13.9591 206.25 206.2 103.6  9     0.0000
PLMK   ?    ?    ? P      ? 20110622 0233   29.2370 GAU  2.49e-02 -1.00e+00 -1.00e+00 -1.00e+00 >    3.4455    0.1724    1.0571    8.5662    2.0463   -4.4835   18.2228  60.08  60.1 100.8  9     0.0000
PL07   ?    ?    ? P      ? 20110622 0233   29.5987 GAU  2.27e-02 -1.00e+00 -1.00e+00 -1.00e+00 >    4.2452   -0.2656    0.8188   14.3650  -13.7157   -4.6414   22.6014 107.17 107.2  98.5  9     0.0000
PL07   ?    ?    ? S      ? 20110622 0233   32.6851 GAU  3.38e-02 -1.00e+00 -1.00e+00 -1.00e+00 >    7.3526   -0.2866    0.7356   14.3650  -13.7157   -4.6414   22.6014 107.17 107.2  96.5 10     0.0000
PLSM   ?    ?    ? P      ? 20110622 0233   30.3534 GAU  2.33e-02 -1.00e+00 -1.00e+00 -1.00e+00 >    4.6786    0.0556    1.1144  -12.8358   17.3797   -4.2160   25.0570 347.07 347.1  96.1  9     0.0000
PLSM   ?    ?    ? S      ? 20110622 0233   33.7806 GAU  2.88e-02 -1.00e+00 -1.00e+00 -1.00e+00 >    8.0996    0.0619    0.8212  -12.8358   17.3797   -4.2160   25.0570 347.07 347.1  93.5  9     0.0000
PLCO   ?    ?    ? P      ? 20110622 0233   30.3748 GAU  3.31e-02 -1.00e+00 -1.00e+00 -1.00e+00 >    4.7899   -0.0342    1.1074  -28.5311  -21.2320   -4.6885   25.5960 236.33 236.3  97.4  9     0.0000
PLCO   ?    ?    ? S      ? 20110622 0233   33.9292 GAU  1.20e-02 -1.00e+00 -1.00e+00 -1.00e+00 >    8.2954    0.0147    0.8179  -28.5311  -21.2320   -4.6885   25.5960 236.33 236.3  95.0  9     0.0000
PLAR   ?    ?    ? P      ? 20110622 0233   31.4115 GAU  2.92e-02 -1.00e+00 -1.00e+00 -1.00e+00 >    5.7860    0.0064    1.0146   18.7497  -24.0743   -4.6320   31.0641 123.25 123.3  95.1  9     0.0000
PLAR   ?    ?    ? S      ? 20110622 0233   35.5050 GAU  2.57e-02 -1.00e+00 -1.00e+00 -1.00e+00 >   10.0126   -0.1268    0.7066   18.7497  -24.0743   -4.6320   31.0641 123.25 123.3  91.4  9     0.0000
PLJR   ?    ?    ? P      ? 20110622 0233   31.7819 GAU  2.45e-02 -1.00e+00 -1.00e+00 -1.00e+00 >    6.3045   -0.1416    0.9148  -19.4793   24.6258   -4.2437   33.9547 338.85 338.9  93.0  9     0.0000
PLJR   ?    ?    ? S      ? 20110622 0233   36.2057 GAU  3.06e-02 -1.00e+00 -1.00e+00 -1.00e+00 >   10.8978   -0.3112    0.6061  -19.4793   24.6258   -4.2437   33.9547 338.85 338.9  88.2  9     0.0000
PLWB   ?    ?    ? P      ? 20110622 0233   32.8263 GAU  2.30e-02 -1.00e+00 -1.00e+00 -1.00e+00 >    7.5591   -0.3518    0.6667   33.5070   -9.3046   -4.4915   40.7985  93.18  93.2  91.9  9     0.0000
PLWB   ?    ?    ? S      ? 20110622 0233   38.1266 GAU  2.40e-02 -1.00e+00 -1.00e+00 -1.00e+00 >   13.0600   -0.5524    0.4514   33.5070   -9.3046   -4.4915   40.7985  93.18  93.2  85.8  9     0.0000
PLAN   ?    ?    ? P      ? 20110622 0233   32.3037 GAU  2.68e-02 -1.00e+00 -1.00e+00 -1.00e+00 >    0.0000    0.0000    0.0000  -23.2922  -41.4887   -4.6967    0.0000   0.00 359.0  -1.0  0     0.0000
PLSQ   ?    ?    ? S      ? 20110622 0233   38.6805 GAU  6.33e-02 -1.00e+00 -1.00e+00 -1.00e+00 >    0.0000    0.0000    0.0000  -49.2231  -16.6550   -4.8115    0.0000   0.00 359.0  -1.0  0     0.0000
PL03   ?    ?    ? S      ? 20110622 0233   40.0157 GAU  7.46e-02 -1.00e+00 -1.00e+00 -1.00e+00 >    0.0000    0.0000    0.0000   22.1889   28.1546   -4.6285    0.0000   0.00 359.0  -1.0  0     0.0000
PLAN   ?    ?    ? S      ? 20110622 0233   37.0660 GAU  2.85e-02 -1.00e+00 -1.00e+00 -1.00e+00 >    0.0000    0.0000    0.0000  -23.2922  -41.4887   -4.6967    0.0000   0.00 359.0  -1.0  0     0.0000
PLCL   ?    ?    ? S      ? 20110622 0233   41.6858 GAU  3.30e-02 -1.00e+00 -1.00e+00 -1.00e+00 >    0.0000    0.0000    0.0000   13.4947   40.2453   -4.3543    0.0000   0.00 359.0  -1.0  0     0.0000
END_PHASE
END_NLLOC

