NLLOC "./loc/Uturuncu_XP_run002/loc.Tom_RunNLLoc000.20110622.124949.grid0" "LOCATED" "Location completed."
SIGNATURE "Tom Hudson, University of Oxford   obs:obs/Uturuncu_XP_run002/20110622124947160000.nonlinloc   NLLoc:v7.00.00(27Oct2017)  run:27Feb2020 12h21m39"
COMMENT "Control"
GRID  240 240 121  -60 -60 -6.5  0.5 0.5 0.5 PROB_DENSITY
SEARCH OCTREE nInitial 400 nEvaluated 200000 smallestNodeSide 0.046680/0.046680/0.059082 oct_tree_integral 2.162418e+01 scatter_volume 2.159410e+01
HYPOCENTER  x -8.06885 y 0.100098 z 4.81421  OT 50.8311  ix -1 iy -1 iz -1 MAXIMUM_LIKELIHOOD
GEOGRAPHIC  OT 2011 06 22  12 49 50.831078  Lat -22.269077 Long -67.238288 Depth 4.814209
QUALITY  Pmax 3.05029e+31 MFmin 19.1272 MFmax 21.8402 RMS 0.516774 Nphs 17 Gap 83.4182 Dist 4.04273 Mamp -9.90 0 Mdur -9.90 0
VPVSRATIO  VpVsRatio 0.966248  Npair 3  Diff 0.394537
STATISTICS  ExpectX -13.9322 Y 2.83215 Z 2.84349  CovXX 44.9101 XY -22.2882 XZ 15.8482 YY 19.7315 YZ -11.4458 ZZ 11.9817 EllAz1  181.057 Dip1  -53.6379 Len1  3.64873 Az2  222.617 Dip2  28.8502 Len2  5.24471 Len3  1.515453e+01
STAT_GEOG  ExpectLat -22.244368 Long -67.295153 Depth 2.843493
TRANSFORM  LAMBERT RefEllipsoid WGS-84  LatOrig -22.270000  LongOrig -67.160000  FirstStdParal -22.280000  SecondStdParal -22.260000  RotCW 0.000000
QML_OriginQuality  assocPhCt 20  usedPhCt 17  assocStaCt -1  usedStaCt 14  depthPhCt -1  stdErr 0.516774  azGap 83.4182  secAzGap 153.654  gtLevel -  minDist 4.04273 maxDist 42.6263 medDist 19.7238
QML_OriginUncertainty  horUnc -1  minHorUnc 3.93224  maxHorUnc 11.5418  azMaxHorUnc 120.27
QML_ConfidenceEllipsoid  semiMajorAxisLength 15.1545  semiMinorAxisLength 3.64873  semiIntermediateAxisLength 5.24471  majorAxisPlunge 20.1519  majorAxisAzimuth 120.954  majorAxisRotation 294.558
FOCALMECH  Hyp  -22.269077 -67.238288 4.814209 Mech  0 0 0 mf  0 nObs 0
PHASE ID Ins Cmp On Pha  FM Date     HrMn   Sec     Err  ErrMag    Coda      Amp       Per  >   TTpred    Res       Weight    StaLoc(X  Y         Z)        SDist    SAzim  RAz  RDip RQual    Tcorr 
PLBR   ?    ?    ? S      ? 20110622 1249   54.0535 GAU  3.97e-02 -1.00e+00 -1.00e+00 -1.00e+00 >    3.3028   -0.0803    2.0181   -7.7901   -3.9330   -4.7950    4.0427 176.05 176.0 156.8  9     0.0000
PLCM   ?    ?    ? S      ? 20110622 1249   54.4149 GAU  7.44e-02 -1.00e+00 -1.00e+00 -1.00e+00 >    3.4665    0.1173    1.9276   -4.6800    3.1110   -5.1500    4.5332  48.38  48.4 155.3  9     0.0000
PLSS   ?    ?    ? P      ? 20110622 1249   54.4997 GAU  2.27e-02 -1.00e+00 -1.00e+00 -1.00e+00 >    2.3574    1.3113    0.3392   -1.1850   -5.1823   -4.6864    8.6771 127.50 127.5 138.1  9     0.0000
PLSS   ?    ?    ? S      ? 20110622 1249   54.9220 GAU  6.87e-02 -1.00e+00 -1.00e+00 -1.00e+00 >    4.0463    0.0446    1.9922   -1.1850   -5.1823   -4.6864    8.6771 127.50 127.5 137.9  9     0.0000
PLLA   ?    ?    ? S      ? 20110622 1249   52.3927 GAU  4.11e-02 -1.00e+00 -1.00e+00 -1.00e+00 >    5.6148   -4.0531    0.0363  -22.6264   -4.7336   -4.2420   15.3391 251.63 251.6 117.2  9     0.0000
PLMK   ?    ?    ? P      ? 20110622 1249   55.5041 GAU  7.21e-02 -1.00e+00 -1.00e+00 -1.00e+00 >    3.5214    1.1516    0.3538    8.5662    2.0463   -4.4835   16.7485  83.33  83.3 116.1  9     0.0000
PLMK   ?    ?    ? S      ? 20110622 1249   56.2841 GAU  3.24e-02 -1.00e+00 -1.00e+00 -1.00e+00 >    6.0415   -0.5885    0.8197    8.5662    2.0463   -4.4835   16.7485  83.33  83.3 115.6  9     0.0000
PLMN   ?    ?    ? P      ? 20110622 1249   54.4136 GAU  4.67e-02 -1.00e+00 -1.00e+00 -1.00e+00 >    3.5741    0.0084    2.0674    4.0539   12.1026   -4.5125   17.0594  45.29  45.3 115.7  9     0.0000
PLMN   ?    ?    ? S      ? 20110622 1249   55.2304 GAU  3.40e-02 -1.00e+00 -1.00e+00 -1.00e+00 >    6.1321   -1.7328    0.2306    4.0539   12.1026   -4.5125   17.0594  45.29  45.3 115.2  9     0.0000
PLLL   ?    ?    ? P      ? 20110622 1249   55.1577 GAU  3.72e-02 -1.00e+00 -1.00e+00 -1.00e+00 >    3.9234    0.4032    0.9421    1.0293  -16.6657   -4.7503   19.0753 151.51 151.5 113.6  9     0.0000
PLSE   ?    ?    ? P      ? 20110622 1249   53.4911 GAU  1.45e-01 -1.00e+00 -1.00e+00 -1.00e+00 >    4.1325   -1.4725    0.2764  -13.4022  -19.5616   -4.6799   20.3722 195.18 195.2 111.9  9     0.0000
PL07   ?    ?    ? P      ? 20110622 1249   55.8415 GAU  1.04e-01 -1.00e+00 -1.00e+00 -1.00e+00 >    5.1437   -0.1332    1.7745   14.3650  -13.7157   -4.6414   26.3468 121.63 121.6 106.3  9     0.0000
PLJR   ?    ?    ? S      ? 20110622 1249   52.2493 GAU  8.90e-02 -1.00e+00 -1.00e+00 -1.00e+00 >    8.9845   -7.5663    0.0000  -19.4793   24.6258   -4.2437   27.0501 335.05 335.0 104.4  9     0.0000
PLCO   ?    ?    ? P      ? 20110622 1249   51.6924 GAU  4.59e-02 -1.00e+00 -1.00e+00 -1.00e+00 >    5.7029   -4.8416    0.0363  -28.5311  -21.2320   -4.6885   29.5594 223.81 223.8 104.1  9     0.0000
PLAR   ?    ?    ? P      ? 20110622 1249   57.6618 GAU  3.26e-02 -1.00e+00 -1.00e+00 -1.00e+00 >    6.8482   -0.0176    1.7119   18.7497  -24.0743   -4.6320   36.1059 132.03 132.0 100.1  9     0.0000
PLRR   ?    ?    ? P      ? 20110622 1249   57.7431 GAU  4.87e-02 -1.00e+00 -1.00e+00 -1.00e+00 >    6.9503   -0.0383    1.6951   28.6536    0.9591   -4.4805   36.7325  88.66  88.7  99.6  9     0.0000
PLWB   ?    ?    ? P      ? 20110622 1249   58.1225 GAU  2.86e-02 -1.00e+00 -1.00e+00 -1.00e+00 >    7.9968   -0.7054    0.7788   33.5070   -9.3046   -4.4915   42.6263 102.75 102.7  96.8  9     0.0000
PLCL   ?    ?    ? P      ? 20110622 1249   55.5388 GAU  3.12e-02 -1.00e+00 -1.00e+00 -1.00e+00 >    0.0000    0.0000    0.0000   13.4947   40.2453   -4.3543    0.0000   0.00 359.0  -1.0  0     0.0000
PL03   ?    ?    ? P      ? 20110622 1249   57.0508 GAU  1.61e-02 -1.00e+00 -1.00e+00 -1.00e+00 >    0.0000    0.0000    0.0000   22.1889   28.1546   -4.6285    0.0000   0.00 359.0  -1.0  0     0.0000
PLLC   ?    ?    ? P      ? 20110622 1249   49.7569 GAU  4.46e-02 -1.00e+00 -1.00e+00 -1.00e+00 >    0.0000    0.0000    0.0000  -44.1417   14.1667   -4.7494    0.0000   0.00 359.0  -1.0  0     0.0000
END_PHASE
END_NLLOC

