NLLOC "./loc/Uturuncu_XP_run002/loc.Tom_RunNLLoc000.20110614.111816.grid0" "LOCATED" "Location completed."
SIGNATURE "Tom Hudson, University of Oxford   obs:obs/Uturuncu_XP_run002/20110614111805980000.nonlinloc   NLLoc:v7.00.00(27Oct2017)  run:27Feb2020 12h20m08"
COMMENT "Control"
GRID  240 240 121  -60 -60 -6.5  0.5 0.5 0.5 PROB_DENSITY
SEARCH OCTREE nInitial 400 nEvaluated 200000 smallestNodeSide 0.186719/0.186719/0.236328 oct_tree_integral 2.770998e+03 scatter_volume 2.770998e+03
HYPOCENTER  x -32.459 y 28.2246 z 43.0107  OT 8.01238  ix -1 iy -1 iz -1 MAXIMUM_LIKELIHOOD
GEOGRAPHIC  OT 2011 06 14  11 18 8.012381  Lat -22.014805 Long -67.474366 Depth 43.010742
QUALITY  Pmax 1.26822e+26 MFmin 9.75951 MFmax 13.9374 RMS 0.356644 Nphs 14 Gap 290.038 Dist 13.4694 Mamp -9.90 0 Mdur -9.90 0
VPVSRATIO  VpVsRatio 0.5  Npair 2  Diff 9.89233
STATISTICS  ExpectX -35.1268 Y 32.3623 Z 43.2312  CovXX 57.8593 XY -32.3096 XZ -13.3637 YY 76.6578 YZ 20.3504 ZZ 28.1333 EllAz1  344.325 Dip1  -72.0184 Len1  8.52792 Az2  235.304 Dip2  -6.03812 Len2  10.9184 Len3  1.955041e+01
STAT_GEOG  ExpectLat -21.977387 Long -67.500113 Depth 43.231173
TRANSFORM  LAMBERT RefEllipsoid WGS-84  LatOrig -22.270000  LongOrig -67.160000  FirstStdParal -22.280000  SecondStdParal -22.260000  RotCW 0.000000
QML_OriginQuality  assocPhCt 18  usedPhCt 14  assocStaCt -1  usedStaCt 12  depthPhCt -1  stdErr 0.356644  azGap 290.038  secAzGap 302.109  gtLevel -  minDist 13.4694 maxDist 73.195 medDist 47.6868
QML_OriginUncertainty  horUnc -1  minHorUnc 8.79215  maxHorUnc 15.2344  azMaxHorUnc 143.11
QML_ConfidenceEllipsoid  semiMajorAxisLength 19.5504  semiMinorAxisLength 8.52792  semiIntermediateAxisLength 10.9184  majorAxisPlunge -16.8722  majorAxisAzimuth 143.466  majorAxisRotation 264.746
FOCALMECH  Hyp  -22.014805 -67.474366 43.010742 Mech  0 0 0 mf  0 nObs 0
PHASE ID Ins Cmp On Pha  FM Date     HrMn   Sec     Err  ErrMag    Coda      Amp       Per  >   TTpred    Res       Weight    StaLoc(X  Y         Z)        SDist    SAzim  RAz  RDip RQual    Tcorr 
PLJR   ?    ?    ? P      ? 20110614 1118   16.4598 GAU  5.38e-02 -1.00e+00 -1.00e+00 -1.00e+00 >    8.6721   -0.2247    1.2262  -19.4793   24.6258   -4.2437   13.4694 105.50 105.5 162.1 10     0.0000
PLJR   ?    ?    ? S      ? 20110614 1118   23.5378 GAU  1.80e-02 -1.00e+00 -1.00e+00 -1.00e+00 >   15.2395    0.2859    1.0431  -19.4793   24.6258   -4.2437   13.4694 105.50 105.5 162.7 10     0.0000
PLQU   ?    ?    ? P      ? 20110614 1118   17.5274 GAU  1.41e-02 -1.00e+00 -1.00e+00 -1.00e+00 >    9.3306    0.1845    1.2582  -18.4486    8.7814   -4.1525   23.9651 144.22 144.2 150.5 10     0.0000
PLLA   ?    ?    ? P      ? 20110614 1118   18.1371 GAU  1.21e-01 -1.00e+00 -1.00e+00 -1.00e+00 >   10.2843   -0.1596    1.2025  -22.6264   -4.7336   -4.2420   34.3936 163.39 163.4 140.7 10     0.0000
PLMN   ?    ?    ? P      ? 20110614 1118   19.1650 GAU  6.70e-02 -1.00e+00 -1.00e+00 -1.00e+00 >   10.9085    0.2441    1.1899    4.0539   12.1026   -4.5125   39.9138 113.82 113.8 136.2 10     0.0000
PLBR   ?    ?    ? P      ? 20110614 1118   19.4444 GAU  1.00e-01 -1.00e+00 -1.00e+00 -1.00e+00 >   11.0184    0.4136    1.1092   -7.7901   -3.9330   -4.7950   40.5298 142.51 142.5 135.9 10     0.0000
PLSS   ?    ?    ? P      ? 20110614 1118   20.6740 GAU  1.64e-02 -1.00e+00 -1.00e+00 -1.00e+00 >   11.6068    1.0548    0.6212   -1.1850   -5.1823   -4.6864   45.7612 136.89 136.9 131.5 10     0.0000
PLCO   ?    ?    ? P      ? 20110614 1118   19.7696 GAU  3.79e-02 -1.00e+00 -1.00e+00 -1.00e+00 >   12.0764   -0.3192    1.0857  -28.5311  -21.2320   -4.6885   49.6123 175.46 175.5 128.6 10     0.0000
PLDK   ?    ?    ? P      ? 20110614 1118   20.3061 GAU  5.51e-02 -1.00e+00 -1.00e+00 -1.00e+00 >   12.5484   -0.2547    1.1012   18.7319   12.7120   -4.5524   53.4897 106.86 106.9 125.9 10     0.0000
PLLL   ?    ?    ? P      ? 20110614 1118   20.9500 GAU  4.95e-02 -1.00e+00 -1.00e+00 -1.00e+00 >   12.9028    0.0348    1.1527    1.0293  -16.6657   -4.7503   56.0054 143.28 143.3 124.4 10     0.0000
PL07   ?    ?    ? P      ? 20110614 1118   21.7156 GAU  1.03e-02 -1.00e+00 -1.00e+00 -1.00e+00 >   13.8128   -0.1096    1.1051   14.3650  -13.7157   -4.6414   62.8608 131.85 131.9 120.5 10     0.0000
PLRR   ?    ?    ? P      ? 20110614 1118   21.8462 GAU  4.45e-02 -1.00e+00 -1.00e+00 -1.00e+00 >   14.3552   -0.5215    0.9212   28.6536    0.9591   -4.4805   66.9190 114.04 114.0 118.3 10     0.0000
PLAR   ?    ?    ? P      ? 20110614 1118   23.7486 GAU  4.78e-02 -1.00e+00 -1.00e+00 -1.00e+00 >   15.2662    0.4700    0.9827   18.7497  -24.0743   -4.6320   73.1950 135.60 135.6 115.6 10     0.0000
PLAR   ?    ?    ? S      ? 20110614 1118   40.7189 GAU  2.36e-02 -1.00e+00 -1.00e+00 -1.00e+00 >   26.9217    5.7848    0.0009   18.7497  -24.0743   -4.6320   73.1950 135.60 135.6 117.7 10     0.0000
PLCL   ?    ?    ? P      ? 20110614 1118   18.0783 GAU  3.77e-02 -1.00e+00 -1.00e+00 -1.00e+00 >    0.0000    0.0000    0.0000   13.4947   40.2453   -4.3543    0.0000   0.00 359.0  -1.0  0     0.0000
PLTP   ?    ?    ? P      ? 20110614 1118   21.4715 GAU  3.93e-02 -1.00e+00 -1.00e+00 -1.00e+00 >    0.0000    0.0000    0.0000   38.5576   25.2769   -4.3881    0.0000   0.00 359.0  -1.0  0     0.0000
PL03   ?    ?    ? P      ? 20110614 1118   19.9567 GAU  1.07e-01 -1.00e+00 -1.00e+00 -1.00e+00 >    0.0000    0.0000    0.0000   22.1889   28.1546   -4.6285    0.0000   0.00 359.0  -1.0  0     0.0000
PLLC   ?    ?    ? P      ? 20110614 1118   16.3380 GAU  1.96e-01 -1.00e+00 -1.00e+00 -1.00e+00 >    0.0000    0.0000    0.0000  -44.1417   14.1667   -4.7494    0.0000   0.00 359.0  -1.0  0     0.0000
END_PHASE
END_NLLOC

