NLLOC "./loc/Uturuncu_XP_run002/loc.Tom_RunNLLoc000.20110622.053400.grid0" "LOCATED" "Location completed."
SIGNATURE "Tom Hudson, University of Oxford   obs:obs/Uturuncu_XP_run002/20110622053350070000.nonlinloc   NLLoc:v7.00.00(27Oct2017)  run:27Feb2020 12h21m27"
COMMENT "Control"
GRID  240 240 121  -60 -60 -6.5  0.5 0.5 0.5 PROB_DENSITY
SEARCH OCTREE nInitial 400 nEvaluated 200000 smallestNodeSide 0.373437/0.373437/0.472656 oct_tree_integral 5.489468e+03 scatter_volume 5.436481e+03
HYPOCENTER  x -39.6477 y 14.5008 z 40.0566  OT 51.4773  ix -1 iy -1 iz -1 MAXIMUM_LIKELIHOOD
GEOGRAPHIC  OT 2011 06 22  05 33 51.477263  Lat -22.138592 Long -67.544325 Depth 40.056641
QUALITY  Pmax 7.54596e+13 MFmin 6.33437 MFmax 9.89744 RMS 0.341636 Nphs 9 Gap 260.623 Dist 22.5672 Mamp -9.90 0 Mdur -9.90 0
VPVSRATIO  VpVsRatio -1  Npair 0  Diff -2e+30
STATISTICS  ExpectX -39.847 Y 16.5673 Z 41.0594  CovXX 90.3931 XY 1.80537 XZ -26.7817 YY 35.619 YZ 18.164 ZZ 69.6673 EllAz1  345.585 Dip1  -28.4935 Len1  9.38942 Az2  227.712 Dip2  -40.7377 Len2  14.6566 Len3  1.969190e+01
STAT_GEOG  ExpectLat -22.119925 Long -67.546207 Depth 41.059351
TRANSFORM  LAMBERT RefEllipsoid WGS-84  LatOrig -22.270000  LongOrig -67.160000  FirstStdParal -22.280000  SecondStdParal -22.260000  RotCW 0.000000
QML_OriginQuality  assocPhCt 12  usedPhCt 9  assocStaCt -1  usedStaCt 9  depthPhCt -1  stdErr 0.341636  azGap 260.623  secAzGap 281.152  gtLevel -  minDist 22.5672 maxDist 76.9305 medDist 43.0008
QML_OriginUncertainty  horUnc -1  minHorUnc 9.04361  maxHorUnc 14.4236  azMaxHorUnc 88.1142
QML_ConfidenceEllipsoid  semiMajorAxisLength 19.6919  semiMinorAxisLength 9.38942  semiIntermediateAxisLength 14.6566  majorAxisPlunge -36.0626  majorAxisAzimuth 98.8681  majorAxisRotation 247.224
FOCALMECH  Hyp  -22.138592 -67.544325 40.056641 Mech  0 0 0 mf  0 nObs 0
PHASE ID Ins Cmp On Pha  FM Date     HrMn   Sec     Err  ErrMag    Coda      Amp       Per  >   TTpred    Res       Weight    StaLoc(X  Y         Z)        SDist    SAzim  RAz  RDip RQual    Tcorr 
PLJR   ?    ?    ? P      ? 20110622 0534    0.1337 GAU  9.19e-02 -1.00e+00 -1.00e+00 -1.00e+00 >    8.8250   -0.1685    1.1566  -19.4793   24.6258   -4.2437   22.5672  63.34  63.3 150.3 10     0.0000
PLSM   ?    ?    ? P      ? 20110622 0534    0.7428 GAU  2.76e-02 -1.00e+00 -1.00e+00 -1.00e+00 >    9.1931    0.0724    1.1588  -12.8358   17.3797   -4.2160   26.9660  83.87  83.9 145.6 10     0.0000
PLCM   ?    ?    ? P      ? 20110622 0534    2.1525 GAU  3.62e-02 -1.00e+00 -1.00e+00 -1.00e+00 >   10.3174    0.3578    0.9997   -4.6800    3.1110   -5.1500   36.7758 108.04 108.0 136.8 10     0.0000
PLCO   ?    ?    ? P      ? 20110622 0534    1.2247 GAU  3.65e-02 -1.00e+00 -1.00e+00 -1.00e+00 >   10.3216   -0.5741    0.9047  -28.5311  -21.2320   -4.6885   37.4220 162.72 162.7 136.0 10     0.0000
PLSE   ?    ?    ? P      ? 20110622 0534    2.7941 GAU  2.14e-02 -1.00e+00 -1.00e+00 -1.00e+00 >   10.9653    0.3516    0.9916  -13.4022  -19.5616   -4.6799   43.0008 142.39 142.4 131.1 10     0.0000
PLLL   ?    ?    ? P      ? 20110622 0534    3.6664 GAU  5.66e-02 -1.00e+00 -1.00e+00 -1.00e+00 >   12.0111    0.1781    1.0451    1.0293  -16.6657   -4.7503   51.2442 127.46 127.5 124.7 10     0.0000
PL07   ?    ?    ? P      ? 20110622 0534    4.8569 GAU  5.94e-02 -1.00e+00 -1.00e+00 -1.00e+00 >   13.3140    0.0656    1.0298   14.3650  -13.7157   -4.6414   60.9388 117.58 117.6 118.7 10     0.0000
PLRR   ?    ?    ? P      ? 20110622 0534    5.4107 GAU  5.16e-02 -1.00e+00 -1.00e+00 -1.00e+00 >   14.5338   -0.6003    0.8419   28.6536    0.9591   -4.4805   69.6307 101.21 101.2 114.3 10     0.0000
PLWB   ?    ?    ? P      ? 20110622 0534    6.5927 GAU  5.91e-02 -1.00e+00 -1.00e+00 -1.00e+00 >   15.6072   -0.4917    0.8718   33.5070   -9.3046   -4.4915   76.9305 108.03 108.0 111.4 10     0.0000
PLSQ   ?    ?    ? P      ? 20110622 0534    0.3184 GAU  6.76e-02 -1.00e+00 -1.00e+00 -1.00e+00 >    0.0000    0.0000    0.0000  -49.2231  -16.6550   -4.8115    0.0000   0.00 359.0  -1.0  0     0.0000
PLCL   ?    ?    ? P      ? 20110622 0534    2.9678 GAU  2.69e-02 -1.00e+00 -1.00e+00 -1.00e+00 >    0.0000    0.0000    0.0000   13.4947   40.2453   -4.3543    0.0000   0.00 359.0  -1.0  0     0.0000
PLAN   ?    ?    ? P      ? 20110622 0534    2.7596 GAU  4.71e-02 -1.00e+00 -1.00e+00 -1.00e+00 >    0.0000    0.0000    0.0000  -23.2922  -41.4887   -4.6967    0.0000   0.00 359.0  -1.0  0     0.0000
END_PHASE
END_NLLOC

