NLLOC "./loc/Uturuncu_XP_run002/loc.Tom_RunNLLoc000.20110622.222116.grid0" "LOCATED" "Location completed."
SIGNATURE "Tom Hudson, University of Oxford   obs:obs/Uturuncu_XP_run002/20110622222108000000.nonlinloc   NLLoc:v7.00.00(27Oct2017)  run:27Feb2020 12h21m43"
COMMENT "Control"
GRID  240 240 121  -60 -60 -6.5  0.5 0.5 0.5 PROB_DENSITY
SEARCH OCTREE nInitial 400 nEvaluated 200000 smallestNodeSide 0.186719/0.186719/0.236328 oct_tree_integral 2.893827e+03 scatter_volume 2.857281e+03
HYPOCENTER  x -33.2059 y 10.8598 z 35.4482  OT 11.3895  ix -1 iy -1 iz -1 MAXIMUM_LIKELIHOOD
GEOGRAPHIC  OT 2011 06 22  22 21 11.389483  Lat -22.171609 Long -67.481957 Depth 35.448242
QUALITY  Pmax 7.69433e+30 MFmin 11.8619 MFmax 18.4315 RMS 0.31552 Nphs 15 Gap 260.539 Dist 14.9029 Mamp -9.90 0 Mdur -9.90 0
VPVSRATIO  VpVsRatio -1  Npair 0  Diff -2e+30
STATISTICS  ExpectX -37.0119 Y 12.7222 Z 39.3046  CovXX 57.0344 XY -16.7386 XZ -32.5568 YY 31.6867 YZ 12.9092 ZZ 49.8238 EllAz1  246.487 Dip1  -39.7985 Len1  8.43844 Az2  0.96901 Dip2  -26.4462 Len2  9.39066 Len3  1.815686e+01
STAT_GEOG  ExpectLat -22.154712 Long -67.518817 Depth 39.304583
TRANSFORM  LAMBERT RefEllipsoid WGS-84  LatOrig -22.270000  LongOrig -67.160000  FirstStdParal -22.280000  SecondStdParal -22.260000  RotCW 0.000000
QML_OriginQuality  assocPhCt 23  usedPhCt 15  assocStaCt -1  usedStaCt 15  depthPhCt -1  stdErr 0.31552  azGap 260.539  secAzGap 285.315  gtLevel -  minDist 14.9029 maxDist 69.6937 medDist 36.2994
QML_OriginUncertainty  horUnc -1  minHorUnc 7.33075  maxHorUnc 12.2605  azMaxHorUnc 116.434
QML_ConfidenceEllipsoid  semiMajorAxisLength 18.1569  semiMinorAxisLength 8.43844  semiIntermediateAxisLength 9.39066  majorAxisPlunge -38.7595  majorAxisAzimuth 114.507  majorAxisRotation 278.551
FOCALMECH  Hyp  -22.171609 -67.481957 35.448242 Mech  0 0 0 mf  0 nObs 0
PHASE ID Ins Cmp On Pha  FM Date     HrMn   Sec     Err  ErrMag    Coda      Amp       Per  >   TTpred    Res       Weight    StaLoc(X  Y         Z)        SDist    SAzim  RAz  RDip RQual    Tcorr 
PLQU   ?    ?    ? P      ? 20110622 2221   18.9450 GAU  2.73e-02 -1.00e+00 -1.00e+00 -1.00e+00 >    7.6068   -0.0513    1.2043  -18.4486    8.7814   -4.1525   14.9029  98.02  98.0 156.8 10     0.0000
PLLA   ?    ?    ? P      ? 20110622 2221   19.2892 GAU  3.67e-02 -1.00e+00 -1.00e+00 -1.00e+00 >    7.8944    0.0052    1.1925  -22.6264   -4.7336   -4.2420   18.8435 145.84 145.8 151.6 10     0.0000
PLSM   ?    ?    ? P      ? 20110622 2221   19.1611 GAU  8.00e-02 -1.00e+00 -1.00e+00 -1.00e+00 >    8.0929   -0.3214    1.0841  -12.8358   17.3797   -4.2160   21.3881  72.25  72.3 148.5 10     0.0000
PLBR   ?    ?    ? P      ? 20110622 2221   20.7099 GAU  6.04e-02 -1.00e+00 -1.00e+00 -1.00e+00 >    8.9350    0.3854    0.9653   -7.7901   -3.9330   -4.7950   29.4073 120.20 120.2 139.7 10     0.0000
PLCM   ?    ?    ? P      ? 20110622 2221   20.5938 GAU  8.22e-02 -1.00e+00 -1.00e+00 -1.00e+00 >    9.0043    0.2000    1.0866   -4.6800    3.1110   -5.1500   29.5596 105.20 105.2 139.8 10     0.0000
PLCO   ?    ?    ? P      ? 20110622 2221   19.7002 GAU  3.93e-02 -1.00e+00 -1.00e+00 -1.00e+00 >    9.2418   -0.9311    0.5550  -28.5311  -21.2320   -4.6885   32.4305 171.71 171.7 136.5 10     0.0000
PLSS   ?    ?    ? P      ? 20110622 2221   21.4291 GAU  6.89e-02 -1.00e+00 -1.00e+00 -1.00e+00 >    9.6243    0.4153    0.9271   -1.1850   -5.1823   -4.6864   35.8146 116.61 116.6 133.0 10     0.0000
PLSE   ?    ?    ? P      ? 20110622 2221   20.9881 GAU  1.33e-02 -1.00e+00 -1.00e+00 -1.00e+00 >    9.6802   -0.0816    1.1238  -13.4022  -19.5616   -4.6799   36.2994 146.94 146.9 132.4 10     0.0000
PLMN   ?    ?    ? P      ? 20110622 2221   21.2205 GAU  7.17e-02 -1.00e+00 -1.00e+00 -1.00e+00 >    9.7713    0.0597    1.1083    4.0539   12.1026   -4.5125   37.2805  88.09  88.1 131.4 10     0.0000
PLMK   ?    ?    ? P      ? 20110622 2221   22.0728 GAU  3.89e-02 -1.00e+00 -1.00e+00 -1.00e+00 >   10.4393    0.2440    1.0200    8.5662    2.0463   -4.4835   42.6917 101.91 101.9 126.2 10     0.0000
PLLL   ?    ?    ? P      ? 20110622 2221   22.0515 GAU  6.06e-02 -1.00e+00 -1.00e+00 -1.00e+00 >   10.6350    0.0270    1.0804    1.0293  -16.6657   -4.7503   43.9283 128.80 128.8 125.4 10     0.0000
PLDK   ?    ?    ? P      ? 20110622 2221   22.6849 GAU  1.07e-01 -1.00e+00 -1.00e+00 -1.00e+00 >   11.6957   -0.4003    0.9473   18.7319   12.7120   -4.5524   51.9708  87.96  88.0 119.0 10     0.0000
PLAR   ?    ?    ? P      ? 20110622 2221   24.5602 GAU  1.11e-02 -1.00e+00 -1.00e+00 -1.00e+00 >   13.2321   -0.0614    0.9855   18.7497  -24.0743   -4.6320   62.6081 123.92 123.9 112.9 10     0.0000
PLRR   ?    ?    ? P      ? 20110622 2221   24.0400 GAU  4.13e-02 -1.00e+00 -1.00e+00 -1.00e+00 >   13.2199   -0.5694    0.8290   28.6536    0.9591   -4.4805   62.6468  99.09  99.1 112.7 10     0.0000
PLWB   ?    ?    ? P      ? 20110622 2221   25.2875 GAU  6.77e-02 -1.00e+00 -1.00e+00 -1.00e+00 >   14.2699   -0.3719    0.8909   33.5070   -9.3046   -4.4915   69.6937 106.82 106.8 109.4 10     0.0000
PLTP   ?    ?    ? S      ? 20110622 2221   41.7633 GAU  1.75e-02 -1.00e+00 -1.00e+00 -1.00e+00 >    0.0000    0.0000    0.0000   38.5576   25.2769   -4.3881    0.0000   0.00 359.0  -1.0  0     0.0000
PLSQ   ?    ?    ? P      ? 20110622 2221   18.0787 GAU  1.28e-01 -1.00e+00 -1.00e+00 -1.00e+00 >    0.0000    0.0000    0.0000  -49.2231  -16.6550   -4.8115    0.0000   0.00 359.0  -1.0  0     0.0000
PLAN   ?    ?    ? P      ? 20110622 2221   20.9970 GAU  9.17e-02 -1.00e+00 -1.00e+00 -1.00e+00 >    0.0000    0.0000    0.0000  -23.2922  -41.4887   -4.6967    0.0000   0.00 359.0  -1.0  0     0.0000
PLCL   ?    ?    ? P      ? 20110622 2221   21.3875 GAU  9.40e-02 -1.00e+00 -1.00e+00 -1.00e+00 >    0.0000    0.0000    0.0000   13.4947   40.2453   -4.3543    0.0000   0.00 359.0  -1.0  0     0.0000
PLSP   ?    ?    ? P      ? 20110622 2221   22.4791 GAU  3.16e-02 -1.00e+00 -1.00e+00 -1.00e+00 >    0.0000    0.0000    0.0000    4.0291  -44.2734   -4.7267    0.0000   0.00 359.0  -1.0  0     0.0000
PL03   ?    ?    ? P      ? 20110622 2221   22.7633 GAU  1.12e-01 -1.00e+00 -1.00e+00 -1.00e+00 >    0.0000    0.0000    0.0000   22.1889   28.1546   -4.6285    0.0000   0.00 359.0  -1.0  0     0.0000
PLTP   ?    ?    ? P      ? 20110622 2221   24.7083 GAU  7.20e-02 -1.00e+00 -1.00e+00 -1.00e+00 >    0.0000    0.0000    0.0000   38.5576   25.2769   -4.3881    0.0000   0.00 359.0  -1.0  0     0.0000
PLLC   ?    ?    ? P      ? 20110622 2221   16.7665 GAU  7.11e-02 -1.00e+00 -1.00e+00 -1.00e+00 >    0.0000    0.0000    0.0000  -44.1417   14.1667   -4.7494    0.0000   0.00 359.0  -1.0  0     0.0000
END_PHASE
END_NLLOC

