NLLOC "./loc/Uturuncu_XP_run002/loc.Tom_RunNLLoc000.20110611.134416.grid0" "LOCATED" "Location completed."
SIGNATURE "Tom Hudson, University of Oxford   obs:obs/Uturuncu_XP_run002/20110611134408810000.nonlinloc   NLLoc:v7.00.00(27Oct2017)  run:27Feb2020 12h19m37"
COMMENT "Control"
GRID  240 240 121  -60 -60 -6.5  0.5 0.5 0.5 PROB_DENSITY
SEARCH OCTREE nInitial 400 nEvaluated 200000 smallestNodeSide 0.186719/0.186719/0.236328 oct_tree_integral 3.877629e+03 scatter_volume 3.877629e+03
HYPOCENTER  x 11.1398 y 23.4633 z 52.3457  OT 7.19624  ix -1 iy -1 iz -1 MAXIMUM_LIKELIHOOD
GEOGRAPHIC  OT 2011 06 11  13 44 7.196236  Lat -22.058073 Long -67.052077 Depth 52.345703
QUALITY  Pmax 9.32038e+18 MFmin 7.98632 MFmax 14.1374 RMS 0.363408 Nphs 11 Gap 229.934 Dist 13.1617 Mamp -9.90 0 Mdur -9.90 0
VPVSRATIO  VpVsRatio -1  Npair 0  Diff -2e+30
STATISTICS  ExpectX 12.9211 Y 19.084 Z 44.8366  CovXX 27.5408 XY -10.2213 XZ -0.340993 YY 75.4319 YZ 23.6916 ZZ 43.5166 EllAz1  247.659 Dip1  23.4681 Len1  9.10803 Az2  302.743 Dip2  -52.8193 Len2  10.8874 Len3  1.776559e+01
STAT_GEOG  ExpectLat -22.097609 Long -67.034786 Depth 44.836647
TRANSFORM  LAMBERT RefEllipsoid WGS-84  LatOrig -22.270000  LongOrig -67.160000  FirstStdParal -22.280000  SecondStdParal -22.260000  RotCW 0.000000
QML_OriginQuality  assocPhCt 15  usedPhCt 11  assocStaCt -1  usedStaCt 11  depthPhCt -1  stdErr 0.363408  azGap 229.934  secAzGap 271.972  gtLevel -  minDist 13.1617 maxDist 49.5324 medDist 33.3001
QML_OriginUncertainty  horUnc -1  minHorUnc 7.6509  maxHorUnc 13.3529  azMaxHorUnc 168.442
QML_ConfidenceEllipsoid  semiMajorAxisLength 17.7656  semiMinorAxisLength 9.10803  semiIntermediateAxisLength 10.8874  majorAxisPlunge -27.0364  majorAxisAzimuth 170.46  majorAxisRotation 40.4267
FOCALMECH  Hyp  -22.058073 -67.052077 52.345703 Mech  0 0 0 mf  0 nObs 0
PHASE ID Ins Cmp On Pha  FM Date     HrMn   Sec     Err  ErrMag    Coda      Amp       Per  >   TTpred    Res       Weight    StaLoc(X  Y         Z)        SDist    SAzim  RAz  RDip RQual    Tcorr 
PLDK   ?    ?    ? P      ? 20110611 1344   17.4142 GAU  3.66e-02 -1.00e+00 -1.00e+00 -1.00e+00 >   10.1430    0.0749    1.1258   18.7319   12.7120   -4.5524   13.1617 144.77 144.8 165.5 10     0.0000
PLMN   ?    ?    ? P      ? 20110611 1344   17.6003 GAU  3.14e-02 -1.00e+00 -1.00e+00 -1.00e+00 >   10.1453    0.2588    1.0565    4.0539   12.1026   -4.5125   13.3894 211.95 212.0 165.2 10     0.0000
PLMK   ?    ?    ? P      ? 20110611 1344   18.0251 GAU  9.21e-03 -1.00e+00 -1.00e+00 -1.00e+00 >   10.5584    0.2705    1.0410    8.5662    2.0463   -4.4835   21.5710 186.85 186.9 157.5 10     0.0000
PLRR   ?    ?    ? P      ? 20110611 1344   18.0852 GAU  5.46e-02 -1.00e+00 -1.00e+00 -1.00e+00 >   11.0371   -0.1481    1.1058   28.6536    0.9591   -4.4805   28.5162 142.11 142.1 151.3 10     0.0000
PLJR   ?    ?    ? P      ? 20110611 1344   17.6732 GAU  1.91e-02 -1.00e+00 -1.00e+00 -1.00e+00 >   11.1647   -0.6877    0.8443  -19.4793   24.6258   -4.2437   30.6412 272.17 272.2 149.4 10     0.0000
PLBR   ?    ?    ? P      ? 20110611 1344   19.1485 GAU  5.16e-02 -1.00e+00 -1.00e+00 -1.00e+00 >   11.4767    0.4755    0.8957   -7.7901   -3.9330   -4.7950   33.3001 214.64 214.6 147.5 10     0.0000
PL07   ?    ?    ? P      ? 20110611 1344   18.7688 GAU  3.51e-02 -1.00e+00 -1.00e+00 -1.00e+00 >   11.8130   -0.2404    1.0652   14.3650  -13.7157   -4.6414   37.3186 175.04 175.0 144.3 10     0.0000
PLWB   ?    ?    ? P      ? 20110611 1344   18.3984 GAU  3.58e-02 -1.00e+00 -1.00e+00 -1.00e+00 >   12.0112   -0.8090    0.7524   33.5070   -9.3046   -4.4915   39.6740 145.68 145.7 142.5 10     0.0000
PLLL   ?    ?    ? P      ? 20110611 1344   19.5746 GAU  4.67e-02 -1.00e+00 -1.00e+00 -1.00e+00 >   12.2194    0.1590    1.0396    1.0293  -16.6657   -4.7503   41.3830 194.14 194.1 141.4 10     0.0000
PLLA   ?    ?    ? P      ? 20110611 1344   19.3062 GAU  6.94e-02 -1.00e+00 -1.00e+00 -1.00e+00 >   12.4060   -0.2960    1.0310  -22.6264   -4.7336   -4.2420   43.9912 230.14 230.1 139.3 10     0.0000
PLSE   ?    ?    ? P      ? 20110611 1344   20.1163 GAU  1.83e-02 -1.00e+00 -1.00e+00 -1.00e+00 >   13.0679   -0.1479    1.0426  -13.4022  -19.5616   -4.6799   49.5324 209.70 209.7 135.9 10     0.0000
PLAN   ?    ?    ? P      ? 20110611 1344   21.3888 GAU  3.74e-02 -1.00e+00 -1.00e+00 -1.00e+00 >    0.0000    0.0000    0.0000  -23.2922  -41.4887   -4.6967    0.0000   0.00 359.0  -1.0  0     0.0000
PLTP   ?    ?    ? P      ? 20110611 1344   16.7873 GAU  6.12e-02 -1.00e+00 -1.00e+00 -1.00e+00 >    0.0000    0.0000    0.0000   38.5576   25.2769   -4.3881    0.0000   0.00 359.0  -1.0  0     0.0000
PLLC   ?    ?    ? P      ? 20110611 1344   19.4759 GAU  1.52e-02 -1.00e+00 -1.00e+00 -1.00e+00 >    0.0000    0.0000    0.0000  -44.1417   14.1667   -4.7494    0.0000   0.00 359.0  -1.0  0     0.0000
PLCL   ?    ?    ? P      ? 20110611 1344   16.3016 GAU  5.99e-02 -1.00e+00 -1.00e+00 -1.00e+00 >    0.0000    0.0000    0.0000   13.4947   40.2453   -4.3543    0.0000   0.00 359.0  -1.0  0     0.0000
END_PHASE
END_NLLOC

