NLLOC "./loc/Uturuncu_XP_run002/loc.Tom_RunNLLoc000.20110615.140159.grid0" "LOCATED" "Location completed."
SIGNATURE "Tom Hudson, University of Oxford   obs:obs/Uturuncu_XP_run002/20110615140152440000.nonlinloc   NLLoc:v7.00.00(27Oct2017)  run:27Feb2020 12h20m19"
COMMENT "Control"
GRID  240 240 121  -60 -60 -6.5  0.5 0.5 0.5 PROB_DENSITY
SEARCH OCTREE nInitial 400 nEvaluated 200016 smallestNodeSide 0.373437/0.373437/0.472656 oct_tree_integral 4.001336e+03 scatter_volume 3.980701e+03
HYPOCENTER  x -41.1414 y 0.683594 z 31.5488  OT 54.5308  ix -1 iy -1 iz -1 MAXIMUM_LIKELIHOOD
GEOGRAPHIC  OT 2011 06 15  14 01 54.530758  Lat -22.263336 Long -67.559159 Depth 31.548828
QUALITY  Pmax 2.76212e+19 MFmin 8.32923 MFmax 14.5653 RMS 0.31428 Nphs 11 Gap 276.014 Dist 19.2912 Mamp -9.90 0 Mdur -9.90 0
VPVSRATIO  VpVsRatio -1  Npair 0  Diff -2e+30
STATISTICS  ExpectX -44.6738 Y -0.129615 Z 35.7905  CovXX 60.9431 XY 3.98193 XZ -34.158 YY 38.1862 YZ -9.61858 ZZ 73.3182 EllAz1  234.264 Dip1  -38.1073 Len1  10.4277 Az2  333.111 Dip2  -11.0938 Len2  11.6247 Len3  1.910153e+01
STAT_GEOG  ExpectLat -22.270592 Long -67.593453 Depth 35.790495
TRANSFORM  LAMBERT RefEllipsoid WGS-84  LatOrig -22.270000  LongOrig -67.160000  FirstStdParal -22.280000  SecondStdParal -22.260000  RotCW 0.000000
QML_OriginQuality  assocPhCt 17  usedPhCt 11  assocStaCt -1  usedStaCt 11  depthPhCt -1  stdErr 0.31428  azGap 276.014  secAzGap 309.697  gtLevel -  minDist 19.2912 maxDist 75.3137 medDist 40.3847
QML_OriginUncertainty  horUnc -1  minHorUnc 9.28827  maxHorUnc 11.9048  azMaxHorUnc 80.3562
QML_ConfidenceEllipsoid  semiMajorAxisLength 19.1015  semiMinorAxisLength 10.4277  semiIntermediateAxisLength 11.6247  majorAxisPlunge -49.7265  majorAxisAzimuth 76.4917  majorAxisRotation 87.0686
FOCALMECH  Hyp  -22.263336 -67.559159 31.548828 Mech  0 0 0 mf  0 nObs 0
PHASE ID Ins Cmp On Pha  FM Date     HrMn   Sec     Err  ErrMag    Coda      Amp       Per  >   TTpred    Res       Weight    StaLoc(X  Y         Z)        SDist    SAzim  RAz  RDip RQual    Tcorr 
PLLA   ?    ?    ? P      ? 20110615 1402    1.8582 GAU  6.22e-02 -1.00e+00 -1.00e+00 -1.00e+00 >    7.3924   -0.0650    1.1983  -22.6264   -4.7336   -4.2420   19.2912 106.31 106.3 148.0 10     0.0000
PLJR   ?    ?    ? P      ? 20110615 1402    3.1230 GAU  3.02e-02 -1.00e+00 -1.00e+00 -1.00e+00 >    8.7270   -0.1347    1.1391  -19.4793   24.6258   -4.2437   32.2874  42.14  42.1 131.8 10     0.0000
PLBR   ?    ?    ? P      ? 20110615 1402    3.6929 GAU  3.02e-02 -1.00e+00 -1.00e+00 -1.00e+00 >    8.9696    0.1925    1.1263   -7.7901   -3.9330   -4.7950   33.6693  97.88  97.9 130.7 10     0.0000
PLSE   ?    ?    ? P      ? 20110615 1402    3.2604 GAU  3.10e-02 -1.00e+00 -1.00e+00 -1.00e+00 >    9.0363   -0.3066    1.0395  -13.4022  -19.5616   -4.6799   34.3414 126.12 126.1 129.9 10     0.0000
PLCM   ?    ?    ? P      ? 20110615 1402    4.2942 GAU  1.07e-01 -1.00e+00 -1.00e+00 -1.00e+00 >    9.3720    0.3914    0.9996   -4.6800    3.1110   -5.1500   36.5421  86.19  86.2 127.9 10     0.0000
PLSS   ?    ?    ? P      ? 20110615 1402    4.8383 GAU  6.43e-02 -1.00e+00 -1.00e+00 -1.00e+00 >    9.8101    0.4975    0.9148   -1.1850   -5.1823   -4.6864   40.3847  98.35  98.4 123.4 10     0.0000
PLMN   ?    ?    ? P      ? 20110615 1402    5.1366 GAU  3.15e-02 -1.00e+00 -1.00e+00 -1.00e+00 >   10.6441   -0.0382    1.0934    4.0539   12.1026   -4.5125   46.6156  75.82  75.8 117.6 10     0.0000
PLMK   ?    ?    ? P      ? 20110615 1402    6.1835 GAU  4.55e-02 -1.00e+00 -1.00e+00 -1.00e+00 >   11.0849    0.5679    0.8444    8.5662    2.0463   -4.4835   49.7263  88.43  88.4 115.2 10     0.0000
PLDK   ?    ?    ? P      ? 20110615 1402    7.0652 GAU  4.24e-02 -1.00e+00 -1.00e+00 -1.00e+00 >   12.7747   -0.2403    0.9681   18.7319   12.7120   -4.5524   61.0696  78.64  78.6 108.0  9     0.0000
PLRR   ?    ?    ? P      ? 20110615 1402    8.1462 GAU  7.61e-02 -1.00e+00 -1.00e+00 -1.00e+00 >   14.1061   -0.4906    0.8209   28.6536    0.9591   -4.4805   69.7956  89.77  89.8 103.6  9     0.0000
PLWB   ?    ?    ? P      ? 20110615 1402    9.1229 GAU  5.66e-02 -1.00e+00 -1.00e+00 -1.00e+00 >   14.9665   -0.3745    0.8556   33.5070   -9.3046   -4.4915   75.3137  97.62  97.6 101.3  9     0.0000
PLTP   ?    ?    ? P      ? 20110615 1402   10.1098 GAU  5.82e-02 -1.00e+00 -1.00e+00 -1.00e+00 >    0.0000    0.0000    0.0000   38.5576   25.2769   -4.3881    0.0000   0.00 359.0  -1.0  0     0.0000
PLLC   ?    ?    ? P      ? 20110615 1401   59.7030 GAU  6.28e-02 -1.00e+00 -1.00e+00 -1.00e+00 >    0.0000    0.0000    0.0000  -44.1417   14.1667   -4.7494    0.0000   0.00 359.0  -1.0  0     0.0000
PLSP   ?    ?    ? P      ? 20110615 1402    5.9503 GAU  2.21e-02 -1.00e+00 -1.00e+00 -1.00e+00 >    0.0000    0.0000    0.0000    4.0291  -44.2734   -4.7267    0.0000   0.00 359.0  -1.0  0     0.0000
PLCL   ?    ?    ? P      ? 20110615 1402    7.4193 GAU  5.29e-02 -1.00e+00 -1.00e+00 -1.00e+00 >    0.0000    0.0000    0.0000   13.4947   40.2453   -4.3543    0.0000   0.00 359.0  -1.0  0     0.0000
PL03   ?    ?    ? P      ? 20110615 1402    7.9588 GAU  7.06e-02 -1.00e+00 -1.00e+00 -1.00e+00 >    0.0000    0.0000    0.0000   22.1889   28.1546   -4.6285    0.0000   0.00 359.0  -1.0  0     0.0000
PLSQ   ?    ?    ? P      ? 20110615 1401   59.2710 GAU  6.38e-02 -1.00e+00 -1.00e+00 -1.00e+00 >    0.0000    0.0000    0.0000  -49.2231  -16.6550   -4.8115    0.0000   0.00 359.0  -1.0  0     0.0000
END_PHASE
END_NLLOC

