NLLOC "./loc/Uturuncu_XP_run002/loc.Tom_RunNLLoc000.20110614.045755.grid0" "LOCATED" "Location completed."
SIGNATURE "Tom Hudson, University of Oxford   obs:obs/Uturuncu_XP_run002/20110614045745950000.nonlinloc   NLLoc:v7.00.00(27Oct2017)  run:27Feb2020 12h20m04"
COMMENT "Control"
GRID  240 240 121  -60 -60 -6.5  0.5 0.5 0.5 PROB_DENSITY
SEARCH OCTREE nInitial 400 nEvaluated 200008 smallestNodeSide 0.186719/0.186719/0.236328 oct_tree_integral 3.148307e+03 scatter_volume 3.125337e+03
HYPOCENTER  x 5.44492 y 31.959 z 41.5928  OT 48.4941  ix -1 iy -1 iz -1 MAXIMUM_LIKELIHOOD
GEOGRAPHIC  OT 2011 06 14  04 57 48.494140  Lat -21.981377 Long -67.107278 Depth 41.592773
QUALITY  Pmax 1.92181e+21 MFmin 9.01666 MFmax 13.3641 RMS 0.400474 Nphs 12 Gap 249.574 Dist 19.905 Mamp -9.90 0 Mdur -9.90 0
VPVSRATIO  VpVsRatio -1  Npair 0  Diff -2e+30
STATISTICS  ExpectX 6.32267 Y 34.9865 Z 42.979  CovXX 19.7605 XY 9.48417 XZ 3.70092 YY 67.5017 YZ 24.0109 ZZ 51.605 EllAz1  101.904 Dip1  2.26263 Len1  7.95141 Az2  15.1288 Dip2  -54.9203 Len2  11.0594 Len3  1.745471e+01
STAT_GEOG  ExpectLat -21.954033 Long -67.098791 Depth 42.978999
TRANSFORM  LAMBERT RefEllipsoid WGS-84  LatOrig -22.270000  LongOrig -67.160000  FirstStdParal -22.280000  SecondStdParal -22.260000  RotCW 0.000000
QML_OriginQuality  assocPhCt 16  usedPhCt 12  assocStaCt -1  usedStaCt 12  depthPhCt -1  stdErr 0.400474  azGap 249.574  secAzGap 277.307  gtLevel -  minDist 19.905 maxDist 57.5912 medDist 42.4621
QML_OriginUncertainty  horUnc -1  minHorUnc 6.42453  maxHorUnc 12.6265  azMaxHorUnc 10.8344
QML_ConfidenceEllipsoid  semiMajorAxisLength 17.4547  semiMinorAxisLength 7.95141  semiIntermediateAxisLength 11.0594  majorAxisPlunge 34.9847  majorAxisAzimuth 10.3192  majorAxisRotation 8.01725
FOCALMECH  Hyp  -21.981377 -67.107278 41.592773 Mech  0 0 0 mf  0 nObs 0
PHASE ID Ins Cmp On Pha  FM Date     HrMn   Sec     Err  ErrMag    Coda      Amp       Per  >   TTpred    Res       Weight    StaLoc(X  Y         Z)        SDist    SAzim  RAz  RDip RQual    Tcorr 
PLMN   ?    ?    ? P      ? 20110614 0457   57.8457 GAU  6.26e-02 -1.00e+00 -1.00e+00 -1.00e+00 >    8.8898    0.4618    1.0341    4.0539   12.1026   -4.5125   19.9050 184.01 184.0 154.3 10     0.0000
PLDK   ?    ?    ? P      ? 20110614 0457   57.7465 GAU  5.70e-02 -1.00e+00 -1.00e+00 -1.00e+00 >    9.1534    0.0990    1.2058   18.7319   12.7120   -4.5524   23.3878 145.38 145.4 150.5 10     0.0000
PLJR   ?    ?    ? P      ? 20110614 0457   57.5980 GAU  1.88e-02 -1.00e+00 -1.00e+00 -1.00e+00 >    9.3152   -0.2114    1.1562  -19.4793   24.6258   -4.2437   25.9806 253.61 253.6 147.7 10     0.0000
PLQU   ?    ?    ? P      ? 20110614 0457   58.4747 GAU  2.29e-02 -1.00e+00 -1.00e+00 -1.00e+00 >    9.9861   -0.0055    1.1870  -18.4486    8.7814   -4.1525   33.2881 225.87 225.9 140.5 10     0.0000
PLBR   ?    ?    ? P      ? 20110614 0457   59.7860 GAU  5.50e-02 -1.00e+00 -1.00e+00 -1.00e+00 >   10.6047    0.6872    0.8459   -7.7901   -3.9330   -4.7950   38.2544 200.24 200.2 136.6 10     0.0000
PLRR   ?    ?    ? P      ? 20110614 0457   59.0059 GAU  4.03e-02 -1.00e+00 -1.00e+00 -1.00e+00 >   10.6104   -0.0986    1.1535   28.6536    0.9591   -4.4805   38.7251 143.18 143.2 136.0 10     0.0000
PLLA   ?    ?    ? P      ? 20110614 0457   59.5753 GAU  4.54e-02 -1.00e+00 -1.00e+00 -1.00e+00 >   11.4505   -0.3693    1.0207  -22.6264   -4.7336   -4.2420   46.1990 217.42 217.4 129.6 10     0.0000
PL07   ?    ?    ? P      ? 20110614 0457   59.7650 GAU  3.88e-02 -1.00e+00 -1.00e+00 -1.00e+00 >   11.5489   -0.2780    1.0647   14.3650  -13.7157   -4.6414   46.5376 168.95 168.9 129.6 10     0.0000
PLLL   ?    ?    ? P      ? 20110614 0458    0.3842 GAU  3.67e-02 -1.00e+00 -1.00e+00 -1.00e+00 >   11.8457    0.0443    1.1238    1.0293  -16.6657   -4.7503   48.8247 185.19 185.2 128.0 10     0.0000
PLWB   ?    ?    ? P      ? 20110614 0457   59.6385 GAU  9.49e-02 -1.00e+00 -1.00e+00 -1.00e+00 >   11.9463   -0.8019    0.7024   33.5070   -9.3046   -4.4915   49.9016 145.78 145.8 127.1 10     0.0000
PLSE   ?    ?    ? P      ? 20110614 0458    1.2198 GAU  2.55e-02 -1.00e+00 -1.00e+00 -1.00e+00 >   12.6165    0.1092    1.0932  -13.4022  -19.5616   -4.6799   54.8597 200.09 200.1 123.8 10     0.0000
PLAR   ?    ?    ? P      ? 20110614 0458    2.7655 GAU  1.10e-02 -1.00e+00 -1.00e+00 -1.00e+00 >   12.9770    1.2944    0.4127   18.7497  -24.0743   -4.6320   57.5912 166.64 166.6 122.1 10     0.0000
PLLC   ?    ?    ? P      ? 20110614 0457   59.3928 GAU  3.19e-02 -1.00e+00 -1.00e+00 -1.00e+00 >    0.0000    0.0000    0.0000  -44.1417   14.1667   -4.7494    0.0000   0.00 359.0  -1.0  0     0.0000
PL03   ?    ?    ? P      ? 20110614 0457   56.7289 GAU  9.33e-02 -1.00e+00 -1.00e+00 -1.00e+00 >    0.0000    0.0000    0.0000   22.1889   28.1546   -4.6285    0.0000   0.00 359.0  -1.0  0     0.0000
PLTP   ?    ?    ? P      ? 20110614 0457   56.7703 GAU  3.85e-02 -1.00e+00 -1.00e+00 -1.00e+00 >    0.0000    0.0000    0.0000   38.5576   25.2769   -4.3881    0.0000   0.00 359.0  -1.0  0     0.0000
PLCL   ?    ?    ? P      ? 20110614 0457   55.6734 GAU  5.75e-02 -1.00e+00 -1.00e+00 -1.00e+00 >    0.0000    0.0000    0.0000   13.4947   40.2453   -4.3543    0.0000   0.00 359.0  -1.0  0     0.0000
END_PHASE
END_NLLOC

