NLLOC "./loc/Uturuncu_XP_run002/loc.Tom_RunNLLoc000.20110611.213106.grid0" "LOCATED" "Location completed."
SIGNATURE "Tom Hudson, University of Oxford   obs:obs/Uturuncu_XP_run002/20110611213100920000.nonlinloc   NLLoc:v7.00.00(27Oct2017)  run:27Feb2020 12h19m43"
COMMENT "Control"
GRID  240 240 121  -60 -60 -6.5  0.5 0.5 0.5 PROB_DENSITY
SEARCH OCTREE nInitial 400 nEvaluated 200008 smallestNodeSide 0.186719/0.186719/0.236328 oct_tree_integral 2.156095e+03 scatter_volume 2.156095e+03
HYPOCENTER  x -8.55898 y -10.4262 z 48.9189  OT 57.3097  ix -1 iy -1 iz -1 MAXIMUM_LIKELIHOOD
GEOGRAPHIC  OT 2011 06 11  21 30 57.309655  Lat -22.364133 Long -67.243100 Depth 48.918945
QUALITY  Pmax 5.72692e+23 MFmin 9.62969 MFmax 13.8833 RMS 0.380457 Nphs 13 Gap 118.531 Dist 6.53853 Mamp -9.90 0 Mdur -9.90 0
VPVSRATIO  VpVsRatio -1  Npair 1  Diff 0
STATISTICS  ExpectX -7.9097 Y -11.6122 Z 44.9827  CovXX 24.4851 XY 3.98158 XZ -7.58444 YY 36.4119 YZ 8.34405 ZZ 35.9936 EllAz1  116.42 Dip1  29.8061 Len1  7.89455 Az2  43.3986 Dip2  -27.0107 Len2  11.0073 Len3  1.259128e+01
STAT_GEOG  ExpectLat -22.374847 Long -67.236802 Depth 44.982676
TRANSFORM  LAMBERT RefEllipsoid WGS-84  LatOrig -22.270000  LongOrig -67.160000  FirstStdParal -22.280000  SecondStdParal -22.260000  RotCW 0.000000
QML_OriginQuality  assocPhCt 15  usedPhCt 13  assocStaCt -1  usedStaCt 12  depthPhCt -1  stdErr 0.380457  azGap 118.531  secAzGap 143.418  gtLevel -  minDist 6.53853 maxDist 42.081 medDist 22.9334
QML_OriginUncertainty  horUnc -1  minHorUnc 7.31708  maxHorUnc 9.3018  azMaxHorUnc 16.865
QML_ConfidenceEllipsoid  semiMajorAxisLength 12.5913  semiMinorAxisLength 7.89455  semiIntermediateAxisLength 11.0073  majorAxisPlunge 47.6777  majorAxisAzimuth 347.439  majorAxisRotation 274.874
FOCALMECH  Hyp  -22.364133 -67.243100 48.918945 Mech  0 0 0 mf  0 nObs 0
PHASE ID Ins Cmp On Pha  FM Date     HrMn   Sec     Err  ErrMag    Coda      Amp       Per  >   TTpred    Res       Weight    StaLoc(X  Y         Z)        SDist    SAzim  RAz  RDip RQual    Tcorr 
PLBR   ?    ?    ? P      ? 20110611 2131    6.7876 GAU  3.98e-02 -1.00e+00 -1.00e+00 -1.00e+00 >    9.4421    0.0358    1.2398   -7.7901   -3.9330   -4.7950    6.5385   6.75   6.8 171.7  9     0.0000
PLSS   ?    ?    ? P      ? 20110611 2131    7.0106 GAU  3.92e-02 -1.00e+00 -1.00e+00 -1.00e+00 >    9.4897    0.2112    1.1942   -1.1850   -5.1823   -4.6864    9.0484  54.58  54.6 168.9  9     0.0000
PLLL   ?    ?    ? P      ? 20110611 2131    7.3015 GAU  4.57e-02 -1.00e+00 -1.00e+00 -1.00e+00 >    9.5827    0.4091    1.0757    1.0293  -16.6657   -4.7503   11.4397 123.05 123.1 166.4 10     0.0000
PLCM   ?    ?    ? P      ? 20110611 2131    7.8588 GAU  4.97e-02 -1.00e+00 -1.00e+00 -1.00e+00 >    9.7619    0.7873    0.7331   -4.6800    3.1110   -5.1500   14.0820  15.99  16.0 163.8 10     0.0000
PLLA   ?    ?    ? P      ? 20110611 2131    6.8729 GAU  3.31e-02 -1.00e+00 -1.00e+00 -1.00e+00 >    9.6517   -0.0884    1.2267  -22.6264   -4.7336   -4.2420   15.1756 292.03 292.0 162.4 10     0.0000
PLCO   ?    ?    ? P      ? 20110611 2131    7.0196 GAU  1.02e-02 -1.00e+00 -1.00e+00 -1.00e+00 >   10.1672   -0.4572    1.0352  -28.5311  -21.2320   -4.6885   22.7079 241.58 241.6 155.1 10     0.0000
PLCO   ?    ?    ? S      ? 20110611 2131   12.8221 GAU  3.00e-02 -1.00e+00 -1.00e+00 -1.00e+00 >   17.9264   -2.4140    0.0963  -28.5311  -21.2320   -4.6885   22.7079 241.58 241.6 155.7 10     0.0000
PL07   ?    ?    ? P      ? 20110611 2131    7.8241 GAU  2.96e-02 -1.00e+00 -1.00e+00 -1.00e+00 >   10.1903    0.3242    1.1185   14.3650  -13.7157   -4.6414   23.1588  98.17  98.2 154.6 10     0.0000
PLMN   ?    ?    ? P      ? 20110611 2131    7.5623 GAU  5.19e-02 -1.00e+00 -1.00e+00 -1.00e+00 >   10.3574   -0.1048    1.1987    4.0539   12.1026   -4.5125   25.8192  29.24  29.2 152.0 10     0.0000
PLSM   ?    ?    ? S      ? 20110611 2131   15.9436 GAU  1.51e-02 -1.00e+00 -1.00e+00 -1.00e+00 >   18.4963    0.1377    0.9173  -12.8358   17.3797   -4.2160   28.1328 351.26 351.3 150.7 10     0.0000
PLDK   ?    ?    ? P      ? 20110611 2131    8.1429 GAU  3.14e-02 -1.00e+00 -1.00e+00 -1.00e+00 >   11.2107   -0.3774    1.0664   18.7319   12.7120   -4.5524   35.7794  49.71  49.7 143.5 10     0.0000
PLRR   ?    ?    ? P      ? 20110611 2131    8.4541 GAU  1.61e-01 -1.00e+00 -1.00e+00 -1.00e+00 >   11.5060   -0.3616    1.0572   28.6536    0.9591   -4.4805   38.9153  72.99  73.0 141.0 10     0.0000
PLWB   ?    ?    ? P      ? 20110611 2131    8.7460 GAU  4.21e-02 -1.00e+00 -1.00e+00 -1.00e+00 >   11.8325   -0.3962    1.0409   33.5070   -9.3046   -4.4915   42.0810  88.47  88.5 138.7 10     0.0000
PLCL   ?    ?    ? P      ? 20110611 2131    8.8150 GAU  3.51e-02 -1.00e+00 -1.00e+00 -1.00e+00 >    0.0000    0.0000    0.0000   13.4947   40.2453   -4.3543    0.0000   0.00 359.0  -1.0  0     0.0000
PLTP   ?    ?    ? P      ? 20110611 2131    9.5531 GAU  6.26e-02 -1.00e+00 -1.00e+00 -1.00e+00 >    0.0000    0.0000    0.0000   38.5576   25.2769   -4.3881    0.0000   0.00 359.0  -1.0  0     0.0000
END_PHASE
END_NLLOC

