NLLOC "./loc/Uturuncu_XP_run002/loc.Tom_RunNLLoc000.20110614.120944.grid0" "LOCATED" "Location completed."
SIGNATURE "Tom Hudson, University of Oxford   obs:obs/Uturuncu_XP_run002/20110614120933570000.nonlinloc   NLLoc:v7.00.00(27Oct2017)  run:27Feb2020 12h20m11"
COMMENT "Control"
GRID  240 240 121  -60 -60 -6.5  0.5 0.5 0.5 PROB_DENSITY
SEARCH OCTREE nInitial 400 nEvaluated 200016 smallestNodeSide 0.186719/0.186719/0.236328 oct_tree_integral 2.289242e+03 scatter_volume 2.279445e+03
HYPOCENTER  x -34.8863 y 30.4652 z 38.2842  OT 36.9934  ix -1 iy -1 iz -1 MAXIMUM_LIKELIHOOD
GEOGRAPHIC  OT 2011 06 14  12 09 36.993447  Lat -21.994523 Long -67.497826 Depth 38.284180
QUALITY  Pmax 1.88372e+24 MFmin 8.93687 MFmax 15.3046 RMS 0.300904 Nphs 13 Gap 295.328 Dist 16.4765 Mamp -9.90 0 Mdur -9.90 0
VPVSRATIO  VpVsRatio -1  Npair 0  Diff -2e+30
STATISTICS  ExpectX -36.5204 Y 30.373 Z 38.7958  CovXX 58.2487 XY -25.9094 XZ -14.2564 YY 43.2463 YZ 2.92292 ZZ 35.1455 EllAz1  43.9125 Dip1  27.9048 Len1  8.49657 Az2  188.77 Dip2  57.0718 Len2  11.0648 Len3  1.696232e+01
STAT_GEOG  ExpectLat -21.995323 Long -67.513652 Depth 38.795847
TRANSFORM  LAMBERT RefEllipsoid WGS-84  LatOrig -22.270000  LongOrig -67.160000  FirstStdParal -22.280000  SecondStdParal -22.260000  RotCW 0.000000
QML_OriginQuality  assocPhCt 17  usedPhCt 13  assocStaCt -1  usedStaCt 13  depthPhCt -1  stdErr 0.300904  azGap 295.328  secAzGap 307.523  gtLevel -  minDist 16.4765 maxDist 79.1157 medDist 52.0864
QML_OriginUncertainty  horUnc -1  minHorUnc 7.39462  maxHorUnc 13.37  azMaxHorUnc 126.927
QML_ConfidenceEllipsoid  semiMajorAxisLength 16.9623  semiMinorAxisLength 8.49657  semiIntermediateAxisLength 11.0648  majorAxisPlunge -16.0522  majorAxisAzimuth 125.148  majorAxisRotation 146.646
FOCALMECH  Hyp  -21.994523 -67.497826 38.284180 Mech  0 0 0 mf  0 nObs 0
PHASE ID Ins Cmp On Pha  FM Date     HrMn   Sec     Err  ErrMag    Coda      Amp       Per  >   TTpred    Res       Weight    StaLoc(X  Y         Z)        SDist    SAzim  RAz  RDip RQual    Tcorr 
PLJR   ?    ?    ? P      ? 20110614 1209   44.9631 GAU  5.31e-02 -1.00e+00 -1.00e+00 -1.00e+00 >    8.1362   -0.1665    1.1770  -19.4793   24.6258   -4.2437   16.4765 110.76 110.8 156.4 10     0.0000
PLQU   ?    ?    ? S      ? 20110614 1209   52.8850 GAU  1.42e-02 -1.00e+00 -1.00e+00 -1.00e+00 >   15.7287    0.1629    0.9679  -18.4486    8.7814   -4.1525   27.2100 142.84 142.8 145.2 10     0.0000
PLLA   ?    ?    ? P      ? 20110614 1209   46.9716 GAU  3.48e-02 -1.00e+00 -1.00e+00 -1.00e+00 >   10.0390   -0.0609    1.1559  -22.6264   -4.7336   -4.2420   37.2728 160.80 160.8 134.1 10     0.0000
PLMN   ?    ?    ? P      ? 20110614 1209   48.0774 GAU  7.09e-02 -1.00e+00 -1.00e+00 -1.00e+00 >   10.7650    0.3190    1.0785    4.0539   12.1026   -4.5125   43.0526 115.25 115.2 129.1 10     0.0000
PLBR   ?    ?    ? P      ? 20110614 1209   47.9831 GAU  4.73e-02 -1.00e+00 -1.00e+00 -1.00e+00 >   10.8956    0.0941    1.1339   -7.7901   -3.9330   -4.7950   43.7886 141.77 141.8 128.7 10     0.0000
PLMK   ?    ?    ? P      ? 20110614 1209   49.5318 GAU  1.65e-02 -1.00e+00 -1.00e+00 -1.00e+00 >   11.9103    0.6281    0.8839    8.5662    2.0463   -4.4835   51.9207 123.19 123.2 122.2 10     0.0000
PLCO   ?    ?    ? S      ? 20110614 1209   58.8358 GAU  7.73e-03 -1.00e+00 -1.00e+00 -1.00e+00 >   20.9897    0.8527    0.6672  -28.5311  -21.2320   -4.6885   52.0864 172.99 173.0 124.4 10     0.0000
PLSE   ?    ?    ? P      ? 20110614 1209   48.9235 GAU  5.57e-02 -1.00e+00 -1.00e+00 -1.00e+00 >   12.2790   -0.3489    0.9840  -13.4022  -19.5616   -4.6799   54.4450 156.76 156.8 120.7 10     0.0000
PLDK   ?    ?    ? P      ? 20110614 1209   49.7636 GAU  3.79e-02 -1.00e+00 -1.00e+00 -1.00e+00 >   12.5437    0.2264    1.0585   18.7319   12.7120   -4.5524   56.4809 108.32 108.3 119.3 10     0.0000
PLLL   ?    ?    ? P      ? 20110614 1209   49.9494 GAU  7.86e-02 -1.00e+00 -1.00e+00 -1.00e+00 >   12.9559    0.0000    1.0617    1.0293  -16.6657   -4.7503   59.2559 142.69 142.7 117.9 10     0.0000
PLRR   ?    ?    ? P      ? 20110614 1209   51.2622 GAU  5.73e-02 -1.00e+00 -1.00e+00 -1.00e+00 >   14.4841   -0.2153    0.9753   28.6536    0.9591   -4.4805   70.0567 114.91 114.9 112.4 10     0.0000
PLAR   ?    ?    ? P      ? 20110614 1209   52.4977 GAU  3.87e-02 -1.00e+00 -1.00e+00 -1.00e+00 >   15.4586    0.0457    0.9818   18.7497  -24.0743   -4.6320   76.4944 135.48 135.5 109.9 10     0.0000
PLWB   ?    ?    ? P      ? 20110614 1209   52.4209 GAU  2.22e-02 -1.00e+00 -1.00e+00 -1.00e+00 >   15.8370   -0.4096    0.8744   33.5070   -9.3046   -4.4915   79.1157 120.18 120.2 108.8 10     0.0000
PLCL   ?    ?    ? P      ? 20110614 1209   47.2122 GAU  3.29e-02 -1.00e+00 -1.00e+00 -1.00e+00 >    0.0000    0.0000    0.0000   13.4947   40.2453   -4.3543    0.0000   0.00 359.0  -1.0  0     0.0000
PL03   ?    ?    ? P      ? 20110614 1209   49.1298 GAU  1.00e-01 -1.00e+00 -1.00e+00 -1.00e+00 >    0.0000    0.0000    0.0000   22.1889   28.1546   -4.6285    0.0000   0.00 359.0  -1.0  0     0.0000
PLLC   ?    ?    ? P      ? 20110614 1209   44.0230 GAU  4.23e-02 -1.00e+00 -1.00e+00 -1.00e+00 >    0.0000    0.0000    0.0000  -44.1417   14.1667   -4.7494    0.0000   0.00 359.0  -1.0  0     0.0000
PLTP   ?    ?    ? P      ? 20110614 1209   51.1560 GAU  7.84e-02 -1.00e+00 -1.00e+00 -1.00e+00 >    0.0000    0.0000    0.0000   38.5576   25.2769   -4.3881    0.0000   0.00 359.0  -1.0  0     0.0000
END_PHASE
END_NLLOC

