NLLOC "./loc/Uturuncu_XP_run002/loc.Tom_RunNLLoc000.20110614.152706.grid0" "LOCATED" "Location completed."
SIGNATURE "Tom Hudson, University of Oxford   obs:obs/Uturuncu_XP_run002/20110614152658200000.nonlinloc   NLLoc:v7.00.00(27Oct2017)  run:27Feb2020 12h20m15"
COMMENT "Control"
GRID  240 240 121  -60 -60 -6.5  0.5 0.5 0.5 PROB_DENSITY
SEARCH OCTREE nInitial 400 nEvaluated 200008 smallestNodeSide 0.373437/0.373437/0.472656 oct_tree_integral 8.393687e+03 scatter_volume 8.160737e+03
HYPOCENTER  x -37.9672 y 8.33906 z 40.293  OT 0.411918  ix -1 iy -1 iz -1 MAXIMUM_LIKELIHOOD
GEOGRAPHIC  OT 2011 06 14  15 27 0.411918  Lat -22.194275 Long -67.528181 Depth 40.292969
QUALITY  Pmax 5.79332e+28 MFmin 11.2712 MFmax 16.7284 RMS 0.447348 Nphs 15 Gap 246.32 Dist 19.5236 Mamp -9.90 0 Mdur -9.90 0
VPVSRATIO  VpVsRatio -1  Npair 0  Diff -2e+30
STATISTICS  ExpectX -43.816 Y 3.76048 Z 42.0665  CovXX 77.2131 XY 15.8985 XZ -23.4535 YY 65.4472 YZ 0.602723 ZZ 46.4822 EllAz1  116.532 Dip1  55.1217 Len1  10.573 Az2  164.295 Dip2  -25.1057 Len2  14.7066 Len3  1.842829e+01
STAT_GEOG  ExpectLat -22.235484 Long -67.585024 Depth 42.066528
TRANSFORM  LAMBERT RefEllipsoid WGS-84  LatOrig -22.270000  LongOrig -67.160000  FirstStdParal -22.280000  SecondStdParal -22.260000  RotCW 0.000000
QML_OriginQuality  assocPhCt 19  usedPhCt 15  assocStaCt -1  usedStaCt 15  depthPhCt -1  stdErr 0.447348  azGap 246.32  secAzGap 282.58  gtLevel -  minDist 19.5236 maxDist 73.6197 medDist 42.1893
QML_OriginUncertainty  horUnc -1  minHorUnc 11.1835  maxHorUnc 14.2495  azMaxHorUnc 55.1531
QML_ConfidenceEllipsoid  semiMajorAxisLength 18.4283  semiMinorAxisLength 10.573  semiIntermediateAxisLength 14.7066  majorAxisPlunge -22.5427  majorAxisAzimuth 63.0795  majorAxisRotation 69.9396
FOCALMECH  Hyp  -22.194275 -67.528181 40.292969 Mech  0 0 0 mf  0 nObs 0
PHASE ID Ins Cmp On Pha  FM Date     HrMn   Sec     Err  ErrMag    Coda      Amp       Per  >   TTpred    Res       Weight    StaLoc(X  Y         Z)        SDist    SAzim  RAz  RDip RQual    Tcorr 
PLQU   ?    ?    ? P      ? 20110614 1527    8.9090 GAU  9.65e-02 -1.00e+00 -1.00e+00 -1.00e+00 >    8.6167   -0.1196    1.2740  -18.4486    8.7814   -4.1525   19.5236  88.70  88.7 153.8 10     0.0000
PLLA   ?    ?    ? P      ? 20110614 1527    9.1281 GAU  3.18e-02 -1.00e+00 -1.00e+00 -1.00e+00 >    8.6758    0.0404    1.2912  -22.6264   -4.7336   -4.2420   20.1552 130.44 130.4 153.1 10     0.0000
PLJR   ?    ?    ? P      ? 20110614 1527    8.9240 GAU  9.82e-02 -1.00e+00 -1.00e+00 -1.00e+00 >    9.0262   -0.5141    1.0449  -19.4793   24.6258   -4.2437   24.6385  48.62  48.6 148.2 10     0.0000
PLCO   ?    ?    ? P      ? 20110614 1527    8.0079 GAU  7.77e-02 -1.00e+00 -1.00e+00 -1.00e+00 >    9.6826   -2.0866    0.0985  -28.5311  -21.2320   -4.6885   31.0401 162.30 162.3 142.0 10     0.0000
PLBR   ?    ?    ? P      ? 20110614 1527   10.4685 GAU  1.07e-01 -1.00e+00 -1.00e+00 -1.00e+00 >    9.8510    0.2055    1.2130   -7.7901   -3.9330   -4.7950   32.5770 112.13 112.1 140.6 10     0.0000
PLCM   ?    ?    ? P      ? 20110614 1527   10.6043 GAU  6.96e-02 -1.00e+00 -1.00e+00 -1.00e+00 >   10.0190    0.1734    1.2225   -4.6800    3.1110   -5.1500   33.6952  98.93  98.9 139.7 10     0.0000
PLSS   ?    ?    ? P      ? 20110614 1527   11.4764 GAU  5.30e-02 -1.00e+00 -1.00e+00 -1.00e+00 >   10.5461    0.5184    1.0236   -1.1850   -5.1823   -4.6864   39.1888 110.18 110.2 134.5 10     0.0000
PLMN   ?    ?    ? P      ? 20110614 1527   11.8870 GAU  4.60e-02 -1.00e+00 -1.00e+00 -1.00e+00 >   10.8683    0.6068    0.9525    4.0539   12.1026   -4.5125   42.1893  84.88  84.9 131.8 10     0.0000
PLLL   ?    ?    ? P      ? 20110614 1527   11.6082 GAU  1.17e-01 -1.00e+00 -1.00e+00 -1.00e+00 >   11.4049   -0.2086    1.1662    1.0293  -16.6657   -4.7503   46.3246 122.67 122.7 128.6 10     0.0000
PLMK   ?    ?    ? P      ? 20110614 1527   12.8095 GAU  4.16e-02 -1.00e+00 -1.00e+00 -1.00e+00 >   11.4471    0.9505    0.6637    8.5662    2.0463   -4.4835   46.9569  97.70  97.7 128.0 10     0.0000
PL07   ?    ?    ? P      ? 20110614 1527   12.5477 GAU  1.66e-02 -1.00e+00 -1.00e+00 -1.00e+00 >   12.7604   -0.6246    0.9374   14.3650  -13.7157   -4.6414   56.7897 112.85 112.9 121.3 10     0.0000
PLDK   ?    ?    ? P      ? 20110614 1527   13.2423 GAU  5.47e-02 -1.00e+00 -1.00e+00 -1.00e+00 >   12.7582    0.0722    1.1531   18.7319   12.7120   -4.5524   56.8674  85.59  85.6 121.2 10     0.0000
PLAR   ?    ?    ? P      ? 20110614 1527   14.2390 GAU  4.07e-02 -1.00e+00 -1.00e+00 -1.00e+00 >   13.9497   -0.1227    1.1099   18.7497  -24.0743   -4.6320   65.3256 119.75 119.7 116.7 10     0.0000
PLRR   ?    ?    ? P      ? 20110614 1527   14.2579 GAU  1.42e-01 -1.00e+00 -1.00e+00 -1.00e+00 >   14.1740   -0.3280    1.0485   28.6536    0.9591   -4.4805   67.0283  96.32  96.3 115.8 10     0.0000
PLWB   ?    ?    ? P      ? 20110614 1527   14.7177 GAU  3.49e-02 -1.00e+00 -1.00e+00 -1.00e+00 >   15.1327   -0.8270    0.8009   33.5070   -9.3046   -4.4915   73.6197 103.87 103.9 112.9 10     0.0000
PLTP   ?    ?    ? P      ? 20110614 1527   15.7660 GAU  7.20e-02 -1.00e+00 -1.00e+00 -1.00e+00 >    0.0000    0.0000    0.0000   38.5576   25.2769   -4.3881    0.0000   0.00 359.0  -1.0  0     0.0000
PLCL   ?    ?    ? P      ? 20110614 1527   12.9256 GAU  7.71e-02 -1.00e+00 -1.00e+00 -1.00e+00 >    0.0000    0.0000    0.0000   13.4947   40.2453   -4.3543    0.0000   0.00 359.0  -1.0  0     0.0000
PL03   ?    ?    ? P      ? 20110614 1527   13.8097 GAU  8.50e-02 -1.00e+00 -1.00e+00 -1.00e+00 >    0.0000    0.0000    0.0000   22.1889   28.1546   -4.6285    0.0000   0.00 359.0  -1.0  0     0.0000
PLLC   ?    ?    ? P      ? 20110614 1527    6.3461 GAU  1.60e-01 -1.00e+00 -1.00e+00 -1.00e+00 >    0.0000    0.0000    0.0000  -44.1417   14.1667   -4.7494    0.0000   0.00 359.0  -1.0  0     0.0000
END_PHASE
END_NLLOC

