NLLOC "./loc/Uturuncu_XP_run002/loc.Tom_RunNLLoc000.20110614.042345.grid0" "LOCATED" "Location completed."
SIGNATURE "Tom Hudson, University of Oxford   obs:obs/Uturuncu_XP_run002/20110614042336170000.nonlinloc   NLLoc:v7.00.00(27Oct2017)  run:27Feb2020 12h20m01"
COMMENT "Control"
GRID  240 240 121  -60 -60 -6.5  0.5 0.5 0.5 PROB_DENSITY
SEARCH OCTREE nInitial 400 nEvaluated 200008 smallestNodeSide 0.373437/0.373437/0.472656 oct_tree_integral 5.051581e+03 scatter_volume 4.991533e+03
HYPOCENTER  x -37.407 y -16.1211 z 34.8574  OT 39.0494  ix -1 iy -1 iz -1 MAXIMUM_LIKELIHOOD
GEOGRAPHIC  OT 2011 06 14  04 23 39.049393  Lat -22.415177 Long -67.523319 Depth 34.857422
QUALITY  Pmax 4.88616e+17 MFmin 8.2275 MFmax 11.6863 RMS 0.574718 Nphs 11 Gap 263.815 Dist 10.2423 Mamp -9.90 0 Mdur -9.90 0
VPVSRATIO  VpVsRatio -1  Npair 1  Diff 0
STATISTICS  ExpectX -40.8884 Y -19.8204 Z 39.3604  CovXX 68.9036 XY 20.0527 XZ -25.4023 YY 75.0068 YZ -13.5878 ZZ 52.7994 EllAz1  92.8102 Dip1  52.9928 Len1  10.9839 Az2  328.953 Dip2  22.7792 Len2  14.0944 Len3  1.936714e+01
STAT_GEOG  ExpectLat -22.448504 Long -67.557227 Depth 39.360388
TRANSFORM  LAMBERT RefEllipsoid WGS-84  LatOrig -22.270000  LongOrig -67.160000  FirstStdParal -22.280000  SecondStdParal -22.260000  RotCW 0.000000
QML_OriginQuality  assocPhCt 14  usedPhCt 11  assocStaCt -1  usedStaCt 10  depthPhCt -1  stdErr 0.574718  azGap 263.815  secAzGap 292.454  gtLevel -  minDist 10.2423 maxDist 71.2409 medDist 41.4783
QML_OriginUncertainty  horUnc -1  minHorUnc 10.9016  maxHorUnc 14.5653  azMaxHorUnc 40.6735
QML_ConfidenceEllipsoid  semiMajorAxisLength 19.3671  semiMinorAxisLength 10.9839  semiIntermediateAxisLength 14.0944  majorAxisPlunge -27.4428  majorAxisAzimuth 46.3573  majorAxisRotation 74.4167
FOCALMECH  Hyp  -22.415177 -67.523319 34.857422 Mech  0 0 0 mf  0 nObs 0
PHASE ID Ins Cmp On Pha  FM Date     HrMn   Sec     Err  ErrMag    Coda      Amp       Per  >   TTpred    Res       Weight    StaLoc(X  Y         Z)        SDist    SAzim  RAz  RDip RQual    Tcorr 
PLCO   ?    ?    ? P      ? 20110614 0423   45.5769 GAU  1.96e-02 -1.00e+00 -1.00e+00 -1.00e+00 >    7.3579   -0.8303    0.9469  -28.5311  -21.2320   -4.6885   10.2423 119.93 119.9 163.2 10     0.0000
PLLA   ?    ?    ? P      ? 20110614 0423   47.0919 GAU  6.70e-02 -1.00e+00 -1.00e+00 -1.00e+00 >    7.7976    0.2449    1.1201  -22.6264   -4.7336   -4.2420   18.6585  52.39  52.4 151.5 10     0.0000
PLSE   ?    ?    ? P      ? 20110614 0423   47.2938 GAU  6.40e-02 -1.00e+00 -1.00e+00 -1.00e+00 >    8.3409   -0.0965    1.2164  -13.4022  -19.5616   -4.6799   24.2502  98.16  98.2 144.9 10     0.0000
PLBR   ?    ?    ? P      ? 20110614 0423   48.8982 GAU  3.69e-02 -1.00e+00 -1.00e+00 -1.00e+00 >    9.1439    0.7048    0.7660   -7.7901   -3.9330   -4.7950   32.0267  67.63  67.6 136.4 10     0.0000
PLBR   ?    ?    ? S      ? 20110614 0423   54.3945 GAU  1.58e-02 -1.00e+00 -1.00e+00 -1.00e+00 >   15.9793   -0.6342    0.9887   -7.7901   -3.9330   -4.7950   32.0267  67.63  67.6 138.2 10     0.0000
PLLL   ?    ?    ? P      ? 20110614 0423   49.4903 GAU  4.90e-02 -1.00e+00 -1.00e+00 -1.00e+00 >    9.8842    0.5568    0.8995    1.0293  -16.6657   -4.7503   38.4402  90.81  90.8 129.7 10     0.0000
PLJR   ?    ?    ? P      ? 20110614 0423   48.8995 GAU  8.23e-02 -1.00e+00 -1.00e+00 -1.00e+00 >   10.5935   -0.7434    1.0131  -19.4793   24.6258   -4.2437   44.5164  23.75  23.7 123.7 10     0.0000
PLMN   ?    ?    ? P      ? 20110614 0423   50.7542 GAU  5.16e-02 -1.00e+00 -1.00e+00 -1.00e+00 >   11.3921    0.3127    1.0514    4.0539   12.1026   -4.5125   50.1557  55.76  55.8 119.5 10     0.0000
PL07   ?    ?    ? P      ? 20110614 0423   50.3825 GAU  6.18e-02 -1.00e+00 -1.00e+00 -1.00e+00 >   11.6424   -0.3093    1.1669   14.3650  -13.7157   -4.6414   51.8279  87.34  87.3 118.5 10     0.0000
PLRR   ?    ?    ? P      ? 20110614 0423   52.4693 GAU  7.01e-02 -1.00e+00 -1.00e+00 -1.00e+00 >   14.0179   -0.5980    1.0393   28.6536    0.9591   -4.4805   68.2330  75.50  75.5 109.2 10     0.0000
PLWB   ?    ?    ? P      ? 20110614 0423   52.4602 GAU  4.55e-02 -1.00e+00 -1.00e+00 -1.00e+00 >   14.4735   -1.0627    0.7916   33.5070   -9.3046   -4.4915   71.2409  84.51  84.5 107.9 10     0.0000
PLCL   ?    ?    ? P      ? 20110614 0423   53.6192 GAU  7.98e-02 -1.00e+00 -1.00e+00 -1.00e+00 >    0.0000    0.0000    0.0000   13.4947   40.2453   -4.3543    0.0000   0.00 359.0  -1.0  0     0.0000
PLTP   ?    ?    ? P      ? 20110614 0423   54.9121 GAU  6.01e-02 -1.00e+00 -1.00e+00 -1.00e+00 >    0.0000    0.0000    0.0000   38.5576   25.2769   -4.3881    0.0000   0.00 359.0  -1.0  0     0.0000
PL03   ?    ?    ? P      ? 20110614 0423   53.2021 GAU  5.95e-02 -1.00e+00 -1.00e+00 -1.00e+00 >    0.0000    0.0000    0.0000   22.1889   28.1546   -4.6285    0.0000   0.00 359.0  -1.0  0     0.0000
END_PHASE
END_NLLOC

