NLLOC "./loc/Uturuncu_XP_run002/loc.Tom_RunNLLoc000.20100422.223839.grid0" "LOCATED" "Location completed."
SIGNATURE "Tom Hudson, University of Oxford   obs:obs/Uturuncu_XP_run002/20100422223831540000.nonlinloc   NLLoc:v7.00.00(27Oct2017)  run:27Feb2020 11h50m52"
COMMENT "Control"
GRID  240 240 121  -60 -60 -6.5  0.5 0.5 0.5 PROB_DENSITY
SEARCH OCTREE nInitial 400 nEvaluated 200008 smallestNodeSide 0.373437/0.373437/0.472656 oct_tree_integral 3.621848e+03 scatter_volume 3.621848e+03
HYPOCENTER  x -27.6977 y 12.2602 z 25.877  OT 34.8471  ix -1 iy -1 iz -1 MAXIMUM_LIKELIHOOD
GEOGRAPHIC  OT 2010 04 22  22 38 34.847131  Lat -22.159060 Long -67.428527 Depth 25.876953
QUALITY  Pmax 2.01354e+16 MFmin 8.07174 MFmax 11.809 RMS 0.273256 Nphs 10 Gap 265.124 Dist 9.88161 Mamp -9.90 0 Mdur -9.90 0
VPVSRATIO  VpVsRatio -1  Npair 0  Diff -2e+30
STATISTICS  ExpectX -39.03 Y 18.456 Z 39.8209  CovXX 105.852 XY -39.0704 XZ -74.2774 YY 57.8447 YZ 44.1024 ZZ 120.74 EllAz1  7.49547 Dip1  -21.6603 Len1  11.1213 Az2  259.227 Dip2  -38.2844 Len2  11.6939 Len3  2.726961e+01
STAT_GEOG  ExpectLat -22.102888 Long -67.538242 Depth 39.820877
TRANSFORM  LAMBERT RefEllipsoid WGS-84  LatOrig -22.270000  LongOrig -67.160000  FirstStdParal -22.280000  SecondStdParal -22.260000  RotCW 0.000000
QML_OriginQuality  assocPhCt 12  usedPhCt 10  assocStaCt -1  usedStaCt 10  depthPhCt -1  stdErr 0.273256  azGap 265.124  secAzGap 272.7  gtLevel -  minDist 9.88161 maxDist 58.9708 medDist 36.28
QML_OriginUncertainty  horUnc -1  minHorUnc 9.09863  maxHorUnc 17.1382  azMaxHorUnc 119.217
QML_ConfidenceEllipsoid  semiMajorAxisLength 27.2696  semiMinorAxisLength 11.1213  semiIntermediateAxisLength 11.6939  majorAxisPlunge -43.8482  majorAxisAzimuth 119.922  majorAxisRotation 266.14
FOCALMECH  Hyp  -22.159060 -67.428527 25.876953 Mech  0 0 0 mf  0 nObs 0
PHASE ID Ins Cmp On Pha  FM Date     HrMn   Sec     Err  ErrMag    Coda      Amp       Per  >   TTpred    Res       Weight    StaLoc(X  Y         Z)        SDist    SAzim  RAz  RDip RQual    Tcorr 
PLQU   ?    ?    ? S      ? 20100422 2238   50.1868 GAU  2.64e-02 -1.00e+00 -1.00e+00 -1.00e+00 >   10.1746    5.1650    0.0000  -18.4486    8.7814   -4.1525    9.8816 110.61 110.6 159.8 10     0.0000
PLSM   ?    ?    ? P      ? 20100422 2238   41.1563 GAU  1.09e-01 -1.00e+00 -1.00e+00 -1.00e+00 >    6.3092   -0.0000    1.3605  -12.8358   17.3797   -4.2160   15.7190  70.99  71.0 149.1 10     0.0000
PLLA   ?    ?    ? P      ? 20100422 2238   41.3601 GAU  4.78e-02 -1.00e+00 -1.00e+00 -1.00e+00 >    6.4905    0.0225    1.3644  -22.6264   -4.7336   -4.2420   17.7343 163.38 163.4 145.9 10     0.0000
PLTM   ?    ?    ? P      ? 20100422 2238   42.5182 GAU  1.04e-01 -1.00e+00 -1.00e+00 -1.00e+00 >    7.7918   -0.1206    1.2702   -0.7327   22.8774   -4.7028   28.9799  68.51  68.5 130.1 10     0.0000
PLSE   ?    ?    ? P      ? 20100422 2238   43.2495 GAU  1.20e-01 -1.00e+00 -1.00e+00 -1.00e+00 >    8.5711   -0.1688    1.2116  -13.4022  -19.5616   -4.6799   34.8853 155.81 155.8 122.4 10     0.0000
PLMK   ?    ?    ? P      ? 20100422 2238   44.2742 GAU  9.80e-02 -1.00e+00 -1.00e+00 -1.00e+00 >    8.9403    0.4868    0.9307    8.5662    2.0463   -4.4835   37.6748 105.73 105.7 119.1 10     0.0000
PLLL   ?    ?    ? P      ? 20100422 2238   44.2605 GAU  1.03e-01 -1.00e+00 -1.00e+00 -1.00e+00 >    9.4195   -0.0061    1.2196    1.0293  -16.6657   -4.7503   40.7669 135.20 135.2 116.5 10     0.0000
PLLO   ?    ?    ? P      ? 20100422 2238   44.6793 GAU  5.51e-02 -1.00e+00 -1.00e+00 -1.00e+00 >    9.4152    0.4169    1.0011    8.3136   -7.0560   -4.5790   40.8647 118.21 118.2 116.2 10     0.0000
PLRR   ?    ?    ? P      ? 20100422 2238   45.9532 GAU  2.89e-02 -1.00e+00 -1.00e+00 -1.00e+00 >   11.9671   -0.8610    0.5815   28.6536    0.9591   -4.4805   57.4733 101.34 101.3 103.7 10     0.0000
PLAR   ?    ?    ? P      ? 20100422 2238   46.8828 GAU  7.70e-02 -1.00e+00 -1.00e+00 -1.00e+00 >   12.2204   -0.1847    1.0604   18.7497  -24.0743   -4.6320   58.9708 128.04 128.0 102.9 10     0.0000
PL03   ?    ?    ? P      ? 20100422 2238   44.9857 GAU  2.55e-01 -1.00e+00 -1.00e+00 -1.00e+00 >    0.0000    0.0000    0.0000   22.1889   28.1546   -4.6285    0.0000   0.00 359.0  -1.0  0     0.0000
PLSQ   ?    ?    ? P      ? 20100422 2238   39.7865 GAU  1.05e-01 -1.00e+00 -1.00e+00 -1.00e+00 >    0.0000    0.0000    0.0000  -49.2231  -16.6550   -4.8115    0.0000   0.00 359.0  -1.0  0     0.0000
END_PHASE
END_NLLOC

